{"type":"FeatureCollection","name":"Bengaluru_Master — Bengaluru_Fire_Stations_Locations","crs":{"type":"name","properties":{"name":"urn:ogc:def:crs:OGC:1.3:CRS84"}},"features":[{"type":"Feature","properties":{"fid":1,"OBJECTID":1,"Name":"Placemark","FolderPath":"Document/clipped","SymbolID":0,"AltMode":-1,"Base":0,"Snippet":"\u0003","PopupInfo":"呗","HasLabel":-1,"LabelID":0,"ward_source_id":"ward_369_final.51","ward_source_Name":null,"ward_description":null,"ward_timestamp":null,"ward_begin":null,"ward_end":null,"ward_altitudeMode":null,"ward_tessellate":-1,"ward_extrude":0,"ward_visibility":-1,"ward_drawOrder":null,"ward_icon":null,"ward_Corporation":"South","ward_corporation_kn":"ದಕ್ಷಿಣ","ward_corporation_id":"4","ward_ac":"Bangalore South","ward_ac_kn":"ಬೆಂಗಳೂರು ದಕ್ಷಿಣ","ward_ac_no":"176","ward_Assembly":"176 - Bangalore South","ward_id":"40","ward_name":"40 - Anjanapura","ward_name_kn":"ಅಂಜನಾಪುರ","ward_TOT_P":"23865.0","ward_TOT_M":"12534.0","ward_TOT_F":"11331.0","ward_SC_P":"2858.0","ward_SC_M":"1472.0","ward_SC_F":"1386.0","ward_ST_P":"352.0","ward_ST_M":"190.0","ward_ST_F":"162.0","ward_low_range":"18594","ward_high_range":"27891","ward_RO_Code":"4","ward_RO_Division":"RO- Anjanapura","ward_ARO_Code":"7","ward_ARO_ Sub Division":"ARO- Anjanapura","ward_zone":"Zone1","ward_zone_name":"Jayanagar","ward_join_status":"matched","ward_spatial_match_count":1},"geometry":{"type":"Point","coordinates":[77.56326700000005,12.859067000000039,0]},"id":1},{"type":"Feature","properties":{"fid":2,"OBJECTID":2,"Name":"Placemark","FolderPath":"Document/clipped","SymbolID":0,"AltMode":-1,"Base":0,"Snippet":"","PopupInfo":"","HasLabel":-1,"LabelID":0,"ward_source_id":"ward_369_final.337","ward_source_Name":null,"ward_description":null,"ward_timestamp":null,"ward_begin":null,"ward_end":null,"ward_altitudeMode":null,"ward_tessellate":-1,"ward_extrude":0,"ward_visibility":-1,"ward_drawOrder":null,"ward_icon":null,"ward_Corporation":"West","ward_corporation_kn":"ಪಶ್ಚಿಮ","ward_corporation_id":"5","ward_ac":"Padmanabanagar","ward_ac_kn":"ಪದ್ಮನಾಭನಗರ","ward_ac_no":"171","ward_Assembly":"171 - Padmanabanagar","ward_id":"108","ward_name":"108 - Ganesh Mandira Ward","ward_name_kn":"ಗಣೇಶ್ ಮಂದಿರಾ ವಾರ್ಡ್","ward_TOT_P":"24265.0","ward_TOT_M":"12133.0","ward_TOT_F":"12133.0","ward_SC_P":"774.0","ward_SC_M":"396.0","ward_SC_F":"378.0","ward_ST_P":"247.0","ward_ST_M":"127.0","ward_ST_F":"120.0","ward_low_range":"18949","ward_high_range":"28424","ward_RO_Code":"7","ward_RO_Division":"RO- Yediyuru","ward_ARO_Code":"23","ward_ARO_ Sub Division":"ARO- Ganesh Mandir","ward_zone":"Zone1","ward_zone_name":"Rajarajeshwarinagar","ward_join_status":"matched","ward_spatial_match_count":1},"geometry":{"type":"Point","coordinates":[77.56199500000008,12.922952000000066,0]},"id":2},{"type":"Feature","properties":{"fid":3,"OBJECTID":3,"Name":"Placemark","FolderPath":"Document/clipped","SymbolID":0,"AltMode":-1,"Base":0,"Snippet":"","PopupInfo":"","HasLabel":-1,"LabelID":0,"ward_source_id":null,"ward_source_Name":null,"ward_description":null,"ward_timestamp":null,"ward_begin":null,"ward_end":null,"ward_altitudeMode":null,"ward_tessellate":null,"ward_extrude":null,"ward_visibility":null,"ward_drawOrder":null,"ward_icon":null,"ward_Corporation":null,"ward_corporation_kn":null,"ward_corporation_id":null,"ward_ac":null,"ward_ac_kn":null,"ward_ac_no":null,"ward_Assembly":null,"ward_id":null,"ward_name":null,"ward_name_kn":null,"ward_TOT_P":null,"ward_TOT_M":null,"ward_TOT_F":null,"ward_SC_P":null,"ward_SC_M":null,"ward_SC_F":null,"ward_ST_P":null,"ward_ST_M":null,"ward_ST_F":null,"ward_low_range":null,"ward_high_range":null,"ward_RO_Code":null,"ward_RO_Division":null,"ward_ARO_Code":null,"ward_ARO_ Sub Division":null,"ward_zone":null,"ward_zone_name":null,"ward_join_status":"unmatched","ward_spatial_match_count":0},"geometry":{"type":"Point","coordinates":[77.66269516000006,12.835533000000055,0]},"id":3},{"type":"Feature","properties":{"fid":4,"OBJECTID":4,"Name":"Placemark","FolderPath":"Document/clipped","SymbolID":0,"AltMode":-1,"Base":0,"Snippet":"","PopupInfo":"","HasLabel":-1,"LabelID":0,"ward_source_id":null,"ward_source_Name":null,"ward_description":null,"ward_timestamp":null,"ward_begin":null,"ward_end":null,"ward_altitudeMode":null,"ward_tessellate":null,"ward_extrude":null,"ward_visibility":null,"ward_drawOrder":null,"ward_icon":null,"ward_Corporation":null,"ward_corporation_kn":null,"ward_corporation_id":null,"ward_ac":null,"ward_ac_kn":null,"ward_ac_no":null,"ward_Assembly":null,"ward_id":null,"ward_name":null,"ward_name_kn":null,"ward_TOT_P":null,"ward_TOT_M":null,"ward_TOT_F":null,"ward_SC_P":null,"ward_SC_M":null,"ward_SC_F":null,"ward_ST_P":null,"ward_ST_M":null,"ward_ST_F":null,"ward_low_range":null,"ward_high_range":null,"ward_RO_Code":null,"ward_RO_Division":null,"ward_ARO_Code":null,"ward_ARO_ Sub Division":null,"ward_zone":null,"ward_zone_name":null,"ward_join_status":"unmatched","ward_spatial_match_count":0},"geometry":{"type":"Point","coordinates":[77.69279300000005,12.724986000000058,0]},"id":4},{"type":"Feature","properties":{"fid":5,"OBJECTID":5,"Name":"Placemark","FolderPath":"Document/clipped","SymbolID":0,"AltMode":-1,"Base":0,"Snippet":"","PopupInfo":"","HasLabel":-1,"LabelID":0,"ward_source_id":"ward_369_final.2","ward_source_Name":null,"ward_description":null,"ward_timestamp":null,"ward_begin":null,"ward_end":null,"ward_altitudeMode":null,"ward_tessellate":-1,"ward_extrude":0,"ward_visibility":-1,"ward_drawOrder":null,"ward_icon":null,"ward_Corporation":"North","ward_corporation_kn":"ಉತ್ತರ","ward_corporation_id":"2","ward_ac":"Yelahanka","ward_ac_kn":"ಯಲಹಂಕ","ward_ac_no":"150","ward_Assembly":"150 - Yelahanka","ward_id":"2","ward_name":"2 - Aerocity","ward_name_kn":"ಏರೋಸಿಟಿ","ward_TOT_P":"20655.0","ward_TOT_M":"10844.0","ward_TOT_F":"9810.0","ward_SC_P":"1636.0","ward_SC_M":"846.0","ward_SC_F":"790.0","ward_ST_P":"563.0","ward_ST_M":"292.0","ward_ST_F":"270.0","ward_low_range":"19943","ward_high_range":"29914","ward_RO_Code":"11","ward_RO_Division":"RO- Yelahanka","ward_ARO_Code":"29","ward_ARO_ Sub Division":"ARO- Yelahanka Old Town","ward_zone":"Zone2","ward_zone_name":"Yelahanka","ward_join_status":"matched","ward_spatial_match_count":1},"geometry":{"type":"Point","coordinates":[77.60094800000007,13.125133000000062,0]},"id":5},{"type":"Feature","properties":{"fid":6,"OBJECTID":6,"Name":"Placemark","FolderPath":"Document/clipped","SymbolID":0,"AltMode":-1,"Base":0,"Snippet":"","PopupInfo":"","HasLabel":-1,"LabelID":0,"ward_source_id":"ward_369_final.192","ward_source_Name":null,"ward_description":null,"ward_timestamp":null,"ward_begin":null,"ward_end":null,"ward_altitudeMode":null,"ward_tessellate":-1,"ward_extrude":0,"ward_visibility":-1,"ward_drawOrder":null,"ward_icon":null,"ward_Corporation":"South","ward_corporation_kn":"ದಕ್ಷಿಣ","ward_corporation_id":"4","ward_ac":"Bommanahalli","ward_ac_kn":"ಬೊಮ್ಮನಹಳ್ಳಿ","ward_ac_no":"175","ward_Assembly":"175 - Bommanahalli","ward_id":"57","ward_name":"57 - Hulimavu","ward_name_kn":"ಹುಳಿಮಾವು","ward_TOT_P":"19598.0","ward_TOT_M":"10294.0","ward_TOT_F":"9304.0","ward_SC_P":"2213.0","ward_SC_M":"1144.0","ward_SC_F":"1071.0","ward_ST_P":"441.0","ward_ST_M":"216.0","ward_ST_F":"225.0","ward_low_range":"18594","ward_high_range":"27891","ward_RO_Code":"6","ward_RO_Division":"RO- Arakere","ward_ARO_Code":"15","ward_ARO_ Sub Division":"ARO- Arakere","ward_zone":"Zone2","ward_zone_name":"Bommanahalli","ward_join_status":"matched","ward_spatial_match_count":1},"geometry":{"type":"Point","coordinates":[77.59879096000003,12.872263501000077,0]},"id":6},{"type":"Feature","properties":{"fid":7,"OBJECTID":7,"Name":"Placemark","FolderPath":"Document/clipped","SymbolID":0,"AltMode":-1,"Base":0,"Snippet":"","PopupInfo":"","HasLabel":-1,"LabelID":0,"ward_source_id":"ward_369_final.175","ward_source_Name":null,"ward_description":null,"ward_timestamp":null,"ward_begin":null,"ward_end":null,"ward_altitudeMode":null,"ward_tessellate":-1,"ward_extrude":0,"ward_visibility":-1,"ward_drawOrder":null,"ward_icon":null,"ward_Corporation":"West","ward_corporation_kn":"ಪಶ್ಚಿಮ","ward_corporation_id":"5","ward_ac":"Rajarajeshwarinagar","ward_ac_kn":"ರಾಜರಾಜೇಶ್ವರಿನಗರ","ward_ac_no":"154","ward_Assembly":"154 - Rajarajeshwarinagar","ward_id":"34","ward_name":"34 - Peenya","ward_name_kn":"ಪೀಣ್ಯ","ward_TOT_P":"26003.0","ward_TOT_M":"13620.0","ward_TOT_F":"12383.0","ward_SC_P":"4190.0","ward_SC_M":"2140.0","ward_SC_F":"2050.0","ward_ST_P":"986.0","ward_ST_M":"507.0","ward_ST_F":"479.0","ward_low_range":"18949","ward_high_range":"28424","ward_RO_Code":"10","ward_RO_Division":"RO- Peenya","ward_ARO_Code":"33","ward_ARO_ Sub Division":"ARO- Peenya","ward_zone":"Zone1","ward_zone_name":"Rajarajeshwarinagar","ward_join_status":"matched","ward_spatial_match_count":1},"geometry":{"type":"Point","coordinates":[77.52066900000005,13.028053000000057,0]},"id":7},{"type":"Feature","properties":{"fid":8,"OBJECTID":8,"Name":"Placemark","FolderPath":"Document/clipped","SymbolID":0,"AltMode":-1,"Base":0,"Snippet":"","PopupInfo":"","HasLabel":-1,"LabelID":0,"ward_source_id":"ward_369_final.276","ward_source_Name":null,"ward_description":null,"ward_timestamp":null,"ward_begin":null,"ward_end":null,"ward_altitudeMode":null,"ward_tessellate":-1,"ward_extrude":0,"ward_visibility":-1,"ward_drawOrder":null,"ward_icon":null,"ward_Corporation":"West","ward_corporation_kn":"ಪಶ್ಚಿಮ","ward_corporation_id":"5","ward_ac":"Govindraj Nagar","ward_ac_kn":"ಗೋವಿಂದರಾಜ ನಗರ","ward_ac_no":"166","ward_Assembly":"166 - Govindraj Nagar","ward_id":"70","ward_name":"70 - Dr Rajkumar Ward","ward_name_kn":"ಡಾ. ರಾಜ್‌ಕುಮಾರ್ ವಾರ್ಡ್","ward_TOT_P":"24106.0","ward_TOT_M":"12476.0","ward_TOT_F":"11630.0","ward_SC_P":"2155.0","ward_SC_M":"1117.0","ward_SC_F":"1038.0","ward_ST_P":"676.0","ward_ST_M":"352.0","ward_ST_F":"324.0","ward_low_range":"18949","ward_high_range":"28424","ward_RO_Code":"4","ward_RO_Division":"RO- Govindraj Nagar","ward_ARO_Code":"12","ward_ARO_ Sub Division":"ARO- Agrahara Dasarahalli","ward_zone":"Zone2","ward_zone_name":"Malleshwaram","ward_join_status":"matched","ward_spatial_match_count":1},"geometry":{"type":"Point","coordinates":[77.54861700000004,12.980473000000075,0]},"id":8},{"type":"Feature","properties":{"fid":9,"OBJECTID":9,"Name":"Placemark","FolderPath":"Document/clipped","SymbolID":0,"AltMode":-1,"Base":0,"Snippet":"","PopupInfo":"","HasLabel":-1,"LabelID":0,"ward_source_id":"ward_369_final.205","ward_source_Name":null,"ward_description":null,"ward_timestamp":null,"ward_begin":null,"ward_end":null,"ward_altitudeMode":null,"ward_tessellate":-1,"ward_extrude":0,"ward_visibility":-1,"ward_drawOrder":null,"ward_icon":null,"ward_Corporation":"East","ward_corporation_kn":"ಪೂರ್ವ","ward_corporation_id":"3","ward_ac":"Mahadevapura","ward_ac_kn":"ಮಹದೇವಪುರ","ward_ac_no":"174","ward_Assembly":"174 - Mahadevapura","ward_id":"49","ward_name":"49 - Shivanasamudra Ward","ward_name_kn":"ಶಿವನಸಮುದ್ರ ವಾರ್ಡ್","ward_TOT_P":"15012.0","ward_TOT_M":"8198.0","ward_TOT_F":"6814.0","ward_SC_P":"1608.0","ward_SC_M":"834.0","ward_SC_F":"774.0","ward_ST_P":"286.0","ward_ST_M":"156.0","ward_ST_F":"130.0","ward_low_range":"14567","ward_high_range":"21851","ward_RO_Code":"5","ward_RO_Division":"RO- Bellanduru","ward_ARO_Code":"14","ward_ARO_ Sub Division":"ARO- Gunjur","ward_zone":"Zone1","ward_zone_name":"Mahadevapura","ward_join_status":"matched","ward_spatial_match_count":1},"geometry":{"type":"Point","coordinates":[77.67374490000003,12.916862600000059,0]},"id":9},{"type":"Feature","properties":{"fid":10,"OBJECTID":10,"Name":"Placemark","FolderPath":"Document/clipped","SymbolID":0,"AltMode":-1,"Base":0,"Snippet":"","PopupInfo":"","HasLabel":-1,"LabelID":0,"ward_source_id":null,"ward_source_Name":null,"ward_description":null,"ward_timestamp":null,"ward_begin":null,"ward_end":null,"ward_altitudeMode":null,"ward_tessellate":null,"ward_extrude":null,"ward_visibility":null,"ward_drawOrder":null,"ward_icon":null,"ward_Corporation":null,"ward_corporation_kn":null,"ward_corporation_id":null,"ward_ac":null,"ward_ac_kn":null,"ward_ac_no":null,"ward_Assembly":null,"ward_id":null,"ward_name":null,"ward_name_kn":null,"ward_TOT_P":null,"ward_TOT_M":null,"ward_TOT_F":null,"ward_SC_P":null,"ward_SC_M":null,"ward_SC_F":null,"ward_ST_P":null,"ward_ST_M":null,"ward_ST_F":null,"ward_low_range":null,"ward_high_range":null,"ward_RO_Code":null,"ward_RO_Division":null,"ward_ARO_Code":null,"ward_ARO_ Sub Division":null,"ward_zone":null,"ward_zone_name":null,"ward_join_status":"unmatched","ward_spatial_match_count":0},"geometry":{"type":"Point","coordinates":[77.42165073800004,12.974211516000025,0]},"id":10},{"type":"Feature","properties":{"fid":11,"OBJECTID":11,"Name":"Placemark","FolderPath":"Document/clipped","SymbolID":0,"AltMode":-1,"Base":0,"Snippet":"","PopupInfo":"","HasLabel":-1,"LabelID":0,"ward_source_id":"ward_369_final.275","ward_source_Name":null,"ward_description":null,"ward_timestamp":null,"ward_begin":null,"ward_end":null,"ward_altitudeMode":null,"ward_tessellate":-1,"ward_extrude":0,"ward_visibility":-1,"ward_drawOrder":null,"ward_icon":null,"ward_Corporation":"Central","ward_corporation_kn":"ಕೇಂದ್ರ","ward_corporation_id":"1","ward_ac":"Shanthinagar","ward_ac_kn":"ಶಾಂತಿನಗರ","ward_ac_no":"163","ward_Assembly":"163 - Shanthinagar","ward_id":"25","ward_name":"25 - Ashokanagar","ward_name_kn":"ಅಶೋಕನಗರ","ward_TOT_P":"21804.0","ward_TOT_M":"10895.0","ward_TOT_F":"10909.0","ward_SC_P":"1987.0","ward_SC_M":"931.0","ward_SC_F":"1056.0","ward_ST_P":"311.0","ward_ST_M":"137.0","ward_ST_F":"174.0","ward_low_range":"18853","ward_high_range":"28280","ward_RO_Code":"6","ward_RO_Division":"RO - Shanthinagar","ward_ARO_Code":"21","ward_ARO_ Sub Division":"ARO- Shanthinagar","ward_zone":"Zone1","ward_zone_name":"C.V. Raman Nagar","ward_join_status":"matched","ward_spatial_match_count":1},"geometry":{"type":"Point","coordinates":[77.61086000000006,12.972409000000027,0]},"id":11},{"type":"Feature","properties":{"fid":12,"OBJECTID":12,"Name":"Placemark","FolderPath":"Document/clipped","SymbolID":0,"AltMode":-1,"Base":0,"Snippet":"","PopupInfo":"","HasLabel":-1,"LabelID":0,"ward_source_id":"ward_369_final.240","ward_source_Name":null,"ward_description":null,"ward_timestamp":null,"ward_begin":null,"ward_end":null,"ward_altitudeMode":null,"ward_tessellate":-1,"ward_extrude":0,"ward_visibility":-1,"ward_drawOrder":null,"ward_icon":null,"ward_Corporation":"East","ward_corporation_kn":"ಪೂರ್ವ","ward_corporation_id":"3","ward_ac":"K.R. Pura","ward_ac_kn":"ಕೆ.ಆರ್. ಪುರ","ward_ac_no":"151","ward_Assembly":"151 - K.R. Pura","ward_id":"12","ward_name":"12 - Devasandra","ward_name_kn":"ದೇವಸಂದ್ರ","ward_TOT_P":"14990.0","ward_TOT_M":"7854.0","ward_TOT_F":"7136.0","ward_SC_P":"1626.0","ward_SC_M":"843.0","ward_SC_F":"783.0","ward_ST_P":"325.0","ward_ST_M":"163.0","ward_ST_F":"161.0","ward_low_range":"14567","ward_high_range":"21851","ward_RO_Code":"2","ward_RO_Division":"RO- KR Pura","ward_ARO_Code":"4","ward_ARO_ Sub Division":"ARO- Basavanapura","ward_zone":"Zone2","ward_zone_name":"K.R. Pura","ward_join_status":"matched","ward_spatial_match_count":1},"geometry":{"type":"Point","coordinates":[77.70266900000007,12.998590000000036,0]},"id":12},{"type":"Feature","properties":{"fid":13,"OBJECTID":13,"Name":"Placemark","FolderPath":"Document/clipped","SymbolID":0,"AltMode":-1,"Base":0,"Snippet":"","PopupInfo":"","HasLabel":-1,"LabelID":0,"ward_source_id":"ward_369_final.77","ward_source_Name":null,"ward_description":null,"ward_timestamp":null,"ward_begin":null,"ward_end":null,"ward_altitudeMode":null,"ward_tessellate":-1,"ward_extrude":0,"ward_visibility":-1,"ward_drawOrder":null,"ward_icon":null,"ward_Corporation":"Central","ward_corporation_kn":"ಕೇಂದ್ರ","ward_corporation_id":"1","ward_ac":"Shivajinagar","ward_ac_kn":"ಶಿವಾಜಿನಗರ","ward_ac_no":"162","ward_Assembly":"162 - Shivajinagar","ward_id":"4","ward_name":"4 - Sampangirama Nagar","ward_name_kn":"ಸಂಪಂಗಿರಾಮ ನಗರ","ward_TOT_P":"27874.0","ward_TOT_M":"13872.0","ward_TOT_F":"14002.0","ward_SC_P":"1810.0","ward_SC_M":"884.0","ward_SC_F":"926.0","ward_ST_P":"224.0","ward_ST_M":"92.0","ward_ST_F":"132.0","ward_low_range":"18853","ward_high_range":"28280","ward_RO_Code":"7","ward_RO_Division":"RO- Shivajinagar","ward_ARO_Code":"24","ward_ARO_ Sub Division":"ARO- Vasanthanagar","ward_zone":"Zone2","ward_zone_name":"Gandhinagara","ward_join_status":"matched","ward_spatial_match_count":1},"geometry":{"type":"Point","coordinates":[77.58908700000006,12.977765900000065,0]},"id":13},{"type":"Feature","properties":{"fid":14,"OBJECTID":14,"Name":"Placemark","FolderPath":"Document/clipped","SymbolID":0,"AltMode":-1,"Base":0,"Snippet":"","PopupInfo":"","HasLabel":-1,"LabelID":0,"ward_source_id":"ward_369_final.203","ward_source_Name":null,"ward_description":null,"ward_timestamp":null,"ward_begin":null,"ward_end":null,"ward_altitudeMode":null,"ward_tessellate":-1,"ward_extrude":0,"ward_visibility":-1,"ward_drawOrder":null,"ward_icon":null,"ward_Corporation":"East","ward_corporation_kn":"ಪೂರ್ವ","ward_corporation_id":"3","ward_ac":"Mahadevapura","ward_ac_kn":"ಮಹದೇವಪುರ","ward_ac_no":"174","ward_Assembly":"174 - Mahadevapura","ward_id":"33","ward_name":"33 - S.M Krishna Ward","ward_name_kn":"ಎಸ್.ಎಂ ಕೃಷ್ಣ ವಾರ್ಡ್","ward_TOT_P":"16262.0","ward_TOT_M":"8867.0","ward_TOT_F":"7395.0","ward_SC_P":"3754.0","ward_SC_M":"1929.0","ward_SC_F":"1826.0","ward_ST_P":"464.0","ward_ST_M":"272.0","ward_ST_F":"192.0","ward_low_range":"14567","ward_high_range":"21851","ward_RO_Code":"6","ward_RO_Division":"RO- Hoodi","ward_ARO_Code":"17","ward_ARO_ Sub Division":"ARO- Kadugodi","ward_zone":"Zone1","ward_zone_name":"Mahadevapura","ward_join_status":"matched","ward_spatial_match_count":1},"geometry":{"type":"Point","coordinates":[77.73263972800004,12.987355988000047,0]},"id":14},{"type":"Feature","properties":{"fid":15,"OBJECTID":15,"Name":"Placemark","FolderPath":"Document/clipped","SymbolID":0,"AltMode":-1,"Base":0,"Snippet":"","PopupInfo":"","HasLabel":-1,"LabelID":0,"ward_source_id":"ward_369_final.304","ward_source_Name":null,"ward_description":null,"ward_timestamp":null,"ward_begin":null,"ward_end":null,"ward_altitudeMode":null,"ward_tessellate":-1,"ward_extrude":0,"ward_visibility":-1,"ward_drawOrder":null,"ward_icon":null,"ward_Corporation":"West","ward_corporation_kn":"ಪಶ್ಚಿಮ","ward_corporation_id":"5","ward_ac":"Rajarajeshwarinagar","ward_ac_kn":"ರಾಜರಾಜೇಶ್ವರಿನಗರ","ward_ac_no":"154","ward_Assembly":"154 - Rajarajeshwarinagar","ward_id":"24","ward_name":"24 - Jnana Bharathi Ward","ward_name_kn":"ಜ್ಞಾನ ಭಾರತಿ ವಾರ್ಡ್","ward_TOT_P":"20533.0","ward_TOT_M":"10816.0","ward_TOT_F":"9717.0","ward_SC_P":"2181.0","ward_SC_M":"1121.0","ward_SC_F":"1060.0","ward_ST_P":"434.0","ward_ST_M":"240.0","ward_ST_F":"194.0","ward_low_range":"18949","ward_high_range":"28424","ward_RO_Code":"11","ward_RO_Division":"RO- Rajarajeswari Nagara","ward_ARO_Code":"34","ward_ARO_ Sub Division":"ARO- Jnana Bharathi","ward_zone":"Zone1","ward_zone_name":"Rajarajeshwarinagar","ward_join_status":"matched","ward_spatial_match_count":1},"geometry":{"type":"Point","coordinates":[77.50992495300005,12.935527483000044,0]},"id":15},{"type":"Feature","properties":{"fid":16,"OBJECTID":16,"Name":"Placemark","FolderPath":"Document/clipped","SymbolID":0,"AltMode":-1,"Base":0,"Snippet":"","PopupInfo":"","HasLabel":-1,"LabelID":0,"ward_source_id":"ward_369_final.368","ward_source_Name":null,"ward_description":null,"ward_timestamp":null,"ward_begin":null,"ward_end":null,"ward_altitudeMode":null,"ward_tessellate":-1,"ward_extrude":0,"ward_visibility":-1,"ward_drawOrder":null,"ward_icon":null,"ward_Corporation":"Central","ward_corporation_kn":"ಕೇಂದ್ರ","ward_corporation_id":"1","ward_ac":"Chamrajapet","ward_ac_kn":"ಚಾಮರಾಜಪೇಟೆ","ward_ac_no":"168","ward_Assembly":"168 - Chamrajapet","ward_id":"47","ward_name":"47 - IPD Salappa Ward","ward_name_kn":"ಐಪಿಡಿ ಸಾಲಪ್ಪ ವಾರ್ಡ್","ward_TOT_P":"20622.0","ward_TOT_M":"10479.0","ward_TOT_F":"10143.0","ward_SC_P":"10739.0","ward_SC_M":"5314.0","ward_SC_F":"5425.0","ward_ST_P":"219.0","ward_ST_M":"116.0","ward_ST_F":"103.0","ward_low_range":"18853","ward_high_range":"28280","ward_RO_Code":"3","ward_RO_Division":"RO - Chamrajapet","ward_ARO_Code":"6","ward_ARO_ Sub Division":"ARO- Azad Nagar","ward_zone":"Zone2","ward_zone_name":"Gandhinagara","ward_join_status":"matched","ward_spatial_match_count":1},"geometry":{"type":"Point","coordinates":[77.56308240000004,12.962525721000077,0]},"id":16},{"type":"Feature","properties":{"fid":17,"OBJECTID":17,"Name":"Placemark","FolderPath":"Document/clipped","SymbolID":0,"AltMode":-1,"Base":0,"Snippet":"","PopupInfo":"","HasLabel":-1,"LabelID":0,"ward_source_id":"ward_369_final.269","ward_source_Name":null,"ward_description":null,"ward_timestamp":null,"ward_begin":null,"ward_end":null,"ward_altitudeMode":null,"ward_tessellate":-1,"ward_extrude":0,"ward_visibility":-1,"ward_drawOrder":null,"ward_icon":null,"ward_Corporation":"Central","ward_corporation_kn":"ಕೇಂದ್ರ","ward_corporation_id":"1","ward_ac":"Chickpet","ward_ac_kn":"ಚಿಕ್ಕಪೇಟೆ","ward_ac_no":"169","ward_Assembly":"169 - Chickpet","ward_id":"37","ward_name":"37 - BHEL Ward","ward_name_kn":"ಬಿಎಚ್‌ಇಎಲ್ ವಾರ್ಡ್","ward_TOT_P":"19336.0","ward_TOT_M":"9975.0","ward_TOT_F":"9361.0","ward_SC_P":"3201.0","ward_SC_M":"1685.0","ward_SC_F":"1516.0","ward_ST_P":"355.0","ward_ST_M":"185.0","ward_ST_F":"170.0","ward_low_range":"18853","ward_high_range":"28280","ward_RO_Code":"4","ward_RO_Division":"RO - Chickpet","ward_ARO_Code":"12","ward_ARO_ Sub Division":"ARO- Hombegowda Nagar","ward_zone":"Zone2","ward_zone_name":"Gandhinagara","ward_join_status":"matched","ward_spatial_match_count":1},"geometry":{"type":"Point","coordinates":[77.60085446000005,12.935181279000062,0]},"id":17},{"type":"Feature","properties":{"fid":18,"OBJECTID":18,"Name":"Placemark","FolderPath":"Document/clipped","SymbolID":0,"AltMode":-1,"Base":0,"Snippet":"","PopupInfo":"","HasLabel":-1,"LabelID":0,"ward_source_id":"ward_369_final.352","ward_source_Name":null,"ward_description":null,"ward_timestamp":null,"ward_begin":null,"ward_end":null,"ward_altitudeMode":null,"ward_tessellate":-1,"ward_extrude":0,"ward_visibility":-1,"ward_drawOrder":null,"ward_icon":null,"ward_Corporation":"West","ward_corporation_kn":"ಪಶ್ಚಿಮ","ward_corporation_id":"5","ward_ac":"Mahalakshmi Layout","ward_ac_kn":"ಮಹಾಲಕ್ಷ್ಮಿ ಲೇಔಟ್","ward_ac_no":"156","ward_Assembly":"156 - Mahalakshmi Layout","ward_id":"36","ward_name":"36 - Nalwadi Krishnaraja Wadiyar Ward","ward_name_kn":"ನಾಲ್ವಡಿ ಕೃಷ್ಣರಾಜ ಒಡೆಯರ್ ವಾರ್ಡ್","ward_TOT_P":"28281.0","ward_TOT_M":"14630.0","ward_TOT_F":"13650.0","ward_SC_P":"4501.0","ward_SC_M":"2286.0","ward_SC_F":"2215.0","ward_ST_P":"503.0","ward_ST_M":"251.0","ward_ST_F":"251.0","ward_low_range":"18949","ward_high_range":"28424","ward_RO_Code":"5","ward_RO_Division":"RO- Mahalakshmi Layout","ward_ARO_Code":"17","ward_ARO_ Sub Division":"ARO- Nandhini Layout","ward_zone":"Zone1","ward_zone_name":"Rajarajeshwarinagar","ward_join_status":"matched","ward_spatial_match_count":1},"geometry":{"type":"Point","coordinates":[77.54975766600006,13.022557997000035,0]},"id":18},{"type":"Feature","properties":{"fid":19,"OBJECTID":19,"Name":"Placemark","FolderPath":"Document/clipped","SymbolID":0,"AltMode":-1,"Base":0,"Snippet":"","PopupInfo":"","HasLabel":-1,"LabelID":0,"ward_source_id":"ward_369_final.176","ward_source_Name":null,"ward_description":null,"ward_timestamp":null,"ward_begin":null,"ward_end":null,"ward_altitudeMode":null,"ward_tessellate":-1,"ward_extrude":0,"ward_visibility":-1,"ward_drawOrder":null,"ward_icon":null,"ward_Corporation":"North","ward_corporation_kn":"ಉತ್ತರ","ward_corporation_id":"2","ward_ac":"Byatarayanapura","ward_ac_kn":"ಬ್ಯಾಟರಾಯನಪುರ","ward_ac_no":"152","ward_Assembly":"152 - Byatarayanapura","ward_id":"18","ward_name":"18 - Kempapura","ward_name_kn":"ಕೆಂಪಾಪುರ","ward_TOT_P":"28936.0","ward_TOT_M":"15396.0","ward_TOT_F":"13540.0","ward_SC_P":"2346.0","ward_SC_M":"1197.0","ward_SC_F":"1149.0","ward_ST_P":"554.0","ward_ST_M":"290.0","ward_ST_F":"264.0","ward_low_range":"19943","ward_high_range":"29914","ward_RO_Code":"2","ward_RO_Division":"RO- Thanisandra","ward_ARO_Code":"6","ward_ARO_ Sub Division":"ARO- Thanisandra","ward_zone":"Zone1","ward_zone_name":"Byatarayanapura","ward_join_status":"matched","ward_spatial_match_count":1},"geometry":{"type":"Point","coordinates":[77.61813949500004,13.048455188000048,0]},"id":19},{"type":"Feature","properties":{"fid":20,"OBJECTID":20,"Name":"Placemark","FolderPath":"Document/clipped","SymbolID":0,"AltMode":-1,"Base":0,"Snippet":"","PopupInfo":"","HasLabel":-1,"LabelID":0,"ward_source_id":"ward_369_final.77","ward_source_Name":null,"ward_description":null,"ward_timestamp":null,"ward_begin":null,"ward_end":null,"ward_altitudeMode":null,"ward_tessellate":-1,"ward_extrude":0,"ward_visibility":-1,"ward_drawOrder":null,"ward_icon":null,"ward_Corporation":"Central","ward_corporation_kn":"ಕೇಂದ್ರ","ward_corporation_id":"1","ward_ac":"Shivajinagar","ward_ac_kn":"ಶಿವಾಜಿನಗರ","ward_ac_no":"162","ward_Assembly":"162 - Shivajinagar","ward_id":"4","ward_name":"4 - Sampangirama Nagar","ward_name_kn":"ಸಂಪಂಗಿರಾಮ ನಗರ","ward_TOT_P":"27874.0","ward_TOT_M":"13872.0","ward_TOT_F":"14002.0","ward_SC_P":"1810.0","ward_SC_M":"884.0","ward_SC_F":"926.0","ward_ST_P":"224.0","ward_ST_M":"92.0","ward_ST_F":"132.0","ward_low_range":"18853","ward_high_range":"28280","ward_RO_Code":"7","ward_RO_Division":"RO- Shivajinagar","ward_ARO_Code":"24","ward_ARO_ Sub Division":"ARO- Vasanthanagar","ward_zone":"Zone2","ward_zone_name":"Gandhinagara","ward_join_status":"matched","ward_spatial_match_count":1},"geometry":{"type":"Point","coordinates":[77.58030387300005,12.980722721000063,0]},"id":20},{"type":"Feature","properties":{"fid":21,"OBJECTID":21,"Name":"Placemark","FolderPath":"Document/clipped","SymbolID":0,"AltMode":-1,"Base":0,"Snippet":"","PopupInfo":"","HasLabel":-1,"LabelID":0,"ward_source_id":"ward_369_final.319","ward_source_Name":null,"ward_description":null,"ward_timestamp":null,"ward_begin":null,"ward_end":null,"ward_altitudeMode":null,"ward_tessellate":-1,"ward_extrude":0,"ward_visibility":-1,"ward_drawOrder":null,"ward_icon":null,"ward_Corporation":"North","ward_corporation_kn":"ಉತ್ತರ","ward_corporation_id":"2","ward_ac":"Sarvagnanagar","ward_ac_kn":"ಸರ್ವಜ್ಞನಗರ","ward_ac_no":"160","ward_Assembly":"160 - Sarvagnanagar","ward_id":"31","ward_name":"31 - Kalyan Nagar","ward_name_kn":"ಕಲ್ಯಾಣ ನಗರ","ward_TOT_P":"23746.0","ward_TOT_M":"11942.0","ward_TOT_F":"11804.0","ward_SC_P":"2783.0","ward_SC_M":"1441.0","ward_SC_F":"1342.0","ward_ST_P":"352.0","ward_ST_M":"173.0","ward_ST_F":"179.0","ward_low_range":"19943","ward_high_range":"29914","ward_RO_Code":"10","ward_RO_Division":"RO- Maruthi Sevanagar","ward_ARO_Code":"25","ward_ARO_ Sub Division":"ARO- Banaswadi","ward_zone":"Zone1","ward_zone_name":"Byatarayanapura","ward_join_status":"matched","ward_spatial_match_count":1},"geometry":{"type":"Point","coordinates":[77.64592027700007,13.011564269000075,0]},"id":21}]}
