{"type":"FeatureCollection","name":"Bengaluru_Master — Bengaluru_Metro_Stations","crs":{"type":"name","properties":{"name":"urn:ogc:def:crs:OGC:1.3:CRS84"}},"features":[{"type":"Feature","properties":{"fid":1,"OBJECTID":1,"Name":"Whitefield (Kadugodi)","FolderPath":"Bengaluru Metro Stations","SymbolID":0,"AltMode":-1,"Base":0,"Snippet":"켠","PopupInfo":"㪬","HasLabel":-1,"LabelID":0,"ward_source_id":"ward_369_final.245","ward_source_Name":null,"ward_description":null,"ward_timestamp":null,"ward_begin":null,"ward_end":null,"ward_altitudeMode":null,"ward_tessellate":-1,"ward_extrude":0,"ward_visibility":-1,"ward_drawOrder":null,"ward_icon":null,"ward_Corporation":"East","ward_corporation_kn":"ಪೂರ್ವ","ward_corporation_id":"3","ward_ac":"Mahadevapura","ward_ac_kn":"ಮಹದೇವಪುರ","ward_ac_no":"174","ward_Assembly":"174 - Mahadevapura","ward_id":"30","ward_name":"30 - Belathur","ward_name_kn":"ಬೆಳತ್ತೂರ್","ward_TOT_P":"20869.0","ward_TOT_M":"11556.0","ward_TOT_F":"9313.0","ward_SC_P":"5120.0","ward_SC_M":"2600.0","ward_SC_F":"2520.0","ward_ST_P":"391.0","ward_ST_M":"232.0","ward_ST_F":"159.0","ward_low_range":"14567","ward_high_range":"21851","ward_RO_Code":"6","ward_RO_Division":"RO- Hoodi","ward_ARO_Code":"16","ward_ARO_ Sub Division":"ARO- Hoodi","ward_zone":"Zone1","ward_zone_name":"Mahadevapura","ward_join_status":"matched","ward_spatial_match_count":1},"geometry":{"type":"Point","coordinates":[77.75785900000005,12.995646100000044,0]},"id":1},{"type":"Feature","properties":{"fid":2,"OBJECTID":2,"Name":"Hopefarm Channasandra","FolderPath":"Bengaluru Metro Stations","SymbolID":0,"AltMode":-1,"Base":0,"Snippet":"","PopupInfo":"","HasLabel":-1,"LabelID":0,"ward_source_id":"ward_369_final.220","ward_source_Name":null,"ward_description":null,"ward_timestamp":null,"ward_begin":null,"ward_end":null,"ward_altitudeMode":null,"ward_tessellate":-1,"ward_extrude":0,"ward_visibility":-1,"ward_drawOrder":null,"ward_icon":null,"ward_Corporation":"East","ward_corporation_kn":"ಪೂರ್ವ","ward_corporation_id":"3","ward_ac":"Mahadevapura","ward_ac_kn":"ಮಹದೇವಪುರ","ward_ac_no":"174","ward_Assembly":"174 - Mahadevapura","ward_id":"31","ward_name":"31 - Kadugodi","ward_name_kn":"ಕಾಡುಗೋಡಿ","ward_TOT_P":"18927.0","ward_TOT_M":"10118.0","ward_TOT_F":"8809.0","ward_SC_P":"1914.0","ward_SC_M":"964.0","ward_SC_F":"950.0","ward_ST_P":"299.0","ward_ST_M":"164.0","ward_ST_F":"134.0","ward_low_range":"14567","ward_high_range":"21851","ward_RO_Code":"6","ward_RO_Division":"RO- Hoodi","ward_ARO_Code":"17","ward_ARO_ Sub Division":"ARO- Kadugodi","ward_zone":"Zone1","ward_zone_name":"Mahadevapura","ward_join_status":"matched","ward_spatial_match_count":1},"geometry":{"type":"Point","coordinates":[77.75375820000005,12.987112600000046,0]},"id":2},{"type":"Feature","properties":{"fid":3,"OBJECTID":3,"Name":"Kadugodi Tree Park","FolderPath":"Bengaluru Metro Stations","SymbolID":0,"AltMode":-1,"Base":0,"Snippet":"","PopupInfo":"","HasLabel":-1,"LabelID":0,"ward_source_id":"ward_369_final.245","ward_source_Name":null,"ward_description":null,"ward_timestamp":null,"ward_begin":null,"ward_end":null,"ward_altitudeMode":null,"ward_tessellate":-1,"ward_extrude":0,"ward_visibility":-1,"ward_drawOrder":null,"ward_icon":null,"ward_Corporation":"East","ward_corporation_kn":"ಪೂರ್ವ","ward_corporation_id":"3","ward_ac":"Mahadevapura","ward_ac_kn":"ಮಹದೇವಪುರ","ward_ac_no":"174","ward_Assembly":"174 - Mahadevapura","ward_id":"30","ward_name":"30 - Belathur","ward_name_kn":"ಬೆಳತ್ತೂರ್","ward_TOT_P":"20869.0","ward_TOT_M":"11556.0","ward_TOT_F":"9313.0","ward_SC_P":"5120.0","ward_SC_M":"2600.0","ward_SC_F":"2520.0","ward_ST_P":"391.0","ward_ST_M":"232.0","ward_ST_F":"159.0","ward_low_range":"14567","ward_high_range":"21851","ward_RO_Code":"6","ward_RO_Division":"RO- Hoodi","ward_ARO_Code":"16","ward_ARO_ Sub Division":"ARO- Hoodi","ward_zone":"Zone1","ward_zone_name":"Mahadevapura","ward_join_status":"matched","ward_spatial_match_count":1},"geometry":{"type":"Point","coordinates":[77.74702620000005,12.985676800000022,0]},"id":3},{"type":"Feature","properties":{"fid":4,"OBJECTID":4,"Name":"Pattandur Agrahara","FolderPath":"Bengaluru Metro Stations","SymbolID":0,"AltMode":-1,"Base":0,"Snippet":"","PopupInfo":"","HasLabel":-1,"LabelID":0,"ward_source_id":"ward_369_final.245","ward_source_Name":null,"ward_description":null,"ward_timestamp":null,"ward_begin":null,"ward_end":null,"ward_altitudeMode":null,"ward_tessellate":-1,"ward_extrude":0,"ward_visibility":-1,"ward_drawOrder":null,"ward_icon":null,"ward_Corporation":"East","ward_corporation_kn":"ಪೂರ್ವ","ward_corporation_id":"3","ward_ac":"Mahadevapura","ward_ac_kn":"ಮಹದೇವಪುರ","ward_ac_no":"174","ward_Assembly":"174 - Mahadevapura","ward_id":"30","ward_name":"30 - Belathur","ward_name_kn":"ಬೆಳತ್ತೂರ್","ward_TOT_P":"20869.0","ward_TOT_M":"11556.0","ward_TOT_F":"9313.0","ward_SC_P":"5120.0","ward_SC_M":"2600.0","ward_SC_F":"2520.0","ward_ST_P":"391.0","ward_ST_M":"232.0","ward_ST_F":"159.0","ward_low_range":"14567","ward_high_range":"21851","ward_RO_Code":"6","ward_RO_Division":"RO- Hoodi","ward_ARO_Code":"16","ward_ARO_ Sub Division":"ARO- Hoodi","ward_zone":"Zone1","ward_zone_name":"Mahadevapura","ward_join_status":"matched","ward_spatial_match_count":1},"geometry":{"type":"Point","coordinates":[77.73777180000008,12.987639300000069,0]},"id":4},{"type":"Feature","properties":{"fid":5,"OBJECTID":5,"Name":"Sathya Sai Hospital","FolderPath":"Bengaluru Metro Stations","SymbolID":0,"AltMode":-1,"Base":0,"Snippet":"","PopupInfo":"","HasLabel":-1,"LabelID":0,"ward_source_id":"ward_369_final.230","ward_source_Name":null,"ward_description":null,"ward_timestamp":null,"ward_begin":null,"ward_end":null,"ward_altitudeMode":null,"ward_tessellate":-1,"ward_extrude":0,"ward_visibility":-1,"ward_drawOrder":null,"ward_icon":null,"ward_Corporation":"East","ward_corporation_kn":"ಪೂರ್ವ","ward_corporation_id":"3","ward_ac":"Mahadevapura","ward_ac_kn":"ಮಹದೇವಪುರ","ward_ac_no":"174","ward_Assembly":"174 - Mahadevapura","ward_id":"34","ward_name":"34 - Kaveri Nagara","ward_name_kn":"ಕಾವೇರಿ ನಗರ","ward_TOT_P":"20959.0","ward_TOT_M":"11560.0","ward_TOT_F":"9399.0","ward_SC_P":"3849.0","ward_SC_M":"1996.0","ward_SC_F":"1853.0","ward_ST_P":"603.0","ward_ST_M":"350.0","ward_ST_F":"253.0","ward_low_range":"14567","ward_high_range":"21851","ward_RO_Code":"7","ward_RO_Division":"RO- Marathahalli","ward_ARO_Code":"20","ward_ARO_ Sub Division":"ARO- Garudacharpalya","ward_zone":"Zone1","ward_zone_name":"Mahadevapura","ward_join_status":"matched","ward_spatial_match_count":1},"geometry":{"type":"Point","coordinates":[77.72753610000007,12.981194900000048,0]},"id":5},{"type":"Feature","properties":{"fid":6,"OBJECTID":6,"Name":"Nallurahalli","FolderPath":"Bengaluru Metro Stations","SymbolID":0,"AltMode":-1,"Base":0,"Snippet":"","PopupInfo":"","HasLabel":-1,"LabelID":0,"ward_source_id":"ward_369_final.226","ward_source_Name":null,"ward_description":null,"ward_timestamp":null,"ward_begin":null,"ward_end":null,"ward_altitudeMode":null,"ward_tessellate":-1,"ward_extrude":0,"ward_visibility":-1,"ward_drawOrder":null,"ward_icon":null,"ward_Corporation":"East","ward_corporation_kn":"ಪೂರ್ವ","ward_corporation_id":"3","ward_ac":"Mahadevapura","ward_ac_kn":"ಮಹದೇವಪುರ","ward_ac_no":"174","ward_Assembly":"174 - Mahadevapura","ward_id":"36","ward_name":"36 - Bharath Aikya Ward","ward_name_kn":"ಭಾರತ್ ಐಕ್ಯ ವಾರ್ಡ್","ward_TOT_P":"19498.0","ward_TOT_M":"10573.0","ward_TOT_F":"8926.0","ward_SC_P":"1601.0","ward_SC_M":"817.0","ward_SC_F":"784.0","ward_ST_P":"286.0","ward_ST_M":"154.0","ward_ST_F":"132.0","ward_low_range":"14567","ward_high_range":"21851","ward_RO_Code":"7","ward_RO_Division":"RO- Marathahalli","ward_ARO_Code":"19","ward_ARO_ Sub Division":"ARO- Doddane Kundi","ward_zone":"Zone1","ward_zone_name":"Mahadevapura","ward_join_status":"matched","ward_spatial_match_count":1},"geometry":{"type":"Point","coordinates":[77.72488450000003,12.976640800000041,0]},"id":6},{"type":"Feature","properties":{"fid":7,"OBJECTID":7,"Name":"Kundalahalli","FolderPath":"Bengaluru Metro Stations","SymbolID":0,"AltMode":-1,"Base":0,"Snippet":"","PopupInfo":"","HasLabel":-1,"LabelID":0,"ward_source_id":"ward_369_final.226","ward_source_Name":null,"ward_description":null,"ward_timestamp":null,"ward_begin":null,"ward_end":null,"ward_altitudeMode":null,"ward_tessellate":-1,"ward_extrude":0,"ward_visibility":-1,"ward_drawOrder":null,"ward_icon":null,"ward_Corporation":"East","ward_corporation_kn":"ಪೂರ್ವ","ward_corporation_id":"3","ward_ac":"Mahadevapura","ward_ac_kn":"ಮಹದೇವಪುರ","ward_ac_no":"174","ward_Assembly":"174 - Mahadevapura","ward_id":"36","ward_name":"36 - Bharath Aikya Ward","ward_name_kn":"ಭಾರತ್ ಐಕ್ಯ ವಾರ್ಡ್","ward_TOT_P":"19498.0","ward_TOT_M":"10573.0","ward_TOT_F":"8926.0","ward_SC_P":"1601.0","ward_SC_M":"817.0","ward_SC_F":"784.0","ward_ST_P":"286.0","ward_ST_M":"154.0","ward_ST_F":"132.0","ward_low_range":"14567","ward_high_range":"21851","ward_RO_Code":"7","ward_RO_Division":"RO- Marathahalli","ward_ARO_Code":"19","ward_ARO_ Sub Division":"ARO- Doddane Kundi","ward_zone":"Zone1","ward_zone_name":"Mahadevapura","ward_join_status":"matched","ward_spatial_match_count":1},"geometry":{"type":"Point","coordinates":[77.71555860000007,12.977594000000067,0]},"id":7},{"type":"Feature","properties":{"fid":8,"OBJECTID":8,"Name":"Seetharampalya","FolderPath":"Bengaluru Metro Stations","SymbolID":0,"AltMode":-1,"Base":0,"Snippet":"","PopupInfo":"","HasLabel":-1,"LabelID":0,"ward_source_id":"ward_369_final.226","ward_source_Name":null,"ward_description":null,"ward_timestamp":null,"ward_begin":null,"ward_end":null,"ward_altitudeMode":null,"ward_tessellate":-1,"ward_extrude":0,"ward_visibility":-1,"ward_drawOrder":null,"ward_icon":null,"ward_Corporation":"East","ward_corporation_kn":"ಪೂರ್ವ","ward_corporation_id":"3","ward_ac":"Mahadevapura","ward_ac_kn":"ಮಹದೇವಪುರ","ward_ac_no":"174","ward_Assembly":"174 - Mahadevapura","ward_id":"36","ward_name":"36 - Bharath Aikya Ward","ward_name_kn":"ಭಾರತ್ ಐಕ್ಯ ವಾರ್ಡ್","ward_TOT_P":"19498.0","ward_TOT_M":"10573.0","ward_TOT_F":"8926.0","ward_SC_P":"1601.0","ward_SC_M":"817.0","ward_SC_F":"784.0","ward_ST_P":"286.0","ward_ST_M":"154.0","ward_ST_F":"132.0","ward_low_range":"14567","ward_high_range":"21851","ward_RO_Code":"7","ward_RO_Division":"RO- Marathahalli","ward_ARO_Code":"19","ward_ARO_ Sub Division":"ARO- Doddane Kundi","ward_zone":"Zone1","ward_zone_name":"Mahadevapura","ward_join_status":"matched","ward_spatial_match_count":1},"geometry":{"type":"Point","coordinates":[77.70875190000004,12.980953200000044,0]},"id":8},{"type":"Feature","properties":{"fid":9,"OBJECTID":9,"Name":"Hoodi","FolderPath":"Bengaluru Metro Stations","SymbolID":0,"AltMode":-1,"Base":0,"Snippet":"","PopupInfo":"","HasLabel":-1,"LabelID":0,"ward_source_id":"ward_369_final.230","ward_source_Name":null,"ward_description":null,"ward_timestamp":null,"ward_begin":null,"ward_end":null,"ward_altitudeMode":null,"ward_tessellate":-1,"ward_extrude":0,"ward_visibility":-1,"ward_drawOrder":null,"ward_icon":null,"ward_Corporation":"East","ward_corporation_kn":"ಪೂರ್ವ","ward_corporation_id":"3","ward_ac":"Mahadevapura","ward_ac_kn":"ಮಹದೇವಪುರ","ward_ac_no":"174","ward_Assembly":"174 - Mahadevapura","ward_id":"34","ward_name":"34 - Kaveri Nagara","ward_name_kn":"ಕಾವೇರಿ ನಗರ","ward_TOT_P":"20959.0","ward_TOT_M":"11560.0","ward_TOT_F":"9399.0","ward_SC_P":"3849.0","ward_SC_M":"1996.0","ward_SC_F":"1853.0","ward_ST_P":"603.0","ward_ST_M":"350.0","ward_ST_F":"253.0","ward_low_range":"14567","ward_high_range":"21851","ward_RO_Code":"7","ward_RO_Division":"RO- Marathahalli","ward_ARO_Code":"20","ward_ARO_ Sub Division":"ARO- Garudacharpalya","ward_zone":"Zone1","ward_zone_name":"Mahadevapura","ward_join_status":"matched","ward_spatial_match_count":1},"geometry":{"type":"Point","coordinates":[77.71132600000004,12.988802900000053,0]},"id":9},{"type":"Feature","properties":{"fid":10,"OBJECTID":10,"Name":"Garudacharpalya","FolderPath":"Bengaluru Metro Stations","SymbolID":0,"AltMode":-1,"Base":0,"Snippet":"","PopupInfo":"","HasLabel":-1,"LabelID":0,"ward_source_id":"ward_369_final.227","ward_source_Name":null,"ward_description":null,"ward_timestamp":null,"ward_begin":null,"ward_end":null,"ward_altitudeMode":null,"ward_tessellate":-1,"ward_extrude":0,"ward_visibility":-1,"ward_drawOrder":null,"ward_icon":null,"ward_Corporation":"East","ward_corporation_kn":"ಪೂರ್ವ","ward_corporation_id":"3","ward_ac":"Mahadevapura","ward_ac_kn":"ಮಹದೇವಪುರ","ward_ac_no":"174","ward_Assembly":"174 - Mahadevapura","ward_id":"35","ward_name":"35 - Garudachar Palya","ward_name_kn":"ಗರುಡಾಚಾರ್ ಪಾಳ್ಯ","ward_TOT_P":"20983.0","ward_TOT_M":"11770.0","ward_TOT_F":"9213.0","ward_SC_P":"1513.0","ward_SC_M":"799.0","ward_SC_F":"715.0","ward_ST_P":"433.0","ward_ST_M":"250.0","ward_ST_F":"183.0","ward_low_range":"14567","ward_high_range":"21851","ward_RO_Code":"7","ward_RO_Division":"RO- Marathahalli","ward_ARO_Code":"20","ward_ARO_ Sub Division":"ARO- Garudacharpalya","ward_zone":"Zone1","ward_zone_name":"Mahadevapura","ward_join_status":"matched","ward_spatial_match_count":1},"geometry":{"type":"Point","coordinates":[77.70367680000004,12.993450500000051,0]},"id":10},{"type":"Feature","properties":{"fid":11,"OBJECTID":11,"Name":"Singayyanapalya","FolderPath":"Bengaluru Metro Stations","SymbolID":0,"AltMode":-1,"Base":0,"Snippet":"","PopupInfo":"","HasLabel":-1,"LabelID":0,"ward_source_id":"ward_369_final.236","ward_source_Name":null,"ward_description":null,"ward_timestamp":null,"ward_begin":null,"ward_end":null,"ward_altitudeMode":null,"ward_tessellate":-1,"ward_extrude":0,"ward_visibility":-1,"ward_drawOrder":null,"ward_icon":null,"ward_Corporation":"East","ward_corporation_kn":"ಪೂರ್ವ","ward_corporation_id":"3","ward_ac":"K.R. Pura","ward_ac_kn":"ಕೆ.ಆರ್. ಪುರ","ward_ac_no":"151","ward_Assembly":"151 - K.R. Pura","ward_id":"13","ward_name":"13 - Rajarajeshwari Temple ward","ward_name_kn":"ರಾಜರಾಜೇಶ್ವರಿ ದೇವಸ್ಥಾನ ವಾರ್ಡ್","ward_TOT_P":"17539.0","ward_TOT_M":"9390.0","ward_TOT_F":"8149.0","ward_SC_P":"1608.0","ward_SC_M":"857.0","ward_SC_F":"751.0","ward_ST_P":"438.0","ward_ST_M":"247.0","ward_ST_F":"190.0","ward_low_range":"14567","ward_high_range":"21851","ward_RO_Code":"2","ward_RO_Division":"RO- KR Pura","ward_ARO_Code":"6","ward_ARO_ Sub Division":"ARO- KR Pura","ward_zone":"Zone2","ward_zone_name":"K.R. Pura","ward_join_status":"matched","ward_spatial_match_count":1},"geometry":{"type":"Point","coordinates":[77.69271760000004,12.996544500000027,0]},"id":11},{"type":"Feature","properties":{"fid":12,"OBJECTID":12,"Name":"Krishnarajapura","FolderPath":"Bengaluru Metro Stations","SymbolID":0,"AltMode":-1,"Base":0,"Snippet":"","PopupInfo":"","HasLabel":-1,"LabelID":0,"ward_source_id":"ward_369_final.201","ward_source_Name":null,"ward_description":null,"ward_timestamp":null,"ward_begin":null,"ward_end":null,"ward_altitudeMode":null,"ward_tessellate":-1,"ward_extrude":0,"ward_visibility":-1,"ward_drawOrder":null,"ward_icon":null,"ward_Corporation":"East","ward_corporation_kn":"ಪೂರ್ವ","ward_corporation_id":"3","ward_ac":"K.R. Pura","ward_ac_kn":"ಕೆ.ಆರ್. ಪುರ","ward_ac_no":"151","ward_Assembly":"151 - K.R. Pura","ward_id":"20","ward_name":"20 - A Narayanapura","ward_name_kn":"ಎ ನಾರಾಯಣಪುರ","ward_TOT_P":"21640.0","ward_TOT_M":"11539.0","ward_TOT_F":"10100.0","ward_SC_P":"5958.0","ward_SC_M":"3014.0","ward_SC_F":"2944.0","ward_ST_P":"299.0","ward_ST_M":"158.0","ward_ST_F":"140.0","ward_low_range":"14567","ward_high_range":"21851","ward_RO_Code":"3","ward_RO_Division":"RO- Ramamurthy Nagara","ward_ARO_Code":"7","ward_ARO_ Sub Division":"ARO- A Narayanapura","ward_zone":"Zone2","ward_zone_name":"K.R. Pura","ward_join_status":"matched","ward_spatial_match_count":1},"geometry":{"type":"Point","coordinates":[77.67767210000005,12.99990420000006,0]},"id":12},{"type":"Feature","properties":{"fid":13,"OBJECTID":13,"Name":"Nagasandra","FolderPath":"Bengaluru Metro Stations","SymbolID":0,"AltMode":-1,"Base":0,"Snippet":"","PopupInfo":"","HasLabel":-1,"LabelID":0,"ward_source_id":"ward_369_final.12","ward_source_Name":null,"ward_description":null,"ward_timestamp":null,"ward_begin":null,"ward_end":null,"ward_altitudeMode":null,"ward_tessellate":-1,"ward_extrude":0,"ward_visibility":-1,"ward_drawOrder":null,"ward_icon":null,"ward_Corporation":"North","ward_corporation_kn":"ಉತ್ತರ","ward_corporation_id":"2","ward_ac":"Dasarahalli","ward_ac_kn":"ದಾಸರಹಳ್ಳಿ","ward_ac_no":"155","ward_Assembly":"155 - Dasarahalli","ward_id":"70","ward_name":"70 - Manjunatha Nagar","ward_name_kn":"ಮಂಜುನಾಥ ನಗರ","ward_TOT_P":"27870.0","ward_TOT_M":"14552.0","ward_TOT_F":"13319.0","ward_SC_P":"1944.0","ward_SC_M":"991.0","ward_SC_F":"953.0","ward_ST_P":"987.0","ward_ST_M":"499.0","ward_ST_F":"488.0","ward_low_range":"19943","ward_high_range":"29914","ward_RO_Code":"3","ward_RO_Division":"RO- Dasarahalli","ward_ARO_Code":"7","ward_ARO_ Sub Division":"ARO- Bagalagunte","ward_zone":"Zone2","ward_zone_name":"Yelahanka","ward_join_status":"matched","ward_spatial_match_count":1},"geometry":{"type":"Point","coordinates":[77.50013490000003,13.04794970000006,0]},"id":13},{"type":"Feature","properties":{"fid":14,"OBJECTID":14,"Name":"Dasarahalli","FolderPath":"Bengaluru Metro Stations","SymbolID":0,"AltMode":-1,"Base":0,"Snippet":"","PopupInfo":"","HasLabel":-1,"LabelID":0,"ward_source_id":"ward_369_final.28","ward_source_Name":null,"ward_description":null,"ward_timestamp":null,"ward_begin":null,"ward_end":null,"ward_altitudeMode":null,"ward_tessellate":-1,"ward_extrude":0,"ward_visibility":-1,"ward_drawOrder":null,"ward_icon":null,"ward_Corporation":"North","ward_corporation_kn":"ಉತ್ತರ","ward_corporation_id":"2","ward_ac":"Dasarahalli","ward_ac_kn":"ದಾಸರಹಳ್ಳಿ","ward_ac_no":"155","ward_Assembly":"155 - Dasarahalli","ward_id":"71","ward_name":"71 - Nele Maheshwaramma Temple Ward","ward_name_kn":"ನೆಲೆ ಮಹೇಶ್ವರಮ್ಮ ದೇವಸ್ಥಾನ ವಾರ್ಡ್","ward_TOT_P":"27033.0","ward_TOT_M":"14610.0","ward_TOT_F":"12423.0","ward_SC_P":"970.0","ward_SC_M":"519.0","ward_SC_F":"452.0","ward_ST_P":"568.0","ward_ST_M":"304.0","ward_ST_F":"264.0","ward_low_range":"19943","ward_high_range":"29914","ward_RO_Code":"3","ward_RO_Division":"RO- Dasarahalli","ward_ARO_Code":"8","ward_ARO_ Sub Division":"ARO- Dasarahalli","ward_zone":"Zone2","ward_zone_name":"Yelahanka","ward_join_status":"matched","ward_spatial_match_count":1},"geometry":{"type":"Point","coordinates":[77.51255350000008,13.043260700000076,0]},"id":14},{"type":"Feature","properties":{"fid":15,"OBJECTID":15,"Name":"Jalahalli","FolderPath":"Bengaluru Metro Stations","SymbolID":0,"AltMode":-1,"Base":0,"Snippet":"","PopupInfo":"","HasLabel":-1,"LabelID":0,"ward_source_id":"ward_369_final.175","ward_source_Name":null,"ward_description":null,"ward_timestamp":null,"ward_begin":null,"ward_end":null,"ward_altitudeMode":null,"ward_tessellate":-1,"ward_extrude":0,"ward_visibility":-1,"ward_drawOrder":null,"ward_icon":null,"ward_Corporation":"West","ward_corporation_kn":"ಪಶ್ಚಿಮ","ward_corporation_id":"5","ward_ac":"Rajarajeshwarinagar","ward_ac_kn":"ರಾಜರಾಜೇಶ್ವರಿನಗರ","ward_ac_no":"154","ward_Assembly":"154 - Rajarajeshwarinagar","ward_id":"34","ward_name":"34 - Peenya","ward_name_kn":"ಪೀಣ್ಯ","ward_TOT_P":"26003.0","ward_TOT_M":"13620.0","ward_TOT_F":"12383.0","ward_SC_P":"4190.0","ward_SC_M":"2140.0","ward_SC_F":"2050.0","ward_ST_P":"986.0","ward_ST_M":"507.0","ward_ST_F":"479.0","ward_low_range":"18949","ward_high_range":"28424","ward_RO_Code":"10","ward_RO_Division":"RO- Peenya","ward_ARO_Code":"33","ward_ARO_ Sub Division":"ARO- Peenya","ward_zone":"Zone1","ward_zone_name":"Rajarajeshwarinagar","ward_join_status":"matched","ward_spatial_match_count":1},"geometry":{"type":"Point","coordinates":[77.51973510000005,13.039410400000065,0]},"id":15},{"type":"Feature","properties":{"fid":16,"OBJECTID":16,"Name":"Srirampura","FolderPath":"Bengaluru Metro Stations","SymbolID":0,"AltMode":-1,"Base":0,"Snippet":"","PopupInfo":"","HasLabel":-1,"LabelID":0,"ward_source_id":"ward_369_final.214","ward_source_Name":null,"ward_description":null,"ward_timestamp":null,"ward_begin":null,"ward_end":null,"ward_altitudeMode":null,"ward_tessellate":-1,"ward_extrude":0,"ward_visibility":-1,"ward_drawOrder":null,"ward_icon":null,"ward_Corporation":"West","ward_corporation_kn":"ಪಶ್ಚಿಮ","ward_corporation_id":"5","ward_ac":"Malleshwaram","ward_ac_kn":"ಮಲ್ಲೇಶ್ವರಂ","ward_ac_no":"157","ward_Assembly":"157 - Malleshwaram","ward_id":"57","ward_name":"57 - Kuvempu Ward","ward_name_kn":"ಕುವೆಂಪು ವಾರ್ಡ್","ward_TOT_P":"24283.0","ward_TOT_M":"12310.0","ward_TOT_F":"11973.0","ward_SC_P":"695.0","ward_SC_M":"362.0","ward_SC_F":"332.0","ward_ST_P":"165.0","ward_ST_M":"93.0","ward_ST_F":"72.0","ward_low_range":"18949","ward_high_range":"28424","ward_RO_Code":"6","ward_RO_Division":"RO- Malleshwaram","ward_ARO_Code":"22","ward_ARO_ Sub Division":"ARO- Subramanyanagara","ward_zone":"Zone2","ward_zone_name":"Malleshwaram","ward_join_status":"matched","ward_spatial_match_count":1},"geometry":{"type":"Point","coordinates":[77.56319630000007,12.99652530000003,0]},"id":16},{"type":"Feature","properties":{"fid":17,"OBJECTID":17,"Name":"Baiyyappanahalli","FolderPath":"Bengaluru Metro Stations","SymbolID":0,"AltMode":-1,"Base":0,"Snippet":"","PopupInfo":"","HasLabel":-1,"LabelID":0,"ward_source_id":"ward_369_final.41","ward_source_Name":null,"ward_description":null,"ward_timestamp":null,"ward_begin":null,"ward_end":null,"ward_altitudeMode":null,"ward_tessellate":-1,"ward_extrude":0,"ward_visibility":-1,"ward_drawOrder":null,"ward_icon":null,"ward_Corporation":"Central","ward_corporation_kn":"ಕೇಂದ್ರ","ward_corporation_id":"1","ward_ac":"C.V. Raman Nagar","ward_ac_kn":"ಸಿ.ವಿ. ರಾಮನ್ ನಗರ","ward_ac_no":"161","ward_Assembly":"161 - C.V. Raman Nagar","ward_id":"13","ward_name":"13 - Krishnaiahnapalya","ward_name_kn":"ಕೃಷ್ಣಯ್ಯನ ಪಾಳ್ಯ","ward_TOT_P":"19302.0","ward_TOT_M":"10744.0","ward_TOT_F":"8558.0","ward_SC_P":"3104.0","ward_SC_M":"1576.0","ward_SC_F":"1528.0","ward_ST_P":"706.0","ward_ST_M":"386.0","ward_ST_F":"319.0","ward_low_range":"18853","ward_high_range":"28280","ward_RO_Code":"1","ward_RO_Division":"RO- Indiranagar","ward_ARO_Code":"2","ward_ARO_ Sub Division":"ARO- Kasturi Nagar","ward_zone":"Zone1","ward_zone_name":"C.V. Raman Nagar","ward_join_status":"matched","ward_spatial_match_count":1},"geometry":{"type":"Point","coordinates":[77.65239760000003,12.990762300000029,0]},"id":17},{"type":"Feature","properties":{"fid":18,"OBJECTID":18,"Name":"Swami Vivekananda Road","FolderPath":"Bengaluru Metro Stations","SymbolID":0,"AltMode":-1,"Base":0,"Snippet":"","PopupInfo":"","HasLabel":-1,"LabelID":0,"ward_source_id":"ward_369_final.67","ward_source_Name":null,"ward_description":null,"ward_timestamp":null,"ward_begin":null,"ward_end":null,"ward_altitudeMode":null,"ward_tessellate":-1,"ward_extrude":0,"ward_visibility":-1,"ward_drawOrder":null,"ward_icon":null,"ward_Corporation":"Central","ward_corporation_kn":"ಕೇಂದ್ರ","ward_corporation_id":"1","ward_ac":"C.V. Raman Nagar","ward_ac_kn":"ಸಿ.ವಿ. ರಾಮನ್ ನಗರ","ward_ac_no":"161","ward_Assembly":"161 - C.V. Raman Nagar","ward_id":"11","ward_name":"11 - Old Baiyappanahalli","ward_name_kn":"ಹಳೆ ಬೈಯಪ್ಪನಹಳ್ಳಿ","ward_TOT_P":"18858.0","ward_TOT_M":"9572.0","ward_TOT_F":"9126.0","ward_SC_P":"9696.0","ward_SC_M":"4922.0","ward_SC_F":"4775.0","ward_ST_P":"336.0","ward_ST_M":"179.0","ward_ST_F":"157.0","ward_low_range":"18853","ward_high_range":"28280","ward_RO_Code":"1","ward_RO_Division":"RO- Indiranagar","ward_ARO_Code":"2","ward_ARO_ Sub Division":"ARO- Kasturi Nagar","ward_zone":"Zone1","ward_zone_name":"C.V. Raman Nagar","ward_join_status":"matched","ward_spatial_match_count":1},"geometry":{"type":"Point","coordinates":[77.64489700000007,12.985930600000074,0]},"id":18},{"type":"Feature","properties":{"fid":19,"OBJECTID":19,"Name":"Indiranagar","FolderPath":"Bengaluru Metro Stations","SymbolID":0,"AltMode":-1,"Base":0,"Snippet":"","PopupInfo":"","HasLabel":-1,"LabelID":0,"ward_source_id":"ward_369_final.46","ward_source_Name":null,"ward_description":null,"ward_timestamp":null,"ward_begin":null,"ward_end":null,"ward_altitudeMode":null,"ward_tessellate":-1,"ward_extrude":0,"ward_visibility":-1,"ward_drawOrder":null,"ward_icon":null,"ward_Corporation":"Central","ward_corporation_kn":"ಕೇಂದ್ರ","ward_corporation_id":"1","ward_ac":"C.V. Raman Nagar","ward_ac_kn":"ಸಿ.ವಿ. ರಾಮನ್ ನಗರ","ward_ac_no":"161","ward_Assembly":"161 - C.V. Raman Nagar","ward_id":"9","ward_name":"9 - Hoysala Nagara Central","ward_name_kn":"ಹೊಯ್ಸಳ ನಗರ ಕೇಂದ್ರ","ward_TOT_P":"27798.0","ward_TOT_M":"13720.0","ward_TOT_F":"14078.0","ward_SC_P":"11211.0","ward_SC_M":"5530.0","ward_SC_F":"5681.0","ward_ST_P":"384.0","ward_ST_M":"193.0","ward_ST_F":"190.0","ward_low_range":"18853","ward_high_range":"28280","ward_RO_Code":"1","ward_RO_Division":"RO- Indiranagar","ward_ARO_Code":"1","ward_ARO_ Sub Division":"ARO- Indiranagar","ward_zone":"Zone1","ward_zone_name":"C.V. Raman Nagar","ward_join_status":"matched","ward_spatial_match_count":1},"geometry":{"type":"Point","coordinates":[77.63866120000006,12.978332500000022,0]},"id":19},{"type":"Feature","properties":{"fid":20,"OBJECTID":20,"Name":"Halasuru","FolderPath":"Bengaluru Metro Stations","SymbolID":0,"AltMode":-1,"Base":0,"Snippet":"","PopupInfo":"","HasLabel":-1,"LabelID":0,"ward_source_id":"ward_369_final.79","ward_source_Name":null,"ward_description":null,"ward_timestamp":null,"ward_begin":null,"ward_end":null,"ward_altitudeMode":null,"ward_tessellate":-1,"ward_extrude":0,"ward_visibility":-1,"ward_drawOrder":null,"ward_icon":null,"ward_Corporation":"Central","ward_corporation_kn":"ಕೇಂದ್ರ","ward_corporation_id":"1","ward_ac":"Shivajinagar","ward_ac_kn":"ಶಿವಾಜಿನಗರ","ward_ac_no":"162","ward_Assembly":"162 - Shivajinagar","ward_id":"8","ward_name":"8 - Halasuru","ward_name_kn":"ಹಲಸೂರು","ward_TOT_P":"24019.0","ward_TOT_M":"12372.0","ward_TOT_F":"11647.0","ward_SC_P":"7838.0","ward_SC_M":"3948.0","ward_SC_F":"3890.0","ward_ST_P":"190.0","ward_ST_M":"114.0","ward_ST_F":"76.0","ward_low_range":"18853","ward_high_range":"28280","ward_RO_Code":"7","ward_RO_Division":"RO- Shivajinagar","ward_ARO_Code":"22","ward_ARO_ Sub Division":"ARO- Halasuru","ward_zone":"Zone2","ward_zone_name":"Gandhinagara","ward_join_status":"matched","ward_spatial_match_count":1},"geometry":{"type":"Point","coordinates":[77.62668600000006,12.976499200000035,0]},"id":20},{"type":"Feature","properties":{"fid":21,"OBJECTID":21,"Name":"Trinity","FolderPath":"Bengaluru Metro Stations","SymbolID":0,"AltMode":-1,"Base":0,"Snippet":"","PopupInfo":"","HasLabel":-1,"LabelID":0,"ward_source_id":"ward_369_final.267","ward_source_Name":null,"ward_description":null,"ward_timestamp":null,"ward_begin":null,"ward_end":null,"ward_altitudeMode":null,"ward_tessellate":-1,"ward_extrude":0,"ward_visibility":-1,"ward_drawOrder":null,"ward_icon":null,"ward_Corporation":"Central","ward_corporation_kn":"ಕೇಂದ್ರ","ward_corporation_id":"1","ward_ac":"Shivajinagar","ward_ac_kn":"ಶಿವಾಜಿನಗರ","ward_ac_no":"162","ward_Assembly":"162 - Shivajinagar","ward_id":"7","ward_name":"7 - K Kamaraj Ward","ward_name_kn":"ಕೆ ಕಾಮರಾಜ್ ವಾರ್ಡ್","ward_TOT_P":"23193.0","ward_TOT_M":"11561.0","ward_TOT_F":"11632.0","ward_SC_P":"1345.0","ward_SC_M":"652.0","ward_SC_F":"693.0","ward_ST_P":"115.0","ward_ST_M":"60.0","ward_ST_F":"55.0","ward_low_range":"18853","ward_high_range":"28280","ward_RO_Code":"7","ward_RO_Division":"RO- Shivajinagar","ward_ARO_Code":"22","ward_ARO_ Sub Division":"ARO- Halasuru","ward_zone":"Zone2","ward_zone_name":"Gandhinagara","ward_join_status":"matched","ward_spatial_match_count":1},"geometry":{"type":"Point","coordinates":[77.61702050000008,12.973021800000026,0]},"id":21},{"type":"Feature","properties":{"fid":22,"OBJECTID":22,"Name":"Mahatma Gandhi Road","FolderPath":"Bengaluru Metro Stations","SymbolID":0,"AltMode":-1,"Base":0,"Snippet":"","PopupInfo":"","HasLabel":-1,"LabelID":0,"ward_source_id":"ward_369_final.275","ward_source_Name":null,"ward_description":null,"ward_timestamp":null,"ward_begin":null,"ward_end":null,"ward_altitudeMode":null,"ward_tessellate":-1,"ward_extrude":0,"ward_visibility":-1,"ward_drawOrder":null,"ward_icon":null,"ward_Corporation":"Central","ward_corporation_kn":"ಕೇಂದ್ರ","ward_corporation_id":"1","ward_ac":"Shanthinagar","ward_ac_kn":"ಶಾಂತಿನಗರ","ward_ac_no":"163","ward_Assembly":"163 - Shanthinagar","ward_id":"25","ward_name":"25 - Ashokanagar","ward_name_kn":"ಅಶೋಕನಗರ","ward_TOT_P":"21804.0","ward_TOT_M":"10895.0","ward_TOT_F":"10909.0","ward_SC_P":"1987.0","ward_SC_M":"931.0","ward_SC_F":"1056.0","ward_ST_P":"311.0","ward_ST_M":"137.0","ward_ST_F":"174.0","ward_low_range":"18853","ward_high_range":"28280","ward_RO_Code":"6","ward_RO_Division":"RO - Shanthinagar","ward_ARO_Code":"21","ward_ARO_ Sub Division":"ARO- Shanthinagar","ward_zone":"Zone1","ward_zone_name":"C.V. Raman Nagar","ward_join_status":"matched","ward_spatial_match_count":1},"geometry":{"type":"Point","coordinates":[77.60679020000003,12.975526400000035,0]},"id":22},{"type":"Feature","properties":{"fid":23,"OBJECTID":23,"Name":"Cubbon Park","FolderPath":"Bengaluru Metro Stations","SymbolID":0,"AltMode":-1,"Base":0,"Snippet":"","PopupInfo":"","HasLabel":-1,"LabelID":0,"ward_source_id":"ward_369_final.298","ward_source_Name":null,"ward_description":null,"ward_timestamp":null,"ward_begin":null,"ward_end":null,"ward_altitudeMode":null,"ward_tessellate":-1,"ward_extrude":0,"ward_visibility":-1,"ward_drawOrder":null,"ward_icon":null,"ward_Corporation":"Central","ward_corporation_kn":"ಕೇಂದ್ರ","ward_corporation_id":"1","ward_ac":"Shivajinagar","ward_ac_kn":"ಶಿವಾಜಿನಗರ","ward_ac_no":"162","ward_Assembly":"162 - Shivajinagar","ward_id":"3","ward_name":"3 - Vasanth Nagar","ward_name_kn":"ವಸಂತ ನಗರ","ward_TOT_P":"28272.0","ward_TOT_M":"14112.0","ward_TOT_F":"14209.0","ward_SC_P":"3957.0","ward_SC_M":"1956.0","ward_SC_F":"2001.0","ward_ST_P":"186.0","ward_ST_M":"102.0","ward_ST_F":"84.0","ward_low_range":"18853","ward_high_range":"28280","ward_RO_Code":"7","ward_RO_Division":"RO- Shivajinagar","ward_ARO_Code":"24","ward_ARO_ Sub Division":"ARO- Vasanthanagar","ward_zone":"Zone2","ward_zone_name":"Gandhinagara","ward_join_status":"matched","ward_spatial_match_count":1},"geometry":{"type":"Point","coordinates":[77.59757560000008,12.980957500000045,0]},"id":23},{"type":"Feature","properties":{"fid":24,"OBJECTID":24,"Name":"Dr. B R Ambedkar Station, Vidhana Soudha","FolderPath":"Bengaluru Metro Stations","SymbolID":0,"AltMode":-1,"Base":0,"Snippet":"","PopupInfo":"","HasLabel":-1,"LabelID":0,"ward_source_id":"ward_369_final.77","ward_source_Name":null,"ward_description":null,"ward_timestamp":null,"ward_begin":null,"ward_end":null,"ward_altitudeMode":null,"ward_tessellate":-1,"ward_extrude":0,"ward_visibility":-1,"ward_drawOrder":null,"ward_icon":null,"ward_Corporation":"Central","ward_corporation_kn":"ಕೇಂದ್ರ","ward_corporation_id":"1","ward_ac":"Shivajinagar","ward_ac_kn":"ಶಿವಾಜಿನಗರ","ward_ac_no":"162","ward_Assembly":"162 - Shivajinagar","ward_id":"4","ward_name":"4 - Sampangirama Nagar","ward_name_kn":"ಸಂಪಂಗಿರಾಮ ನಗರ","ward_TOT_P":"27874.0","ward_TOT_M":"13872.0","ward_TOT_F":"14002.0","ward_SC_P":"1810.0","ward_SC_M":"884.0","ward_SC_F":"926.0","ward_ST_P":"224.0","ward_ST_M":"92.0","ward_ST_F":"132.0","ward_low_range":"18853","ward_high_range":"28280","ward_RO_Code":"7","ward_RO_Division":"RO- Shivajinagar","ward_ARO_Code":"24","ward_ARO_ Sub Division":"ARO- Vasanthanagar","ward_zone":"Zone2","ward_zone_name":"Gandhinagara","ward_join_status":"matched","ward_spatial_match_count":1},"geometry":{"type":"Point","coordinates":[77.59163850000004,12.978741900000045,0]},"id":24},{"type":"Feature","properties":{"fid":25,"OBJECTID":25,"Name":"Sir M Vishweshwariah - Central College","FolderPath":"Bengaluru Metro Stations","SymbolID":0,"AltMode":-1,"Base":0,"Snippet":"","PopupInfo":"","HasLabel":-1,"LabelID":0,"ward_source_id":"ward_369_final.77","ward_source_Name":null,"ward_description":null,"ward_timestamp":null,"ward_begin":null,"ward_end":null,"ward_altitudeMode":null,"ward_tessellate":-1,"ward_extrude":0,"ward_visibility":-1,"ward_drawOrder":null,"ward_icon":null,"ward_Corporation":"Central","ward_corporation_kn":"ಕೇಂದ್ರ","ward_corporation_id":"1","ward_ac":"Shivajinagar","ward_ac_kn":"ಶಿವಾಜಿನಗರ","ward_ac_no":"162","ward_Assembly":"162 - Shivajinagar","ward_id":"4","ward_name":"4 - Sampangirama Nagar","ward_name_kn":"ಸಂಪಂಗಿರಾಮ ನಗರ","ward_TOT_P":"27874.0","ward_TOT_M":"13872.0","ward_TOT_F":"14002.0","ward_SC_P":"1810.0","ward_SC_M":"884.0","ward_SC_F":"926.0","ward_ST_P":"224.0","ward_ST_M":"92.0","ward_ST_F":"132.0","ward_low_range":"18853","ward_high_range":"28280","ward_RO_Code":"7","ward_RO_Division":"RO- Shivajinagar","ward_ARO_Code":"24","ward_ARO_ Sub Division":"ARO- Vasanthanagar","ward_zone":"Zone2","ward_zone_name":"Gandhinagara","ward_join_status":"matched","ward_spatial_match_count":1},"geometry":{"type":"Point","coordinates":[77.58422000000007,12.97451970000003,0]},"id":25},{"type":"Feature","properties":{"fid":26,"OBJECTID":26,"Name":"Nadaprabhu Kempegowda Station, Majestic","FolderPath":"Bengaluru Metro Stations","SymbolID":0,"AltMode":-1,"Base":0,"Snippet":"","PopupInfo":"","HasLabel":-1,"LabelID":0,"ward_source_id":"ward_369_final.307","ward_source_Name":null,"ward_description":null,"ward_timestamp":null,"ward_begin":null,"ward_end":null,"ward_altitudeMode":null,"ward_tessellate":-1,"ward_extrude":0,"ward_visibility":-1,"ward_drawOrder":null,"ward_icon":null,"ward_Corporation":"Central","ward_corporation_kn":"ಕೇಂದ್ರ","ward_corporation_id":"1","ward_ac":"Gandhinagara","ward_ac_kn":"ಗಾಂಧಿನಗರ","ward_ac_no":"164","ward_Assembly":"164 - Gandhinagara","ward_id":"59","ward_name":"59 - Nehru Nagar","ward_name_kn":"ನೆಹರು ನಗರ","ward_TOT_P":"25780.0","ward_TOT_M":"14248.0","ward_TOT_F":"11532.0","ward_SC_P":"6345.0","ward_SC_M":"3194.0","ward_SC_F":"3150.0","ward_ST_P":"255.0","ward_ST_M":"149.0","ward_ST_F":"106.0","ward_low_range":"18853","ward_high_range":"28280","ward_RO_Code":"5","ward_RO_Division":"RO - Gandhinagara","ward_ARO_Code":"15","ward_ARO_ Sub Division":"ARO- Chickpete","ward_zone":"Zone2","ward_zone_name":"Gandhinagara","ward_join_status":"matched","ward_spatial_match_count":1},"geometry":{"type":"Point","coordinates":[77.57287570000005,12.975707900000032,0]},"id":26},{"type":"Feature","properties":{"fid":27,"OBJECTID":27,"Name":"Krantivira Sangolli Rayanna","FolderPath":"Bengaluru Metro Stations","SymbolID":0,"AltMode":-1,"Base":0,"Snippet":"","PopupInfo":"","HasLabel":-1,"LabelID":0,"ward_source_id":"ward_369_final.365","ward_source_Name":null,"ward_description":null,"ward_timestamp":null,"ward_begin":null,"ward_end":null,"ward_altitudeMode":null,"ward_tessellate":-1,"ward_extrude":0,"ward_visibility":-1,"ward_drawOrder":null,"ward_icon":null,"ward_Corporation":"Central","ward_corporation_kn":"ಕೇಂದ್ರ","ward_corporation_id":"1","ward_ac":"Gandhinagara","ward_ac_kn":"ಗಾಂಧಿನಗರ","ward_ac_no":"164","ward_Assembly":"164 - Gandhinagara","ward_id":"56","ward_name":"56 - Gopalpura","ward_name_kn":"ಗೋಪಾಲಪುರ","ward_TOT_P":"26986.0","ward_TOT_M":"13789.0","ward_TOT_F":"13197.0","ward_SC_P":"6655.0","ward_SC_M":"3307.0","ward_SC_F":"3348.0","ward_ST_P":"338.0","ward_ST_M":"177.0","ward_ST_F":"161.0","ward_low_range":"18853","ward_high_range":"28280","ward_RO_Code":"5","ward_RO_Division":"RO - Gandhinagara","ward_ARO_Code":"14","ward_ARO_ Sub Division":"ARO- Binnypete","ward_zone":"Zone2","ward_zone_name":"Gandhinagara","ward_join_status":"matched","ward_spatial_match_count":1},"geometry":{"type":"Point","coordinates":[77.56537670000006,12.975876800000037,0]},"id":27},{"type":"Feature","properties":{"fid":28,"OBJECTID":28,"Name":"Magadi Road","FolderPath":"Bengaluru Metro Stations","SymbolID":0,"AltMode":-1,"Base":0,"Snippet":"","PopupInfo":"","HasLabel":-1,"LabelID":0,"ward_source_id":"ward_369_final.365","ward_source_Name":null,"ward_description":null,"ward_timestamp":null,"ward_begin":null,"ward_end":null,"ward_altitudeMode":null,"ward_tessellate":-1,"ward_extrude":0,"ward_visibility":-1,"ward_drawOrder":null,"ward_icon":null,"ward_Corporation":"Central","ward_corporation_kn":"ಕೇಂದ್ರ","ward_corporation_id":"1","ward_ac":"Gandhinagara","ward_ac_kn":"ಗಾಂಧಿನಗರ","ward_ac_no":"164","ward_Assembly":"164 - Gandhinagara","ward_id":"56","ward_name":"56 - Gopalpura","ward_name_kn":"ಗೋಪಾಲಪುರ","ward_TOT_P":"26986.0","ward_TOT_M":"13789.0","ward_TOT_F":"13197.0","ward_SC_P":"6655.0","ward_SC_M":"3307.0","ward_SC_F":"3348.0","ward_ST_P":"338.0","ward_ST_M":"177.0","ward_ST_F":"161.0","ward_low_range":"18853","ward_high_range":"28280","ward_RO_Code":"5","ward_RO_Division":"RO - Gandhinagara","ward_ARO_Code":"14","ward_ARO_ Sub Division":"ARO- Binnypete","ward_zone":"Zone2","ward_zone_name":"Gandhinagara","ward_join_status":"matched","ward_spatial_match_count":1},"geometry":{"type":"Point","coordinates":[77.55535230000004,12.975632000000076,0]},"id":28},{"type":"Feature","properties":{"fid":29,"OBJECTID":29,"Name":"Sri Balagangadaranatha Swamy, Hosahalli","FolderPath":"Bengaluru Metro Stations","SymbolID":0,"AltMode":-1,"Base":0,"Snippet":"","PopupInfo":"","HasLabel":-1,"LabelID":0,"ward_source_id":"ward_369_final.167","ward_source_Name":null,"ward_description":null,"ward_timestamp":null,"ward_begin":null,"ward_end":null,"ward_altitudeMode":null,"ward_tessellate":-1,"ward_extrude":0,"ward_visibility":-1,"ward_drawOrder":null,"ward_icon":null,"ward_Corporation":"West","ward_corporation_kn":"ಪಶ್ಚಿಮ","ward_corporation_id":"5","ward_ac":"Govindraj Nagar","ward_ac_kn":"ಗೋವಿಂದರಾಜ ನಗರ","ward_ac_no":"166","ward_Assembly":"166 - Govindraj Nagar","ward_id":"71","ward_name":"71 - Thimmenahalli","ward_name_kn":"ತಿಮ್ಮೇನಹಳ್ಳಿ","ward_TOT_P":"23837.0","ward_TOT_M":"12315.0","ward_TOT_F":"11522.0","ward_SC_P":"2508.0","ward_SC_M":"1231.0","ward_SC_F":"1278.0","ward_ST_P":"432.0","ward_ST_M":"228.0","ward_ST_F":"205.0","ward_low_range":"18949","ward_high_range":"28424","ward_RO_Code":"4","ward_RO_Division":"RO- Govindraj Nagar","ward_ARO_Code":"14","ward_ARO_ Sub Division":"ARO- Thimenhalli","ward_zone":"Zone2","ward_zone_name":"Malleshwaram","ward_join_status":"matched","ward_spatial_match_count":1},"geometry":{"type":"Point","coordinates":[77.54562150000004,12.974293300000056,0]},"id":29},{"type":"Feature","properties":{"fid":30,"OBJECTID":30,"Name":"Vijayanagara","FolderPath":"Bengaluru Metro Stations","SymbolID":0,"AltMode":-1,"Base":0,"Snippet":"","PopupInfo":"","HasLabel":-1,"LabelID":0,"ward_source_id":"ward_369_final.217","ward_source_Name":null,"ward_description":null,"ward_timestamp":null,"ward_begin":null,"ward_end":null,"ward_altitudeMode":null,"ward_tessellate":-1,"ward_extrude":0,"ward_visibility":-1,"ward_drawOrder":null,"ward_icon":null,"ward_Corporation":"West","ward_corporation_kn":"ಪಶ್ಚಿಮ","ward_corporation_id":"5","ward_ac":"Govindraj Nagar","ward_ac_kn":"ಗೋವಿಂದರಾಜ ನಗರ","ward_ac_no":"166","ward_Assembly":"166 - Govindraj Nagar","ward_id":"73","ward_name":"73 - Dr. Vishnuvardhan Ward","ward_name_kn":"ಡಾII ವಿಷ್ಣುವರ್ಧನ್ ವಾರ್ಡ್","ward_TOT_P":"21949.0","ward_TOT_M":"11129.0","ward_TOT_F":"10820.0","ward_SC_P":"802.0","ward_SC_M":"408.0","ward_SC_F":"395.0","ward_ST_P":"238.0","ward_ST_M":"130.0","ward_ST_F":"108.0","ward_low_range":"18949","ward_high_range":"28424","ward_RO_Code":"4","ward_RO_Division":"RO- Govindraj Nagar","ward_ARO_Code":"14","ward_ARO_ Sub Division":"ARO- Thimenhalli","ward_zone":"Zone2","ward_zone_name":"Malleshwaram","ward_join_status":"matched","ward_spatial_match_count":1},"geometry":{"type":"Point","coordinates":[77.53740440000007,12.970955900000035,0]},"id":30},{"type":"Feature","properties":{"fid":31,"OBJECTID":31,"Name":"Attiguppe","FolderPath":"Bengaluru Metro Stations","SymbolID":0,"AltMode":-1,"Base":0,"Snippet":"","PopupInfo":"","HasLabel":-1,"LabelID":0,"ward_source_id":"ward_369_final.288","ward_source_Name":null,"ward_description":null,"ward_timestamp":null,"ward_begin":null,"ward_end":null,"ward_altitudeMode":null,"ward_tessellate":-1,"ward_extrude":0,"ward_visibility":-1,"ward_drawOrder":null,"ward_icon":null,"ward_Corporation":"West","ward_corporation_kn":"ಪಶ್ಚಿಮ","ward_corporation_id":"5","ward_ac":"Vijayanagar","ward_ac_kn":"ವಿಜಯನಗರ","ward_ac_no":"167","ward_Assembly":"167 - Vijayanagar","ward_id":"83","ward_name":"83 - Hampi Nagar","ward_name_kn":"ಹಂಪಿ ನಗರ","ward_TOT_P":"23420.0","ward_TOT_M":"12018.0","ward_TOT_F":"11402.0","ward_SC_P":"959.0","ward_SC_M":"488.0","ward_SC_F":"471.0","ward_ST_P":"253.0","ward_ST_M":"121.0","ward_ST_F":"132.0","ward_low_range":"18949","ward_high_range":"28424","ward_RO_Code":"12","ward_RO_Division":"RO- Hampi Nagar","ward_ARO_Code":"37","ward_ARO_ Sub Division":"ARO- Hampi Nagar","ward_zone":"Zone2","ward_zone_name":"Malleshwaram","ward_join_status":"matched","ward_spatial_match_count":1},"geometry":{"type":"Point","coordinates":[77.53357880000004,12.961893100000054,0]},"id":31},{"type":"Feature","properties":{"fid":32,"OBJECTID":32,"Name":"Deepanjali Nagar","FolderPath":"Bengaluru Metro Stations","SymbolID":0,"AltMode":-1,"Base":0,"Snippet":"","PopupInfo":"","HasLabel":-1,"LabelID":0,"ward_source_id":"ward_369_final.346","ward_source_Name":null,"ward_description":null,"ward_timestamp":null,"ward_begin":null,"ward_end":null,"ward_altitudeMode":null,"ward_tessellate":-1,"ward_extrude":0,"ward_visibility":-1,"ward_drawOrder":null,"ward_icon":null,"ward_Corporation":"West","ward_corporation_kn":"ಪಶ್ಚಿಮ","ward_corporation_id":"5","ward_ac":"Vijayanagar","ward_ac_kn":"ವಿಜಯನಗರ","ward_ac_no":"167","ward_Assembly":"167 - Vijayanagar","ward_id":"94","ward_name":"94 - Deepanjali Nagara","ward_name_kn":"ದೀಪಾಂಜಲಿ ನಗರ","ward_TOT_P":"27561.0","ward_TOT_M":"14457.0","ward_TOT_F":"13104.0","ward_SC_P":"3449.0","ward_SC_M":"1812.0","ward_SC_F":"1637.0","ward_ST_P":"586.0","ward_ST_M":"316.0","ward_ST_F":"269.0","ward_low_range":"18949","ward_high_range":"28424","ward_RO_Code":"12","ward_RO_Division":"RO- Hampi Nagar","ward_ARO_Code":"37","ward_ARO_ Sub Division":"ARO- Hampi Nagar","ward_zone":"Zone2","ward_zone_name":"Malleshwaram","ward_join_status":"matched","ward_spatial_match_count":1},"geometry":{"type":"Point","coordinates":[77.53701220000005,12.952057800000034,0]},"id":32},{"type":"Feature","properties":{"fid":33,"OBJECTID":33,"Name":"Mysore Road","FolderPath":"Bengaluru Metro Stations","SymbolID":0,"AltMode":-1,"Base":0,"Snippet":"","PopupInfo":"","HasLabel":-1,"LabelID":0,"ward_source_id":"ward_369_final.346","ward_source_Name":null,"ward_description":null,"ward_timestamp":null,"ward_begin":null,"ward_end":null,"ward_altitudeMode":null,"ward_tessellate":-1,"ward_extrude":0,"ward_visibility":-1,"ward_drawOrder":null,"ward_icon":null,"ward_Corporation":"West","ward_corporation_kn":"ಪಶ್ಚಿಮ","ward_corporation_id":"5","ward_ac":"Vijayanagar","ward_ac_kn":"ವಿಜಯನಗರ","ward_ac_no":"167","ward_Assembly":"167 - Vijayanagar","ward_id":"94","ward_name":"94 - Deepanjali Nagara","ward_name_kn":"ದೀಪಾಂಜಲಿ ನಗರ","ward_TOT_P":"27561.0","ward_TOT_M":"14457.0","ward_TOT_F":"13104.0","ward_SC_P":"3449.0","ward_SC_M":"1812.0","ward_SC_F":"1637.0","ward_ST_P":"586.0","ward_ST_M":"316.0","ward_ST_F":"269.0","ward_low_range":"18949","ward_high_range":"28424","ward_RO_Code":"12","ward_RO_Division":"RO- Hampi Nagar","ward_ARO_Code":"37","ward_ARO_ Sub Division":"ARO- Hampi Nagar","ward_zone":"Zone2","ward_zone_name":"Malleshwaram","ward_join_status":"matched","ward_spatial_match_count":1},"geometry":{"type":"Point","coordinates":[77.53015880000004,12.946718300000043,0]},"id":33},{"type":"Feature","properties":{"fid":34,"OBJECTID":34,"Name":"Mantri Square Sampige Road","FolderPath":"Bengaluru Metro Stations","SymbolID":0,"AltMode":-1,"Base":0,"Snippet":"","PopupInfo":"","HasLabel":-1,"LabelID":0,"ward_source_id":"ward_369_final.91","ward_source_Name":null,"ward_description":null,"ward_timestamp":null,"ward_begin":null,"ward_end":null,"ward_altitudeMode":null,"ward_tessellate":-1,"ward_extrude":0,"ward_visibility":-1,"ward_drawOrder":null,"ward_icon":null,"ward_Corporation":"Central","ward_corporation_kn":"ಕೇಂದ್ರ","ward_corporation_id":"1","ward_ac":"Gandhinagara","ward_ac_kn":"ಗಾಂಧಿನಗರ","ward_ac_no":"164","ward_Assembly":"164 - Gandhinagara","ward_id":"62","ward_name":"62 - Swatantra Palya Ward","ward_name_kn":"ಸ್ವತಂತ್ರ ಪಾಳ್ಯ ವಾರ್ಡ್","ward_TOT_P":"28137.0","ward_TOT_M":"14255.0","ward_TOT_F":"13883.0","ward_SC_P":"12723.0","ward_SC_M":"6443.0","ward_SC_F":"6280.0","ward_ST_P":"367.0","ward_ST_M":"198.0","ward_ST_F":"170.0","ward_low_range":"18853","ward_high_range":"28280","ward_RO_Code":"5","ward_RO_Division":"RO - Gandhinagara","ward_ARO_Code":"16","ward_ARO_ Sub Division":"ARO- Okalipuram","ward_zone":"Zone2","ward_zone_name":"Gandhinagara","ward_join_status":"matched","ward_spatial_match_count":1},"geometry":{"type":"Point","coordinates":[77.57072930000004,12.990462900000068,0]},"id":34},{"type":"Feature","properties":{"fid":35,"OBJECTID":35,"Name":"Mahakavi Kuvempu Road","FolderPath":"Bengaluru Metro Stations","SymbolID":0,"AltMode":-1,"Base":0,"Snippet":"","PopupInfo":"","HasLabel":-1,"LabelID":0,"ward_source_id":"ward_369_final.299","ward_source_Name":null,"ward_description":null,"ward_timestamp":null,"ward_begin":null,"ward_end":null,"ward_altitudeMode":null,"ward_tessellate":-1,"ward_extrude":0,"ward_visibility":-1,"ward_drawOrder":null,"ward_icon":null,"ward_Corporation":"West","ward_corporation_kn":"ಪಶ್ಚಿಮ","ward_corporation_id":"5","ward_ac":"Malleshwaram","ward_ac_kn":"ಮಲ್ಲೇಶ್ವರಂ","ward_ac_no":"157","ward_Assembly":"157 - Malleshwaram","ward_id":"56","ward_name":"56 - Gayathri Nagara","ward_name_kn":"ಗಾಯತ್ರಿ ನಗರ","ward_TOT_P":"26978.0","ward_TOT_M":"13816.0","ward_TOT_F":"13162.0","ward_SC_P":"801.0","ward_SC_M":"404.0","ward_SC_F":"397.0","ward_ST_P":"363.0","ward_ST_M":"201.0","ward_ST_F":"162.0","ward_low_range":"18949","ward_high_range":"28424","ward_RO_Code":"6","ward_RO_Division":"RO- Malleshwaram","ward_ARO_Code":"22","ward_ARO_ Sub Division":"ARO- Subramanyanagara","ward_zone":"Zone2","ward_zone_name":"Malleshwaram","ward_join_status":"matched","ward_spatial_match_count":1},"geometry":{"type":"Point","coordinates":[77.55689860000007,12.998529700000063,0]},"id":35},{"type":"Feature","properties":{"fid":36,"OBJECTID":36,"Name":"Rajajinagar","FolderPath":"Bengaluru Metro Stations","SymbolID":0,"AltMode":-1,"Base":0,"Snippet":"","PopupInfo":"","HasLabel":-1,"LabelID":0,"ward_source_id":"ward_369_final.247","ward_source_Name":null,"ward_description":null,"ward_timestamp":null,"ward_begin":null,"ward_end":null,"ward_altitudeMode":null,"ward_tessellate":-1,"ward_extrude":0,"ward_visibility":-1,"ward_drawOrder":null,"ward_icon":null,"ward_Corporation":"West","ward_corporation_kn":"ಪಶ್ಚಿಮ","ward_corporation_id":"5","ward_ac":"Mahalakshmi Layout","ward_ac_kn":"ಮಹಾಲಕ್ಷ್ಮಿ ಲೇಔಟ್","ward_ac_no":"156","ward_Assembly":"156 - Mahalakshmi Layout","ward_id":"41","ward_name":"41 - Nagapura","ward_name_kn":"ನಾಗಪುರ","ward_TOT_P":"26591.0","ward_TOT_M":"13419.0","ward_TOT_F":"13172.0","ward_SC_P":"1680.0","ward_SC_M":"850.0","ward_SC_F":"829.0","ward_ST_P":"398.0","ward_ST_M":"199.0","ward_ST_F":"199.0","ward_low_range":"18949","ward_high_range":"28424","ward_RO_Code":"5","ward_RO_Division":"RO- Mahalakshmi Layout","ward_ARO_Code":"16","ward_ARO_ Sub Division":"ARO- Mahalakshmipuram","ward_zone":"Zone1","ward_zone_name":"Rajarajeshwarinagar","ward_join_status":"matched","ward_spatial_match_count":1},"geometry":{"type":"Point","coordinates":[77.54965680000004,13.000524700000028,0]},"id":36},{"type":"Feature","properties":{"fid":37,"OBJECTID":37,"Name":"Mahalakshmi","FolderPath":"Bengaluru Metro Stations","SymbolID":0,"AltMode":-1,"Base":0,"Snippet":"","PopupInfo":"","HasLabel":-1,"LabelID":0,"ward_source_id":"ward_369_final.342","ward_source_Name":null,"ward_description":null,"ward_timestamp":null,"ward_begin":null,"ward_end":null,"ward_altitudeMode":null,"ward_tessellate":-1,"ward_extrude":0,"ward_visibility":-1,"ward_drawOrder":null,"ward_icon":null,"ward_Corporation":"West","ward_corporation_kn":"ಪಶ್ಚಿಮ","ward_corporation_id":"5","ward_ac":"Mahalakshmi Layout","ward_ac_kn":"ಮಹಾಲಕ್ಷ್ಮಿ ಲೇಔಟ್","ward_ac_no":"156","ward_Assembly":"156 - Mahalakshmi Layout","ward_id":"43","ward_name":"43 - Kethamaranahalli","ward_name_kn":"ಕೇತಮಾರನಹಳ್ಳಿ","ward_TOT_P":"28154.0","ward_TOT_M":"14315.0","ward_TOT_F":"13839.0","ward_SC_P":"1329.0","ward_SC_M":"649.0","ward_SC_F":"680.0","ward_ST_P":"346.0","ward_ST_M":"170.0","ward_ST_F":"176.0","ward_low_range":"18949","ward_high_range":"28424","ward_RO_Code":"5","ward_RO_Division":"RO- Mahalakshmi Layout","ward_ARO_Code":"18","ward_ARO_ Sub Division":"ARO- Shankar Mutt","ward_zone":"Zone1","ward_zone_name":"Rajarajeshwarinagar","ward_join_status":"matched","ward_spatial_match_count":1},"geometry":{"type":"Point","coordinates":[77.54871340000005,13.00809520000007,0]},"id":37},{"type":"Feature","properties":{"fid":38,"OBJECTID":38,"Name":"Sandal Soap Factory","FolderPath":"Bengaluru Metro Stations","SymbolID":0,"AltMode":-1,"Base":0,"Snippet":"","PopupInfo":"","HasLabel":-1,"LabelID":0,"ward_source_id":"ward_369_final.352","ward_source_Name":null,"ward_description":null,"ward_timestamp":null,"ward_begin":null,"ward_end":null,"ward_altitudeMode":null,"ward_tessellate":-1,"ward_extrude":0,"ward_visibility":-1,"ward_drawOrder":null,"ward_icon":null,"ward_Corporation":"West","ward_corporation_kn":"ಪಶ್ಚಿಮ","ward_corporation_id":"5","ward_ac":"Mahalakshmi Layout","ward_ac_kn":"ಮಹಾಲಕ್ಷ್ಮಿ ಲೇಔಟ್","ward_ac_no":"156","ward_Assembly":"156 - Mahalakshmi Layout","ward_id":"36","ward_name":"36 - Nalwadi Krishnaraja Wadiyar Ward","ward_name_kn":"ನಾಲ್ವಡಿ ಕೃಷ್ಣರಾಜ ಒಡೆಯರ್ ವಾರ್ಡ್","ward_TOT_P":"28281.0","ward_TOT_M":"14630.0","ward_TOT_F":"13650.0","ward_SC_P":"4501.0","ward_SC_M":"2286.0","ward_SC_F":"2215.0","ward_ST_P":"503.0","ward_ST_M":"251.0","ward_ST_F":"251.0","ward_low_range":"18949","ward_high_range":"28424","ward_RO_Code":"5","ward_RO_Division":"RO- Mahalakshmi Layout","ward_ARO_Code":"17","ward_ARO_ Sub Division":"ARO- Nandhini Layout","ward_zone":"Zone1","ward_zone_name":"Rajarajeshwarinagar","ward_join_status":"matched","ward_spatial_match_count":1},"geometry":{"type":"Point","coordinates":[77.55398390000005,13.01465440000004,0]},"id":38},{"type":"Feature","properties":{"fid":39,"OBJECTID":39,"Name":"Goraguntepalya","FolderPath":"Bengaluru Metro Stations","SymbolID":0,"AltMode":-1,"Base":0,"Snippet":"","PopupInfo":"","HasLabel":-1,"LabelID":0,"ward_source_id":"ward_369_final.58","ward_source_Name":null,"ward_description":null,"ward_timestamp":null,"ward_begin":null,"ward_end":null,"ward_altitudeMode":null,"ward_tessellate":-1,"ward_extrude":0,"ward_visibility":-1,"ward_drawOrder":null,"ward_icon":null,"ward_Corporation":"West","ward_corporation_kn":"ಪಶ್ಚಿಮ","ward_corporation_id":"5","ward_ac":"Rajarajeshwarinagar","ward_ac_kn":"ರಾಜರಾಜೇಶ್ವರಿನಗರ","ward_ac_no":"154","ward_Assembly":"154 - Rajarajeshwarinagar","ward_id":"35","ward_name":"35 - Goraguntepalya","ward_name_kn":"ಗೋರಗುಂಟೆಪಾಳ್ಯ","ward_TOT_P":"21462.0","ward_TOT_M":"11354.0","ward_TOT_F":"10108.0","ward_SC_P":"4874.0","ward_SC_M":"2455.0","ward_SC_F":"2420.0","ward_ST_P":"823.0","ward_ST_M":"440.0","ward_ST_F":"383.0","ward_low_range":"18949","ward_high_range":"28424","ward_RO_Code":"10","ward_RO_Division":"RO- Peenya","ward_ARO_Code":"33","ward_ARO_ Sub Division":"ARO- Peenya","ward_zone":"Zone1","ward_zone_name":"Rajarajeshwarinagar","ward_join_status":"matched","ward_spatial_match_count":1},"geometry":{"type":"Point","coordinates":[77.54089610000005,13.028407800000025,0]},"id":39},{"type":"Feature","properties":{"fid":40,"OBJECTID":40,"Name":"Peenya","FolderPath":"Bengaluru Metro Stations","SymbolID":0,"AltMode":-1,"Base":0,"Snippet":"","PopupInfo":"","HasLabel":-1,"LabelID":0,"ward_source_id":"ward_369_final.175","ward_source_Name":null,"ward_description":null,"ward_timestamp":null,"ward_begin":null,"ward_end":null,"ward_altitudeMode":null,"ward_tessellate":-1,"ward_extrude":0,"ward_visibility":-1,"ward_drawOrder":null,"ward_icon":null,"ward_Corporation":"West","ward_corporation_kn":"ಪಶ್ಚಿಮ","ward_corporation_id":"5","ward_ac":"Rajarajeshwarinagar","ward_ac_kn":"ರಾಜರಾಜೇಶ್ವರಿನಗರ","ward_ac_no":"154","ward_Assembly":"154 - Rajarajeshwarinagar","ward_id":"34","ward_name":"34 - Peenya","ward_name_kn":"ಪೀಣ್ಯ","ward_TOT_P":"26003.0","ward_TOT_M":"13620.0","ward_TOT_F":"12383.0","ward_SC_P":"4190.0","ward_SC_M":"2140.0","ward_SC_F":"2050.0","ward_ST_P":"986.0","ward_ST_M":"507.0","ward_ST_F":"479.0","ward_low_range":"18949","ward_high_range":"28424","ward_RO_Code":"10","ward_RO_Division":"RO- Peenya","ward_ARO_Code":"33","ward_ARO_ Sub Division":"ARO- Peenya","ward_zone":"Zone1","ward_zone_name":"Rajarajeshwarinagar","ward_join_status":"matched","ward_spatial_match_count":1},"geometry":{"type":"Point","coordinates":[77.53320100000008,13.033018900000059,0]},"id":40},{"type":"Feature","properties":{"fid":41,"OBJECTID":41,"Name":"Peenya Industry","FolderPath":"Bengaluru Metro Stations","SymbolID":0,"AltMode":-1,"Base":0,"Snippet":"","PopupInfo":"","HasLabel":-1,"LabelID":0,"ward_source_id":"ward_369_final.175","ward_source_Name":null,"ward_description":null,"ward_timestamp":null,"ward_begin":null,"ward_end":null,"ward_altitudeMode":null,"ward_tessellate":-1,"ward_extrude":0,"ward_visibility":-1,"ward_drawOrder":null,"ward_icon":null,"ward_Corporation":"West","ward_corporation_kn":"ಪಶ್ಚಿಮ","ward_corporation_id":"5","ward_ac":"Rajarajeshwarinagar","ward_ac_kn":"ರಾಜರಾಜೇಶ್ವರಿನಗರ","ward_ac_no":"154","ward_Assembly":"154 - Rajarajeshwarinagar","ward_id":"34","ward_name":"34 - Peenya","ward_name_kn":"ಪೀಣ್ಯ","ward_TOT_P":"26003.0","ward_TOT_M":"13620.0","ward_TOT_F":"12383.0","ward_SC_P":"4190.0","ward_SC_M":"2140.0","ward_SC_F":"2050.0","ward_ST_P":"986.0","ward_ST_M":"507.0","ward_ST_F":"479.0","ward_low_range":"18949","ward_high_range":"28424","ward_RO_Code":"10","ward_RO_Division":"RO- Peenya","ward_ARO_Code":"33","ward_ARO_ Sub Division":"ARO- Peenya","ward_zone":"Zone1","ward_zone_name":"Rajarajeshwarinagar","ward_join_status":"matched","ward_spatial_match_count":1},"geometry":{"type":"Point","coordinates":[77.52549240000008,13.036317600000075,0]},"id":41},{"type":"Feature","properties":{"fid":42,"OBJECTID":42,"Name":"Yelachenahalli","FolderPath":"Bengaluru Metro Stations","SymbolID":0,"AltMode":-1,"Base":0,"Snippet":"","PopupInfo":"","HasLabel":-1,"LabelID":0,"ward_source_id":"ward_369_final.64","ward_source_Name":null,"ward_description":null,"ward_timestamp":null,"ward_begin":null,"ward_end":null,"ward_altitudeMode":null,"ward_tessellate":-1,"ward_extrude":0,"ward_visibility":-1,"ward_drawOrder":null,"ward_icon":null,"ward_Corporation":"South","ward_corporation_kn":"ದಕ್ಷಿಣ","ward_corporation_id":"4","ward_ac":"Bangalore South","ward_ac_kn":"ಬೆಂಗಳೂರು ದಕ್ಷಿಣ","ward_ac_no":"176","ward_Assembly":"176 - Bangalore South","ward_id":"46","ward_name":"46 - Yelachenahalli","ward_name_kn":"ಯೆಲಚೇನಹಳ್ಳಿ","ward_TOT_P":"23953.0","ward_TOT_M":"12487.0","ward_TOT_F":"11466.0","ward_SC_P":"1040.0","ward_SC_M":"541.0","ward_SC_F":"499.0","ward_ST_P":"236.0","ward_ST_M":"121.0","ward_ST_F":"114.0","ward_low_range":"18594","ward_high_range":"27891","ward_RO_Code":"4","ward_RO_Division":"RO- Anjanapura","ward_ARO_Code":"10","ward_ARO_ Sub Division":"ARO- Yelachenahalli","ward_zone":"Zone1","ward_zone_name":"Jayanagar","ward_join_status":"matched","ward_spatial_match_count":1},"geometry":{"type":"Point","coordinates":[77.57011940000007,12.896049800000071,0]},"id":42},{"type":"Feature","properties":{"fid":43,"OBJECTID":43,"Name":"J P Nagar","FolderPath":"Bengaluru Metro Stations","SymbolID":0,"AltMode":-1,"Base":0,"Snippet":"","PopupInfo":"","HasLabel":-1,"LabelID":0,"ward_source_id":"ward_369_final.209","ward_source_Name":null,"ward_description":null,"ward_timestamp":null,"ward_begin":null,"ward_end":null,"ward_altitudeMode":null,"ward_tessellate":-1,"ward_extrude":0,"ward_visibility":-1,"ward_drawOrder":null,"ward_icon":null,"ward_Corporation":"South","ward_corporation_kn":"ದಕ್ಷಿಣ","ward_corporation_id":"4","ward_ac":"Jayanagar","ward_ac_kn":"ಜಯನಗರ","ward_ac_no":"173","ward_Assembly":"173 - Jayanagar","ward_id":"16","ward_name":"16 - Sarakki","ward_name_kn":"ಸಾರಕ್ಕಿ","ward_TOT_P":"23257.0","ward_TOT_M":"11949.0","ward_TOT_F":"11308.0","ward_SC_P":"1315.0","ward_SC_M":"643.0","ward_SC_F":"672.0","ward_ST_P":"495.0","ward_ST_M":"260.0","ward_ST_F":"235.0","ward_low_range":"18594","ward_high_range":"27891","ward_RO_Code":"10","ward_RO_Division":"RO- JP Nagar","ward_ARO_Code":"27","ward_ARO_ Sub Division":"ARO- Sarakki","ward_zone":"Zone1","ward_zone_name":"Jayanagar","ward_join_status":"matched","ward_spatial_match_count":1},"geometry":{"type":"Point","coordinates":[77.57312790000003,12.907474700000023,0]},"id":43},{"type":"Feature","properties":{"fid":44,"OBJECTID":44,"Name":"Banashankari","FolderPath":"Bengaluru Metro Stations","SymbolID":0,"AltMode":-1,"Base":0,"Snippet":"","PopupInfo":"","HasLabel":-1,"LabelID":0,"ward_source_id":"ward_369_final.74","ward_source_Name":null,"ward_description":null,"ward_timestamp":null,"ward_begin":null,"ward_end":null,"ward_altitudeMode":null,"ward_tessellate":-1,"ward_extrude":0,"ward_visibility":-1,"ward_drawOrder":null,"ward_icon":null,"ward_Corporation":"South","ward_corporation_kn":"ದಕ್ಷಿಣ","ward_corporation_id":"4","ward_ac":"Jayanagar","ward_ac_kn":"ಜಯನಗರ","ward_ac_no":"173","ward_Assembly":"173 - Jayanagar","ward_id":"15","ward_name":"15 - Shakambarinagara","ward_name_kn":"ಶಾಕಂಭರಿನಗರ","ward_TOT_P":"25845.0","ward_TOT_M":"13244.0","ward_TOT_F":"12600.0","ward_SC_P":"1060.0","ward_SC_M":"532.0","ward_SC_F":"527.0","ward_ST_P":"211.0","ward_ST_M":"102.0","ward_ST_F":"109.0","ward_low_range":"18594","ward_high_range":"27891","ward_RO_Code":"10","ward_RO_Division":"RO- JP Nagar","ward_ARO_Code":"27","ward_ARO_ Sub Division":"ARO- Sarakki","ward_zone":"Zone1","ward_zone_name":"Jayanagar","ward_join_status":"matched","ward_spatial_match_count":1},"geometry":{"type":"Point","coordinates":[77.57359800000006,12.915220800000043,0]},"id":44},{"type":"Feature","properties":{"fid":45,"OBJECTID":45,"Name":"Rashtriya Vidyalaya Road","FolderPath":"Bengaluru Metro Stations","SymbolID":0,"AltMode":-1,"Base":0,"Snippet":"","PopupInfo":"","HasLabel":-1,"LabelID":0,"ward_source_id":"ward_369_final.117","ward_source_Name":null,"ward_description":null,"ward_timestamp":null,"ward_begin":null,"ward_end":null,"ward_altitudeMode":null,"ward_tessellate":-1,"ward_extrude":0,"ward_visibility":-1,"ward_drawOrder":null,"ward_icon":null,"ward_Corporation":"South","ward_corporation_kn":"ದಕ್ಷಿಣ","ward_corporation_id":"4","ward_ac":"Jayanagar","ward_ac_kn":"ಜಯನಗರ","ward_ac_no":"173","ward_Assembly":"173 - Jayanagar","ward_id":"12","ward_name":"12 - Pattabhirama Nagara","ward_name_kn":"ಪಟ್ಟಾಭಿರಾಮ ನಗರ","ward_TOT_P":"22547.0","ward_TOT_M":"11236.0","ward_TOT_F":"11311.0","ward_SC_P":"634.0","ward_SC_M":"331.0","ward_SC_F":"302.0","ward_ST_P":"107.0","ward_ST_M":"53.0","ward_ST_F":"54.0","ward_low_range":"18594","ward_high_range":"27891","ward_RO_Code":"9","ward_RO_Division":"RO- Jayanagar","ward_ARO_Code":"24","ward_ARO_ Sub Division":"ARO- Jayanagar","ward_zone":"Zone1","ward_zone_name":"Jayanagar","ward_join_status":"matched","ward_spatial_match_count":1},"geometry":{"type":"Point","coordinates":[77.58022950000003,12.921325800000034,0]},"id":45},{"type":"Feature","properties":{"fid":46,"OBJECTID":46,"Name":"Jayanagar","FolderPath":"Bengaluru Metro Stations","SymbolID":0,"AltMode":-1,"Base":0,"Snippet":"","PopupInfo":"","HasLabel":-1,"LabelID":0,"ward_source_id":"ward_369_final.18","ward_source_Name":null,"ward_description":null,"ward_timestamp":null,"ward_begin":null,"ward_end":null,"ward_altitudeMode":null,"ward_tessellate":-1,"ward_extrude":0,"ward_visibility":-1,"ward_drawOrder":null,"ward_icon":null,"ward_Corporation":"South","ward_corporation_kn":"ದಕ್ಷಿಣ","ward_corporation_id":"4","ward_ac":"Jayanagar","ward_ac_kn":"ಜಯನಗರ","ward_ac_no":"173","ward_Assembly":"173 - Jayanagar","ward_id":"7","ward_name":"7 - Byrasandra","ward_name_kn":"ಬೈರಸಂದ್ರ","ward_TOT_P":"21108.0","ward_TOT_M":"10510.0","ward_TOT_F":"10598.0","ward_SC_P":"2813.0","ward_SC_M":"1399.0","ward_SC_F":"1414.0","ward_ST_P":"225.0","ward_ST_M":"109.0","ward_ST_F":"116.0","ward_low_range":"18594","ward_high_range":"27891","ward_RO_Code":"9","ward_RO_Division":"RO- Jayanagar","ward_ARO_Code":"23","ward_ARO_ Sub Division":"ARO- Byrasandra","ward_zone":"Zone1","ward_zone_name":"Jayanagar","ward_join_status":"matched","ward_spatial_match_count":1},"geometry":{"type":"Point","coordinates":[77.58014390000005,12.929506900000035,0]},"id":46},{"type":"Feature","properties":{"fid":47,"OBJECTID":47,"Name":"South End Circle","FolderPath":"Bengaluru Metro Stations","SymbolID":0,"AltMode":-1,"Base":0,"Snippet":"","PopupInfo":"","HasLabel":-1,"LabelID":0,"ward_source_id":"ward_369_final.285","ward_source_Name":null,"ward_description":null,"ward_timestamp":null,"ward_begin":null,"ward_end":null,"ward_altitudeMode":null,"ward_tessellate":-1,"ward_extrude":0,"ward_visibility":-1,"ward_drawOrder":null,"ward_icon":null,"ward_Corporation":"Central","ward_corporation_kn":"ಕೇಂದ್ರ","ward_corporation_id":"1","ward_ac":"Chickpet","ward_ac_kn":"ಚಿಕ್ಕಪೇಟೆ","ward_ac_no":"169","ward_Assembly":"169 - Chickpet","ward_id":"42","ward_name":"42 - Sunkenahalli","ward_name_kn":"ಸುಂಕೇನಹಳ್ಳಿ","ward_TOT_P":"21179.0","ward_TOT_M":"10743.0","ward_TOT_F":"10436.0","ward_SC_P":"273.0","ward_SC_M":"154.0","ward_SC_F":"119.0","ward_ST_P":"131.0","ward_ST_M":"65.0","ward_ST_F":"67.0","ward_low_range":"18853","ward_high_range":"28280","ward_RO_Code":"4","ward_RO_Division":"RO - Chickpet","ward_ARO_Code":"13","ward_ARO_ Sub Division":"ARO- V.V Puram","ward_zone":"Zone2","ward_zone_name":"Gandhinagara","ward_join_status":"matched","ward_spatial_match_count":1},"geometry":{"type":"Point","coordinates":[77.58005560000004,12.938257300000032,0]},"id":47},{"type":"Feature","properties":{"fid":48,"OBJECTID":48,"Name":"Lalbagh","FolderPath":"Bengaluru Metro Stations","SymbolID":0,"AltMode":-1,"Base":0,"Snippet":"","PopupInfo":"","HasLabel":-1,"LabelID":0,"ward_source_id":"ward_369_final.16","ward_source_Name":null,"ward_description":null,"ward_timestamp":null,"ward_begin":null,"ward_end":null,"ward_altitudeMode":null,"ward_tessellate":-1,"ward_extrude":0,"ward_visibility":-1,"ward_drawOrder":null,"ward_icon":null,"ward_Corporation":"Central","ward_corporation_kn":"ಕೇಂದ್ರ","ward_corporation_id":"1","ward_ac":"Chickpet","ward_ac_kn":"ಚಿಕ್ಕಪೇಟೆ","ward_ac_no":"169","ward_Assembly":"169 - Chickpet","ward_id":"41","ward_name":"41 - V.V Puram","ward_name_kn":"ವಿ.ವಿ. ಪುರಂ","ward_TOT_P":"19813.0","ward_TOT_M":"9965.0","ward_TOT_F":"9848.0","ward_SC_P":"1271.0","ward_SC_M":"615.0","ward_SC_F":"655.0","ward_ST_P":"481.0","ward_ST_M":"238.0","ward_ST_F":"243.0","ward_low_range":"18853","ward_high_range":"28280","ward_RO_Code":"4","ward_RO_Division":"RO - Chickpet","ward_ARO_Code":"13","ward_ARO_ Sub Division":"ARO- V.V Puram","ward_zone":"Zone2","ward_zone_name":"Gandhinagara","ward_join_status":"matched","ward_spatial_match_count":1},"geometry":{"type":"Point","coordinates":[77.58001600000006,12.946526500000061,0]},"id":48},{"type":"Feature","properties":{"fid":49,"OBJECTID":49,"Name":"National College","FolderPath":"Bengaluru Metro Stations","SymbolID":0,"AltMode":-1,"Base":0,"Snippet":"","PopupInfo":"","HasLabel":-1,"LabelID":0,"ward_source_id":"ward_369_final.285","ward_source_Name":null,"ward_description":null,"ward_timestamp":null,"ward_begin":null,"ward_end":null,"ward_altitudeMode":null,"ward_tessellate":-1,"ward_extrude":0,"ward_visibility":-1,"ward_drawOrder":null,"ward_icon":null,"ward_Corporation":"Central","ward_corporation_kn":"ಕೇಂದ್ರ","ward_corporation_id":"1","ward_ac":"Chickpet","ward_ac_kn":"ಚಿಕ್ಕಪೇಟೆ","ward_ac_no":"169","ward_Assembly":"169 - Chickpet","ward_id":"42","ward_name":"42 - Sunkenahalli","ward_name_kn":"ಸುಂಕೇನಹಳ್ಳಿ","ward_TOT_P":"21179.0","ward_TOT_M":"10743.0","ward_TOT_F":"10436.0","ward_SC_P":"273.0","ward_SC_M":"154.0","ward_SC_F":"119.0","ward_ST_P":"131.0","ward_ST_M":"65.0","ward_ST_F":"67.0","ward_low_range":"18853","ward_high_range":"28280","ward_RO_Code":"4","ward_RO_Division":"RO - Chickpet","ward_ARO_Code":"13","ward_ARO_ Sub Division":"ARO- V.V Puram","ward_zone":"Zone2","ward_zone_name":"Gandhinagara","ward_join_status":"matched","ward_spatial_match_count":1},"geometry":{"type":"Point","coordinates":[77.57367940000006,12.950516100000073,0]},"id":49},{"type":"Feature","properties":{"fid":50,"OBJECTID":50,"Name":"Krishna Rajendra Market","FolderPath":"Bengaluru Metro Stations","SymbolID":0,"AltMode":-1,"Base":0,"Snippet":"","PopupInfo":"","HasLabel":-1,"LabelID":0,"ward_source_id":"ward_369_final.270","ward_source_Name":null,"ward_description":null,"ward_timestamp":null,"ward_begin":null,"ward_end":null,"ward_altitudeMode":null,"ward_tessellate":-1,"ward_extrude":0,"ward_visibility":-1,"ward_drawOrder":null,"ward_icon":null,"ward_Corporation":"Central","ward_corporation_kn":"ಕೇಂದ್ರ","ward_corporation_id":"1","ward_ac":"Chamrajapet","ward_ac_kn":"ಚಾಮರಾಜಪೇಟೆ","ward_ac_no":"168","ward_Assembly":"168 - Chamrajapet","ward_id":"45","ward_name":"45 - K.R Market","ward_name_kn":"ಕೆ.ಆರ್. ಮಾರುಕಟ್ಟೆ","ward_TOT_P":"22413.0","ward_TOT_M":"11685.0","ward_TOT_F":"10728.0","ward_SC_P":"4963.0","ward_SC_M":"2481.0","ward_SC_F":"2482.0","ward_ST_P":"251.0","ward_ST_M":"119.0","ward_ST_F":"133.0","ward_low_range":"18853","ward_high_range":"28280","ward_RO_Code":"3","ward_RO_Division":"RO - Chamrajapet","ward_ARO_Code":"7","ward_ARO_ Sub Division":"ARO- Chamarajpet","ward_zone":"Zone2","ward_zone_name":"Gandhinagara","ward_join_status":"matched","ward_spatial_match_count":1},"geometry":{"type":"Point","coordinates":[77.57465780000007,12.960878800000046,0]},"id":50},{"type":"Feature","properties":{"fid":51,"OBJECTID":51,"Name":"Chikkapete","FolderPath":"Bengaluru Metro Stations","SymbolID":0,"AltMode":-1,"Base":0,"Snippet":"","PopupInfo":"","HasLabel":-1,"LabelID":0,"ward_source_id":"ward_369_final.270","ward_source_Name":null,"ward_description":null,"ward_timestamp":null,"ward_begin":null,"ward_end":null,"ward_altitudeMode":null,"ward_tessellate":-1,"ward_extrude":0,"ward_visibility":-1,"ward_drawOrder":null,"ward_icon":null,"ward_Corporation":"Central","ward_corporation_kn":"ಕೇಂದ್ರ","ward_corporation_id":"1","ward_ac":"Chamrajapet","ward_ac_kn":"ಚಾಮರಾಜಪೇಟೆ","ward_ac_no":"168","ward_Assembly":"168 - Chamrajapet","ward_id":"45","ward_name":"45 - K.R Market","ward_name_kn":"ಕೆ.ಆರ್. ಮಾರುಕಟ್ಟೆ","ward_TOT_P":"22413.0","ward_TOT_M":"11685.0","ward_TOT_F":"10728.0","ward_SC_P":"4963.0","ward_SC_M":"2481.0","ward_SC_F":"2482.0","ward_ST_P":"251.0","ward_ST_M":"119.0","ward_ST_F":"133.0","ward_low_range":"18853","ward_high_range":"28280","ward_RO_Code":"3","ward_RO_Division":"RO - Chamrajapet","ward_ARO_Code":"7","ward_ARO_ Sub Division":"ARO- Chamarajpet","ward_zone":"Zone2","ward_zone_name":"Gandhinagara","ward_join_status":"matched","ward_spatial_match_count":1},"geometry":{"type":"Point","coordinates":[77.57456630000007,12.966893500000026,0]},"id":51},{"type":"Feature","properties":{"fid":52,"OBJECTID":52,"Name":"Jnana Bharathi","FolderPath":"Bengaluru Metro Stations","SymbolID":0,"AltMode":-1,"Base":0,"Snippet":"","PopupInfo":"","HasLabel":-1,"LabelID":0,"ward_source_id":"ward_369_final.304","ward_source_Name":null,"ward_description":null,"ward_timestamp":null,"ward_begin":null,"ward_end":null,"ward_altitudeMode":null,"ward_tessellate":-1,"ward_extrude":0,"ward_visibility":-1,"ward_drawOrder":null,"ward_icon":null,"ward_Corporation":"West","ward_corporation_kn":"ಪಶ್ಚಿಮ","ward_corporation_id":"5","ward_ac":"Rajarajeshwarinagar","ward_ac_kn":"ರಾಜರಾಜೇಶ್ವರಿನಗರ","ward_ac_no":"154","ward_Assembly":"154 - Rajarajeshwarinagar","ward_id":"24","ward_name":"24 - Jnana Bharathi Ward","ward_name_kn":"ಜ್ಞಾನ ಭಾರತಿ ವಾರ್ಡ್","ward_TOT_P":"20533.0","ward_TOT_M":"10816.0","ward_TOT_F":"9717.0","ward_SC_P":"2181.0","ward_SC_M":"1121.0","ward_SC_F":"1060.0","ward_ST_P":"434.0","ward_ST_M":"240.0","ward_ST_F":"194.0","ward_low_range":"18949","ward_high_range":"28424","ward_RO_Code":"11","ward_RO_Division":"RO- Rajarajeswari Nagara","ward_ARO_Code":"34","ward_ARO_ Sub Division":"ARO- Jnana Bharathi","ward_zone":"Zone1","ward_zone_name":"Rajarajeshwarinagar","ward_join_status":"matched","ward_spatial_match_count":1},"geometry":{"type":"Point","coordinates":[77.51240630000007,12.935435700000028,0]},"id":52},{"type":"Feature","properties":{"fid":53,"OBJECTID":53,"Name":"Nayandahalli","FolderPath":"Bengaluru Metro Stations","SymbolID":0,"AltMode":-1,"Base":0,"Snippet":"","PopupInfo":"","HasLabel":-1,"LabelID":0,"ward_source_id":"ward_369_final.62","ward_source_Name":null,"ward_description":null,"ward_timestamp":null,"ward_begin":null,"ward_end":null,"ward_altitudeMode":null,"ward_tessellate":-1,"ward_extrude":0,"ward_visibility":-1,"ward_drawOrder":null,"ward_icon":null,"ward_Corporation":"West","ward_corporation_kn":"ಪಶ್ಚಿಮ","ward_corporation_id":"5","ward_ac":"Rajarajeshwarinagar","ward_ac_kn":"ರಾಜರಾಜೇಶ್ವರಿನಗರ","ward_ac_no":"154","ward_Assembly":"154 - Rajarajeshwarinagar","ward_id":"22","ward_name":"22 - Bangarappa Nagara","ward_name_kn":"ಬಂಗಾರಪ್ಪ ನಗರ","ward_TOT_P":"28414.0","ward_TOT_M":"14846.0","ward_TOT_F":"13669.0","ward_SC_P":"2140.0","ward_SC_M":"1088.0","ward_SC_F":"1052.0","ward_ST_P":"836.0","ward_ST_M":"430.0","ward_ST_F":"406.0","ward_low_range":"18949","ward_high_range":"28424","ward_RO_Code":"11","ward_RO_Division":"RO- Rajarajeswari Nagara","ward_ARO_Code":"35","ward_ARO_ Sub Division":"ARO- Rajarajeswari Nagara","ward_zone":"Zone1","ward_zone_name":"Rajarajeshwarinagar","ward_join_status":"matched","ward_spatial_match_count":1},"geometry":{"type":"Point","coordinates":[77.52511660000005,12.94167150000004,0]},"id":53},{"type":"Feature","properties":{"fid":54,"OBJECTID":54,"Name":"Kengeri Bus Terminal","FolderPath":"Bengaluru Metro Stations","SymbolID":0,"AltMode":-1,"Base":0,"Snippet":"","PopupInfo":"","HasLabel":-1,"LabelID":0,"ward_source_id":"ward_369_final.290","ward_source_Name":null,"ward_description":null,"ward_timestamp":null,"ward_begin":null,"ward_end":null,"ward_altitudeMode":null,"ward_tessellate":-1,"ward_extrude":0,"ward_visibility":-1,"ward_drawOrder":null,"ward_icon":null,"ward_Corporation":"West","ward_corporation_kn":"ಪಶ್ಚಿಮ","ward_corporation_id":"5","ward_ac":"Yeshwanthapura","ward_ac_kn":"ಯಶವಂತಪುರ","ward_ac_no":"153","ward_Assembly":"153 - Yeshwanthapura","ward_id":"21","ward_name":"21 - Kengeri","ward_name_kn":"ಕೆಂಗೇರಿ","ward_TOT_P":"21835.0","ward_TOT_M":"11253.0","ward_TOT_F":"10582.0","ward_SC_P":"2478.0","ward_SC_M":"1266.0","ward_SC_F":"1212.0","ward_ST_P":"371.0","ward_ST_M":"210.0","ward_ST_F":"161.0","ward_low_range":"18949","ward_high_range":"28424","ward_RO_Code":"15","ward_RO_Division":"RO- Kengeri","ward_ARO_Code":"44","ward_ARO_ Sub Division":"ARO- Kengeri","ward_zone":"Zone1","ward_zone_name":"Rajarajeshwarinagar","ward_join_status":"matched","ward_spatial_match_count":1},"geometry":{"type":"Point","coordinates":[77.48785570000007,12.914689000000067,0]},"id":54},{"type":"Feature","properties":{"fid":55,"OBJECTID":55,"Name":"Kengeri","FolderPath":"Bengaluru Metro Stations","SymbolID":0,"AltMode":-1,"Base":0,"Snippet":"","PopupInfo":"","HasLabel":-1,"LabelID":0,"ward_source_id":"ward_369_final.22","ward_source_Name":null,"ward_description":null,"ward_timestamp":null,"ward_begin":null,"ward_end":null,"ward_altitudeMode":null,"ward_tessellate":-1,"ward_extrude":0,"ward_visibility":-1,"ward_drawOrder":null,"ward_icon":null,"ward_Corporation":"West","ward_corporation_kn":"ಪಶ್ಚಿಮ","ward_corporation_id":"5","ward_ac":"Yeshwanthapura","ward_ac_kn":"ಯಶವಂತಪುರ","ward_ac_no":"153","ward_Assembly":"153 - Yeshwanthapura","ward_id":"20","ward_name":"20 - Kengeri Kote ward","ward_name_kn":"ಕೆಂಗೇರಿ ಕೋಟೆ ವಾರ್ಡ್","ward_TOT_P":"19339.0","ward_TOT_M":"9841.0","ward_TOT_F":"9499.0","ward_SC_P":"2048.0","ward_SC_M":"968.0","ward_SC_F":"1081.0","ward_ST_P":"336.0","ward_ST_M":"170.0","ward_ST_F":"166.0","ward_low_range":"18949","ward_high_range":"28424","ward_RO_Code":"15","ward_RO_Division":"RO- Kengeri","ward_ARO_Code":"43","ward_ARO_ Sub Division":"ARO- Hemmigepura","ward_zone":"Zone1","ward_zone_name":"Rajarajeshwarinagar","ward_join_status":"matched","ward_spatial_match_count":1},"geometry":{"type":"Point","coordinates":[77.47657840000005,12.907910500000071,0]},"id":55},{"type":"Feature","properties":{"fid":56,"OBJECTID":56,"Name":"Rajarajeshwari Nagar","FolderPath":"Bengaluru Metro Stations","SymbolID":0,"AltMode":-1,"Base":0,"Snippet":"","PopupInfo":"","HasLabel":-1,"LabelID":0,"ward_source_id":"ward_369_final.62","ward_source_Name":null,"ward_description":null,"ward_timestamp":null,"ward_begin":null,"ward_end":null,"ward_altitudeMode":null,"ward_tessellate":-1,"ward_extrude":0,"ward_visibility":-1,"ward_drawOrder":null,"ward_icon":null,"ward_Corporation":"West","ward_corporation_kn":"ಪಶ್ಚಿಮ","ward_corporation_id":"5","ward_ac":"Rajarajeshwarinagar","ward_ac_kn":"ರಾಜರಾಜೇಶ್ವರಿನಗರ","ward_ac_no":"154","ward_Assembly":"154 - Rajarajeshwarinagar","ward_id":"22","ward_name":"22 - Bangarappa Nagara","ward_name_kn":"ಬಂಗಾರಪ್ಪ ನಗರ","ward_TOT_P":"28414.0","ward_TOT_M":"14846.0","ward_TOT_F":"13669.0","ward_SC_P":"2140.0","ward_SC_M":"1088.0","ward_SC_F":"1052.0","ward_ST_P":"836.0","ward_ST_M":"430.0","ward_ST_F":"406.0","ward_low_range":"18949","ward_high_range":"28424","ward_RO_Code":"11","ward_RO_Division":"RO- Rajarajeswari Nagara","ward_ARO_Code":"35","ward_ARO_ Sub Division":"ARO- Rajarajeswari Nagara","ward_zone":"Zone1","ward_zone_name":"Rajarajeshwarinagar","ward_join_status":"matched","ward_spatial_match_count":1},"geometry":{"type":"Point","coordinates":[77.51967880000007,12.936599600000022,0]},"id":56},{"type":"Feature","properties":{"fid":57,"OBJECTID":57,"Name":"Pattanagere","FolderPath":"Bengaluru Metro Stations","SymbolID":0,"AltMode":-1,"Base":0,"Snippet":"","PopupInfo":"","HasLabel":-1,"LabelID":0,"ward_source_id":"ward_369_final.290","ward_source_Name":null,"ward_description":null,"ward_timestamp":null,"ward_begin":null,"ward_end":null,"ward_altitudeMode":null,"ward_tessellate":-1,"ward_extrude":0,"ward_visibility":-1,"ward_drawOrder":null,"ward_icon":null,"ward_Corporation":"West","ward_corporation_kn":"ಪಶ್ಚಿಮ","ward_corporation_id":"5","ward_ac":"Yeshwanthapura","ward_ac_kn":"ಯಶವಂತಪುರ","ward_ac_no":"153","ward_Assembly":"153 - Yeshwanthapura","ward_id":"21","ward_name":"21 - Kengeri","ward_name_kn":"ಕೆಂಗೇರಿ","ward_TOT_P":"21835.0","ward_TOT_M":"11253.0","ward_TOT_F":"10582.0","ward_SC_P":"2478.0","ward_SC_M":"1266.0","ward_SC_F":"1212.0","ward_ST_P":"371.0","ward_ST_M":"210.0","ward_ST_F":"161.0","ward_low_range":"18949","ward_high_range":"28424","ward_RO_Code":"15","ward_RO_Division":"RO- Kengeri","ward_ARO_Code":"44","ward_ARO_ Sub Division":"ARO- Kengeri","ward_zone":"Zone1","ward_zone_name":"Rajarajeshwarinagar","ward_join_status":"matched","ward_spatial_match_count":1},"geometry":{"type":"Point","coordinates":[77.49835090000005,12.924250500000028,0]},"id":57},{"type":"Feature","properties":{"fid":58,"OBJECTID":58,"Name":"Silk Institute","FolderPath":"Bengaluru Metro Stations","SymbolID":0,"AltMode":-1,"Base":0,"Snippet":"","PopupInfo":"","HasLabel":-1,"LabelID":0,"ward_source_id":"ward_369_final.47","ward_source_Name":null,"ward_description":null,"ward_timestamp":null,"ward_begin":null,"ward_end":null,"ward_altitudeMode":null,"ward_tessellate":-1,"ward_extrude":0,"ward_visibility":-1,"ward_drawOrder":null,"ward_icon":null,"ward_Corporation":"South","ward_corporation_kn":"ದಕ್ಷಿಣ","ward_corporation_id":"4","ward_ac":"Yeshwanthapura","ward_ac_kn":"ಯಶವಂತಪುರ","ward_ac_no":"153","ward_Assembly":"153 - Yeshwanthapura","ward_id":"52","ward_name":"52 - Talagattapura","ward_name_kn":"ತಲಘಟ್ಟಪುರ","ward_TOT_P":"23797.0","ward_TOT_M":"11887.0","ward_TOT_F":"10620.0","ward_SC_P":"3135.0","ward_SC_M":"1606.0","ward_SC_F":"1529.0","ward_ST_P":"401.0","ward_ST_M":"212.0","ward_ST_F":"189.0","ward_low_range":"18594","ward_high_range":"27891","ward_RO_Code":"4","ward_RO_Division":"RO- Anjanapura","ward_ARO_Code":"7","ward_ARO_ Sub Division":"ARO- Anjanapura","ward_zone":"Zone1","ward_zone_name":"Jayanagar","ward_join_status":"matched","ward_spatial_match_count":1},"geometry":{"type":"Point","coordinates":[77.52995450000003,12.861729800000035,0]},"id":58},{"type":"Feature","properties":{"fid":59,"OBJECTID":59,"Name":"Thalaghattapura","FolderPath":"Bengaluru Metro Stations","SymbolID":0,"AltMode":-1,"Base":0,"Snippet":"","PopupInfo":"","HasLabel":-1,"LabelID":0,"ward_source_id":"ward_369_final.47","ward_source_Name":null,"ward_description":null,"ward_timestamp":null,"ward_begin":null,"ward_end":null,"ward_altitudeMode":null,"ward_tessellate":-1,"ward_extrude":0,"ward_visibility":-1,"ward_drawOrder":null,"ward_icon":null,"ward_Corporation":"South","ward_corporation_kn":"ದಕ್ಷಿಣ","ward_corporation_id":"4","ward_ac":"Yeshwanthapura","ward_ac_kn":"ಯಶವಂತಪುರ","ward_ac_no":"153","ward_Assembly":"153 - Yeshwanthapura","ward_id":"52","ward_name":"52 - Talagattapura","ward_name_kn":"ತಲಘಟ್ಟಪುರ","ward_TOT_P":"23797.0","ward_TOT_M":"11887.0","ward_TOT_F":"10620.0","ward_SC_P":"3135.0","ward_SC_M":"1606.0","ward_SC_F":"1529.0","ward_ST_P":"401.0","ward_ST_M":"212.0","ward_ST_F":"189.0","ward_low_range":"18594","ward_high_range":"27891","ward_RO_Code":"4","ward_RO_Division":"RO- Anjanapura","ward_ARO_Code":"7","ward_ARO_ Sub Division":"ARO- Anjanapura","ward_zone":"Zone1","ward_zone_name":"Jayanagar","ward_join_status":"matched","ward_spatial_match_count":1},"geometry":{"type":"Point","coordinates":[77.53839580000005,12.871409700000072,0]},"id":59},{"type":"Feature","properties":{"fid":60,"OBJECTID":60,"Name":"Vajarahalli","FolderPath":"Bengaluru Metro Stations","SymbolID":0,"AltMode":-1,"Base":0,"Snippet":"","PopupInfo":"","HasLabel":-1,"LabelID":0,"ward_source_id":"ward_369_final.47","ward_source_Name":null,"ward_description":null,"ward_timestamp":null,"ward_begin":null,"ward_end":null,"ward_altitudeMode":null,"ward_tessellate":-1,"ward_extrude":0,"ward_visibility":-1,"ward_drawOrder":null,"ward_icon":null,"ward_Corporation":"South","ward_corporation_kn":"ದಕ್ಷಿಣ","ward_corporation_id":"4","ward_ac":"Yeshwanthapura","ward_ac_kn":"ಯಶವಂತಪುರ","ward_ac_no":"153","ward_Assembly":"153 - Yeshwanthapura","ward_id":"52","ward_name":"52 - Talagattapura","ward_name_kn":"ತಲಘಟ್ಟಪುರ","ward_TOT_P":"23797.0","ward_TOT_M":"11887.0","ward_TOT_F":"10620.0","ward_SC_P":"3135.0","ward_SC_M":"1606.0","ward_SC_F":"1529.0","ward_ST_P":"401.0","ward_ST_M":"212.0","ward_ST_F":"189.0","ward_low_range":"18594","ward_high_range":"27891","ward_RO_Code":"4","ward_RO_Division":"RO- Anjanapura","ward_ARO_Code":"7","ward_ARO_ Sub Division":"ARO- Anjanapura","ward_zone":"Zone1","ward_zone_name":"Jayanagar","ward_join_status":"matched","ward_spatial_match_count":1},"geometry":{"type":"Point","coordinates":[77.54474140000008,12.877436900000077,0]},"id":60},{"type":"Feature","properties":{"fid":61,"OBJECTID":61,"Name":"Doddakallasandra","FolderPath":"Bengaluru Metro Stations","SymbolID":0,"AltMode":-1,"Base":0,"Snippet":"","PopupInfo":"","HasLabel":-1,"LabelID":0,"ward_source_id":"ward_369_final.106","ward_source_Name":null,"ward_description":null,"ward_timestamp":null,"ward_begin":null,"ward_end":null,"ward_altitudeMode":null,"ward_tessellate":-1,"ward_extrude":0,"ward_visibility":-1,"ward_drawOrder":null,"ward_icon":null,"ward_Corporation":"South","ward_corporation_kn":"ದಕ್ಷಿಣ","ward_corporation_id":"4","ward_ac":"Bangalore South","ward_ac_kn":"ಬೆಂಗಳೂರು ದಕ್ಷಿಣ","ward_ac_no":"176","ward_Assembly":"176 - Bangalore South","ward_id":"48","ward_name":"48 - Vasanthapura","ward_name_kn":"ವಸಂತಪುರ","ward_TOT_P":"22830.0","ward_TOT_M":"11987.0","ward_TOT_F":"10843.0","ward_SC_P":"2972.0","ward_SC_M":"1544.0","ward_SC_F":"1428.0","ward_ST_P":"499.0","ward_ST_M":"264.0","ward_ST_F":"236.0","ward_low_range":"18594","ward_high_range":"27891","ward_RO_Code":"4","ward_RO_Division":"RO- Anjanapura","ward_ARO_Code":"8","ward_ARO_ Sub Division":"ARO- Konanakunte","ward_zone":"Zone1","ward_zone_name":"Jayanagar","ward_join_status":"matched","ward_spatial_match_count":1},"geometry":{"type":"Point","coordinates":[77.55275460000007,12.884643500000038,0]},"id":61},{"type":"Feature","properties":{"fid":62,"OBJECTID":62,"Name":"Konanakunte Cross","FolderPath":"Bengaluru Metro Stations","SymbolID":0,"AltMode":-1,"Base":0,"Snippet":"","PopupInfo":"","HasLabel":-1,"LabelID":0,"ward_source_id":"ward_369_final.106","ward_source_Name":null,"ward_description":null,"ward_timestamp":null,"ward_begin":null,"ward_end":null,"ward_altitudeMode":null,"ward_tessellate":-1,"ward_extrude":0,"ward_visibility":-1,"ward_drawOrder":null,"ward_icon":null,"ward_Corporation":"South","ward_corporation_kn":"ದಕ್ಷಿಣ","ward_corporation_id":"4","ward_ac":"Bangalore South","ward_ac_kn":"ಬೆಂಗಳೂರು ದಕ್ಷಿಣ","ward_ac_no":"176","ward_Assembly":"176 - Bangalore South","ward_id":"48","ward_name":"48 - Vasanthapura","ward_name_kn":"ವಸಂತಪುರ","ward_TOT_P":"22830.0","ward_TOT_M":"11987.0","ward_TOT_F":"10843.0","ward_SC_P":"2972.0","ward_SC_M":"1544.0","ward_SC_F":"1428.0","ward_ST_P":"499.0","ward_ST_M":"264.0","ward_ST_F":"236.0","ward_low_range":"18594","ward_high_range":"27891","ward_RO_Code":"4","ward_RO_Division":"RO- Anjanapura","ward_ARO_Code":"8","ward_ARO_ Sub Division":"ARO- Konanakunte","ward_zone":"Zone1","ward_zone_name":"Jayanagar","ward_join_status":"matched","ward_spatial_match_count":1},"geometry":{"type":"Point","coordinates":[77.56266650000003,12.888967100000059,0]},"id":62},{"type":"Feature","properties":{"fid":63,"OBJECTID":63,"Name":"Yeshwanthapura","FolderPath":"Bengaluru Metro Stations","SymbolID":0,"AltMode":-1,"Base":0,"Snippet":"","PopupInfo":"","HasLabel":-1,"LabelID":0,"ward_source_id":"ward_369_final.58","ward_source_Name":null,"ward_description":null,"ward_timestamp":null,"ward_begin":null,"ward_end":null,"ward_altitudeMode":null,"ward_tessellate":-1,"ward_extrude":0,"ward_visibility":-1,"ward_drawOrder":null,"ward_icon":null,"ward_Corporation":"West","ward_corporation_kn":"ಪಶ್ಚಿಮ","ward_corporation_id":"5","ward_ac":"Rajarajeshwarinagar","ward_ac_kn":"ರಾಜರಾಜೇಶ್ವರಿನಗರ","ward_ac_no":"154","ward_Assembly":"154 - Rajarajeshwarinagar","ward_id":"35","ward_name":"35 - Goraguntepalya","ward_name_kn":"ಗೋರಗುಂಟೆಪಾಳ್ಯ","ward_TOT_P":"21462.0","ward_TOT_M":"11354.0","ward_TOT_F":"10108.0","ward_SC_P":"4874.0","ward_SC_M":"2455.0","ward_SC_F":"2420.0","ward_ST_P":"823.0","ward_ST_M":"440.0","ward_ST_F":"383.0","ward_low_range":"18949","ward_high_range":"28424","ward_RO_Code":"10","ward_RO_Division":"RO- Peenya","ward_ARO_Code":"33","ward_ARO_ Sub Division":"ARO- Peenya","ward_zone":"Zone1","ward_zone_name":"Rajarajeshwarinagar","ward_join_status":"matched","ward_spatial_match_count":1},"geometry":{"type":"Point","coordinates":[77.54989341000004,13.023272889000054,0]},"id":63}]}
