{"type":"FeatureCollection","name":"Bengaluru_Master — Bengaluru_Urban_Railway_Police_Stations_Map","crs":{"type":"name","properties":{"name":"urn:ogc:def:crs:OGC:1.3:CRS84"}},"features":[{"type":"Feature","properties":{"fid":1,"OBJECTID":1,"Name":"Placemark","FolderPath":"Document/blr_railway_police_locs","SymbolID":0,"AltMode":-1,"Base":0,"Snippet":"搬","PopupInfo":"","HasLabel":-1,"LabelID":0,"ward_source_id":"ward_369_final.366","ward_source_Name":null,"ward_description":null,"ward_timestamp":null,"ward_begin":null,"ward_end":null,"ward_altitudeMode":null,"ward_tessellate":-1,"ward_extrude":0,"ward_visibility":-1,"ward_drawOrder":null,"ward_icon":null,"ward_Corporation":"Central","ward_corporation_kn":"ಕೇಂದ್ರ","ward_corporation_id":"1","ward_ac":"Gandhinagara","ward_ac_kn":"ಗಾಂಧಿನಗರ","ward_ac_no":"164","ward_Assembly":"164 - Gandhinagara","ward_id":"57","ward_name":"57 - Cottonpete","ward_name_kn":"ಕಾಟನ್‌ಪೇಟೆ","ward_TOT_P":"27147.0","ward_TOT_M":"14426.0","ward_TOT_F":"12720.0","ward_SC_P":"871.0","ward_SC_M":"436.0","ward_SC_F":"435.0","ward_ST_P":"193.0","ward_ST_M":"108.0","ward_ST_F":"85.0","ward_low_range":"18853","ward_high_range":"28280","ward_RO_Code":"5","ward_RO_Division":"RO - Gandhinagara","ward_ARO_Code":"15","ward_ARO_ Sub Division":"ARO- Chickpete","ward_zone":"Zone2","ward_zone_name":"Gandhinagara","ward_join_status":"matched","ward_spatial_match_count":1},"geometry":{"type":"Point","coordinates":[77.56917200000004,12.977127000000053,0]},"id":1},{"type":"Feature","properties":{"fid":2,"OBJECTID":2,"Name":"Placemark","FolderPath":"Document/blr_railway_police_locs","SymbolID":0,"AltMode":-1,"Base":0,"Snippet":"","PopupInfo":"","HasLabel":-1,"LabelID":0,"ward_source_id":"ward_369_final.366","ward_source_Name":null,"ward_description":null,"ward_timestamp":null,"ward_begin":null,"ward_end":null,"ward_altitudeMode":null,"ward_tessellate":-1,"ward_extrude":0,"ward_visibility":-1,"ward_drawOrder":null,"ward_icon":null,"ward_Corporation":"Central","ward_corporation_kn":"ಕೇಂದ್ರ","ward_corporation_id":"1","ward_ac":"Gandhinagara","ward_ac_kn":"ಗಾಂಧಿನಗರ","ward_ac_no":"164","ward_Assembly":"164 - Gandhinagara","ward_id":"57","ward_name":"57 - Cottonpete","ward_name_kn":"ಕಾಟನ್‌ಪೇಟೆ","ward_TOT_P":"27147.0","ward_TOT_M":"14426.0","ward_TOT_F":"12720.0","ward_SC_P":"871.0","ward_SC_M":"436.0","ward_SC_F":"435.0","ward_ST_P":"193.0","ward_ST_M":"108.0","ward_ST_F":"85.0","ward_low_range":"18853","ward_high_range":"28280","ward_RO_Code":"5","ward_RO_Division":"RO - Gandhinagara","ward_ARO_Code":"15","ward_ARO_ Sub Division":"ARO- Chickpete","ward_zone":"Zone2","ward_zone_name":"Gandhinagara","ward_join_status":"matched","ward_spatial_match_count":1},"geometry":{"type":"Point","coordinates":[77.56951000000004,12.979411000000027,0]},"id":2},{"type":"Feature","properties":{"fid":3,"OBJECTID":3,"Name":"Placemark","FolderPath":"Document/blr_railway_police_locs","SymbolID":0,"AltMode":-1,"Base":0,"Snippet":"","PopupInfo":"","HasLabel":-1,"LabelID":0,"ward_source_id":"ward_369_final.306","ward_source_Name":null,"ward_description":null,"ward_timestamp":null,"ward_begin":null,"ward_end":null,"ward_altitudeMode":null,"ward_tessellate":-1,"ward_extrude":0,"ward_visibility":-1,"ward_drawOrder":null,"ward_icon":null,"ward_Corporation":"Central","ward_corporation_kn":"ಕೇಂದ್ರ","ward_corporation_id":"1","ward_ac":"Shivajinagar","ward_ac_kn":"ಶಿವಾಜಿನಗರ","ward_ac_no":"162","ward_Assembly":"162 - Shivajinagar","ward_id":"2","ward_name":"2 - Jayamahal","ward_name_kn":"ಜಯಮಹಲ್","ward_TOT_P":"25834.0","ward_TOT_M":"12803.0","ward_TOT_F":"12981.0","ward_SC_P":"7101.0","ward_SC_M":"3525.0","ward_SC_F":"3575.0","ward_ST_P":"243.0","ward_ST_M":"133.0","ward_ST_F":"111.0","ward_low_range":"18853","ward_high_range":"28280","ward_RO_Code":"7","ward_RO_Division":"RO- Shivajinagar","ward_ARO_Code":"23","ward_ARO_ Sub Division":"ARO- Shivajinagar","ward_zone":"Zone2","ward_zone_name":"Gandhinagara","ward_join_status":"matched","ward_spatial_match_count":1},"geometry":{"type":"Point","coordinates":[77.59787900000003,12.993746000000044,0]},"id":3},{"type":"Feature","properties":{"fid":4,"OBJECTID":4,"Name":"Placemark","FolderPath":"Document/blr_railway_police_locs","SymbolID":0,"AltMode":-1,"Base":0,"Snippet":"","PopupInfo":"","HasLabel":-1,"LabelID":0,"ward_source_id":"ward_369_final.67","ward_source_Name":null,"ward_description":null,"ward_timestamp":null,"ward_begin":null,"ward_end":null,"ward_altitudeMode":null,"ward_tessellate":-1,"ward_extrude":0,"ward_visibility":-1,"ward_drawOrder":null,"ward_icon":null,"ward_Corporation":"Central","ward_corporation_kn":"ಕೇಂದ್ರ","ward_corporation_id":"1","ward_ac":"C.V. Raman Nagar","ward_ac_kn":"ಸಿ.ವಿ. ರಾಮನ್ ನಗರ","ward_ac_no":"161","ward_Assembly":"161 - C.V. Raman Nagar","ward_id":"11","ward_name":"11 - Old Baiyappanahalli","ward_name_kn":"ಹಳೆ ಬೈಯಪ್ಪನಹಳ್ಳಿ","ward_TOT_P":"18858.0","ward_TOT_M":"9572.0","ward_TOT_F":"9126.0","ward_SC_P":"9696.0","ward_SC_M":"4922.0","ward_SC_F":"4775.0","ward_ST_P":"336.0","ward_ST_M":"179.0","ward_ST_F":"157.0","ward_low_range":"18853","ward_high_range":"28280","ward_RO_Code":"1","ward_RO_Division":"RO- Indiranagar","ward_ARO_Code":"2","ward_ARO_ Sub Division":"ARO- Kasturi Nagar","ward_zone":"Zone1","ward_zone_name":"C.V. Raman Nagar","ward_join_status":"matched","ward_spatial_match_count":1},"geometry":{"type":"Point","coordinates":[77.64357100000007,12.99160900000004,0]},"id":4}]}
