{"type":"FeatureCollection","name":"Bengaluru_Master — Flood_Prone_Locations_Map","crs":{"type":"name","properties":{"name":"urn:ogc:def:crs:OGC:1.3:CRS84"}},"features":[{"type":"Feature","properties":{"fid":1,"OBJECTID":1,"Name":"Bhadrappa layout","FolderPath":"Document/flood_prone_locations","SymbolID":0,"AltMode":-1,"Base":0,"Snippet":"砬","PopupInfo":"祌","HasLabel":-1,"LabelID":0,"ward_source_id":"ward_369_final.146","ward_source_Name":null,"ward_description":null,"ward_timestamp":null,"ward_begin":null,"ward_end":null,"ward_altitudeMode":null,"ward_tessellate":-1,"ward_extrude":0,"ward_visibility":-1,"ward_drawOrder":null,"ward_icon":null,"ward_Corporation":"North","ward_corporation_kn":"ಉತ್ತರ","ward_corporation_id":"2","ward_ac":"Byatarayanapura","ward_ac_kn":"ಬ್ಯಾಟರಾಯನಪುರ","ward_ac_no":"152","ward_Assembly":"152 - Byatarayanapura","ward_id":"14","ward_name":"14 - Rajiv Gandhi Nagar","ward_name_kn":"ರಾಜೀವ್ ಗಾಂಧಿ ನಗರ","ward_TOT_P":"20148.0","ward_TOT_M":"10579.0","ward_TOT_F":"9569.0","ward_SC_P":"2101.0","ward_SC_M":"1086.0","ward_SC_F":"1015.0","ward_ST_P":"751.0","ward_ST_M":"373.0","ward_ST_F":"378.0","ward_low_range":"19943","ward_high_range":"29914","ward_RO_Code":"1","ward_RO_Division":"RO- Bytarayanapura","ward_ARO_Code":"1","ward_ARO_ Sub Division":"ARO- Bytarayanapura","ward_zone":"Zone1","ward_zone_name":"Byatarayanapura","ward_join_status":"matched","ward_spatial_match_count":1},"geometry":{"type":"Point","coordinates":[77.57601953200003,13.048408291000044,0]},"id":1},{"type":"Feature","properties":{"fid":2,"OBJECTID":2,"Name":"Sampangiram Nagar","FolderPath":"Document/flood_prone_locations","SymbolID":0,"AltMode":-1,"Base":0,"Snippet":"","PopupInfo":"","HasLabel":-1,"LabelID":0,"ward_source_id":"ward_369_final.273","ward_source_Name":null,"ward_description":null,"ward_timestamp":null,"ward_begin":null,"ward_end":null,"ward_altitudeMode":null,"ward_tessellate":-1,"ward_extrude":0,"ward_visibility":-1,"ward_drawOrder":null,"ward_icon":null,"ward_Corporation":"Central","ward_corporation_kn":"ಕೇಂದ್ರ","ward_corporation_id":"1","ward_ac":"Gandhinagara","ward_ac_kn":"ಗಾಂಧಿನಗರ","ward_ac_no":"164","ward_Assembly":"164 - Gandhinagara","ward_id":"60","ward_name":"60 - Seshadripuram","ward_name_kn":"ಶೇಷಾದ್ರಿಪುರಂ","ward_TOT_P":"19052.0","ward_TOT_M":"9810.0","ward_TOT_F":"9242.0","ward_SC_P":"1790.0","ward_SC_M":"897.0","ward_SC_F":"893.0","ward_ST_P":"178.0","ward_ST_M":"93.0","ward_ST_F":"85.0","ward_low_range":"18853","ward_high_range":"28280","ward_RO_Code":"5","ward_RO_Division":"RO - Gandhinagara","ward_ARO_Code":"17","ward_ARO_ Sub Division":"ARO- Sheshadripuram","ward_zone":"Zone2","ward_zone_name":"Gandhinagara","ward_join_status":"matched","ward_spatial_match_count":1},"geometry":{"type":"Point","coordinates":[77.57468010400004,12.993628518000037,0]},"id":2},{"type":"Feature","properties":{"fid":3,"OBJECTID":3,"Name":"KEB Compound Maththikere","FolderPath":"Document/flood_prone_locations","SymbolID":0,"AltMode":-1,"Base":0,"Snippet":"","PopupInfo":"","HasLabel":-1,"LabelID":0,"ward_source_id":"ward_369_final.173","ward_source_Name":null,"ward_description":null,"ward_timestamp":null,"ward_begin":null,"ward_end":null,"ward_altitudeMode":null,"ward_tessellate":-1,"ward_extrude":0,"ward_visibility":-1,"ward_drawOrder":null,"ward_icon":null,"ward_Corporation":"West","ward_corporation_kn":"ಪಶ್ಚಿಮ","ward_corporation_id":"5","ward_ac":"Malleshwaram","ward_ac_kn":"ಮಲ್ಲೇಶ್ವರಂ","ward_ac_no":"157","ward_Assembly":"157 - Malleshwaram","ward_id":"48","ward_name":"48 - Mathikere","ward_name_kn":"ಮತ್ತಿಕೆರೆ","ward_TOT_P":"26058.0","ward_TOT_M":"13520.0","ward_TOT_F":"12539.0","ward_SC_P":"2930.0","ward_SC_M":"1486.0","ward_SC_F":"1444.0","ward_ST_P":"548.0","ward_ST_M":"274.0","ward_ST_F":"274.0","ward_low_range":"18949","ward_high_range":"28424","ward_RO_Code":"6","ward_RO_Division":"RO- Malleshwaram","ward_ARO_Code":"20","ward_ARO_ Sub Division":"ARO- Mathikere","ward_zone":"Zone2","ward_zone_name":"Malleshwaram","ward_join_status":"matched","ward_spatial_match_count":1},"geometry":{"type":"Point","coordinates":[77.55861679000003,13.036299367000026,0]},"id":3},{"type":"Feature","properties":{"fid":4,"OBJECTID":4,"Name":"Gubbanna Layout","FolderPath":"Document/flood_prone_locations","SymbolID":0,"AltMode":-1,"Base":0,"Snippet":"","PopupInfo":"","HasLabel":-1,"LabelID":0,"ward_source_id":"ward_369_final.369","ward_source_Name":null,"ward_description":null,"ward_timestamp":null,"ward_begin":null,"ward_end":null,"ward_altitudeMode":null,"ward_tessellate":-1,"ward_extrude":0,"ward_visibility":-1,"ward_drawOrder":null,"ward_icon":null,"ward_Corporation":"West","ward_corporation_kn":"ಪಶ್ಚಿಮ","ward_corporation_id":"5","ward_ac":"Rajajinagar","ward_ac_kn":"ರಾಜಾಜಿನಗರ","ward_ac_no":"165","ward_Assembly":"165 - Rajajinagar","ward_id":"61","ward_name":"61 - Da.Ra. Bendre Ward","ward_name_kn":"ದ.ರಾ.ಬೇಂದ್ರೆ ವಾರ್ಡ್","ward_TOT_P":"20756.0","ward_TOT_M":"10743.0","ward_TOT_F":"10013.0","ward_SC_P":"1397.0","ward_SC_M":"705.0","ward_SC_F":"692.0","ward_ST_P":"170.0","ward_ST_M":"88.0","ward_ST_F":"81.0","ward_low_range":"18949","ward_high_range":"28424","ward_RO_Code":"9","ward_RO_Division":"RO- Rajajinagara","ward_ARO_Code":"30","ward_ARO_ Sub Division":"ARO- Rama Mandira","ward_zone":"Zone2","ward_zone_name":"Malleshwaram","ward_join_status":"matched","ward_spatial_match_count":1},"geometry":{"type":"Point","coordinates":[77.55564566700008,12.97920853100004,0]},"id":4},{"type":"Feature","properties":{"fid":5,"OBJECTID":5,"Name":"Minerva Mill","FolderPath":"Document/flood_prone_locations","SymbolID":0,"AltMode":-1,"Base":0,"Snippet":"","PopupInfo":"","HasLabel":-1,"LabelID":0,"ward_source_id":"ward_369_final.365","ward_source_Name":null,"ward_description":null,"ward_timestamp":null,"ward_begin":null,"ward_end":null,"ward_altitudeMode":null,"ward_tessellate":-1,"ward_extrude":0,"ward_visibility":-1,"ward_drawOrder":null,"ward_icon":null,"ward_Corporation":"Central","ward_corporation_kn":"ಕೇಂದ್ರ","ward_corporation_id":"1","ward_ac":"Gandhinagara","ward_ac_kn":"ಗಾಂಧಿನಗರ","ward_ac_no":"164","ward_Assembly":"164 - Gandhinagara","ward_id":"56","ward_name":"56 - Gopalpura","ward_name_kn":"ಗೋಪಾಲಪುರ","ward_TOT_P":"26986.0","ward_TOT_M":"13789.0","ward_TOT_F":"13197.0","ward_SC_P":"6655.0","ward_SC_M":"3307.0","ward_SC_F":"3348.0","ward_ST_P":"338.0","ward_ST_M":"177.0","ward_ST_F":"161.0","ward_low_range":"18853","ward_high_range":"28280","ward_RO_Code":"5","ward_RO_Division":"RO - Gandhinagara","ward_ARO_Code":"14","ward_ARO_ Sub Division":"ARO- Binnypete","ward_zone":"Zone2","ward_zone_name":"Gandhinagara","ward_join_status":"matched","ward_spatial_match_count":1},"geometry":{"type":"Point","coordinates":[77.56446414800007,12.979452406000064,0]},"id":5},{"type":"Feature","properties":{"fid":6,"OBJECTID":6,"Name":"Binny Mill Tank Area","FolderPath":"Document/flood_prone_locations","SymbolID":0,"AltMode":-1,"Base":0,"Snippet":"","PopupInfo":"","HasLabel":-1,"LabelID":0,"ward_source_id":"ward_369_final.366","ward_source_Name":null,"ward_description":null,"ward_timestamp":null,"ward_begin":null,"ward_end":null,"ward_altitudeMode":null,"ward_tessellate":-1,"ward_extrude":0,"ward_visibility":-1,"ward_drawOrder":null,"ward_icon":null,"ward_Corporation":"Central","ward_corporation_kn":"ಕೇಂದ್ರ","ward_corporation_id":"1","ward_ac":"Gandhinagara","ward_ac_kn":"ಗಾಂಧಿನಗರ","ward_ac_no":"164","ward_Assembly":"164 - Gandhinagara","ward_id":"57","ward_name":"57 - Cottonpete","ward_name_kn":"ಕಾಟನ್‌ಪೇಟೆ","ward_TOT_P":"27147.0","ward_TOT_M":"14426.0","ward_TOT_F":"12720.0","ward_SC_P":"871.0","ward_SC_M":"436.0","ward_SC_F":"435.0","ward_ST_P":"193.0","ward_ST_M":"108.0","ward_ST_F":"85.0","ward_low_range":"18853","ward_high_range":"28280","ward_RO_Code":"5","ward_RO_Division":"RO - Gandhinagara","ward_ARO_Code":"15","ward_ARO_ Sub Division":"ARO- Chickpete","ward_zone":"Zone2","ward_zone_name":"Gandhinagara","ward_join_status":"matched","ward_spatial_match_count":1},"geometry":{"type":"Point","coordinates":[77.56808279200004,12.968746173000056,0]},"id":6},{"type":"Feature","properties":{"fid":7,"OBJECTID":7,"Name":"Binny Mill Tank Area","FolderPath":"Document/flood_prone_locations","SymbolID":0,"AltMode":-1,"Base":0,"Snippet":"","PopupInfo":"","HasLabel":-1,"LabelID":0,"ward_source_id":"ward_369_final.366","ward_source_Name":null,"ward_description":null,"ward_timestamp":null,"ward_begin":null,"ward_end":null,"ward_altitudeMode":null,"ward_tessellate":-1,"ward_extrude":0,"ward_visibility":-1,"ward_drawOrder":null,"ward_icon":null,"ward_Corporation":"Central","ward_corporation_kn":"ಕೇಂದ್ರ","ward_corporation_id":"1","ward_ac":"Gandhinagara","ward_ac_kn":"ಗಾಂಧಿನಗರ","ward_ac_no":"164","ward_Assembly":"164 - Gandhinagara","ward_id":"57","ward_name":"57 - Cottonpete","ward_name_kn":"ಕಾಟನ್‌ಪೇಟೆ","ward_TOT_P":"27147.0","ward_TOT_M":"14426.0","ward_TOT_F":"12720.0","ward_SC_P":"871.0","ward_SC_M":"436.0","ward_SC_F":"435.0","ward_ST_P":"193.0","ward_ST_M":"108.0","ward_ST_F":"85.0","ward_low_range":"18853","ward_high_range":"28280","ward_RO_Code":"5","ward_RO_Division":"RO - Gandhinagara","ward_ARO_Code":"15","ward_ARO_ Sub Division":"ARO- Chickpete","ward_zone":"Zone2","ward_zone_name":"Gandhinagara","ward_join_status":"matched","ward_spatial_match_count":1},"geometry":{"type":"Point","coordinates":[77.57170290300007,12.974240369000029,0]},"id":7},{"type":"Feature","properties":{"fid":8,"OBJECTID":8,"Name":"Kamakshipalya Tank Slum Area","FolderPath":"Document/flood_prone_locations","SymbolID":0,"AltMode":-1,"Base":0,"Snippet":"","PopupInfo":"","HasLabel":-1,"LabelID":0,"ward_source_id":"ward_369_final.360","ward_source_Name":null,"ward_description":null,"ward_timestamp":null,"ward_begin":null,"ward_end":null,"ward_altitudeMode":null,"ward_tessellate":-1,"ward_extrude":0,"ward_visibility":-1,"ward_drawOrder":null,"ward_icon":null,"ward_Corporation":"West","ward_corporation_kn":"ಪಶ್ಚಿಮ","ward_corporation_id":"5","ward_ac":"Mahalakshmi Layout","ward_ac_kn":"ಮಹಾಲಕ್ಷ್ಮಿ ಲೇಔಟ್","ward_ac_no":"156","ward_Assembly":"156 - Mahalakshmi Layout","ward_id":"47","ward_name":"47 - Vrishabhavathi Nagar","ward_name_kn":"ವೃಷಭಾವತಿ ನಗರ","ward_TOT_P":"28346.0","ward_TOT_M":"15273.0","ward_TOT_F":"13074.0","ward_SC_P":"508.0","ward_SC_M":"275.0","ward_SC_F":"233.0","ward_ST_P":"483.0","ward_ST_M":"260.0","ward_ST_F":"222.0","ward_low_range":"18949","ward_high_range":"28424","ward_RO_Code":"5","ward_RO_Division":"RO- Mahalakshmi Layout","ward_ARO_Code":"15","ward_ARO_ Sub Division":"ARO- Kamalanagara","ward_zone":"Zone1","ward_zone_name":"Rajarajeshwarinagar","ward_join_status":"matched","ward_spatial_match_count":1},"geometry":{"type":"Point","coordinates":[77.52709081400008,12.988683448000074,0]},"id":8},{"type":"Feature","properties":{"fid":9,"OBJECTID":9,"Name":"Shivananda circle_Railway under pass","FolderPath":"Document/flood_prone_locations","SymbolID":0,"AltMode":-1,"Base":0,"Snippet":"","PopupInfo":"","HasLabel":-1,"LabelID":0,"ward_source_id":"ward_369_final.307","ward_source_Name":null,"ward_description":null,"ward_timestamp":null,"ward_begin":null,"ward_end":null,"ward_altitudeMode":null,"ward_tessellate":-1,"ward_extrude":0,"ward_visibility":-1,"ward_drawOrder":null,"ward_icon":null,"ward_Corporation":"Central","ward_corporation_kn":"ಕೇಂದ್ರ","ward_corporation_id":"1","ward_ac":"Gandhinagara","ward_ac_kn":"ಗಾಂಧಿನಗರ","ward_ac_no":"164","ward_Assembly":"164 - Gandhinagara","ward_id":"59","ward_name":"59 - Nehru Nagar","ward_name_kn":"ನೆಹರು ನಗರ","ward_TOT_P":"25780.0","ward_TOT_M":"14248.0","ward_TOT_F":"11532.0","ward_SC_P":"6345.0","ward_SC_M":"3194.0","ward_SC_F":"3150.0","ward_ST_P":"255.0","ward_ST_M":"149.0","ward_ST_F":"106.0","ward_low_range":"18853","ward_high_range":"28280","ward_RO_Code":"5","ward_RO_Division":"RO - Gandhinagara","ward_ARO_Code":"15","ward_ARO_ Sub Division":"ARO- Chickpete","ward_zone":"Zone2","ward_zone_name":"Gandhinagara","ward_join_status":"matched","ward_spatial_match_count":1},"geometry":{"type":"Point","coordinates":[77.57782901800005,12.987788456000033,0]},"id":9},{"type":"Feature","properties":{"fid":10,"OBJECTID":10,"Name":"Okalipuram Junction","FolderPath":"Document/flood_prone_locations","SymbolID":0,"AltMode":-1,"Base":0,"Snippet":"","PopupInfo":"","HasLabel":-1,"LabelID":0,"ward_source_id":"ward_369_final.365","ward_source_Name":null,"ward_description":null,"ward_timestamp":null,"ward_begin":null,"ward_end":null,"ward_altitudeMode":null,"ward_tessellate":-1,"ward_extrude":0,"ward_visibility":-1,"ward_drawOrder":null,"ward_icon":null,"ward_Corporation":"Central","ward_corporation_kn":"ಕೇಂದ್ರ","ward_corporation_id":"1","ward_ac":"Gandhinagara","ward_ac_kn":"ಗಾಂಧಿನಗರ","ward_ac_no":"164","ward_Assembly":"164 - Gandhinagara","ward_id":"56","ward_name":"56 - Gopalpura","ward_name_kn":"ಗೋಪಾಲಪುರ","ward_TOT_P":"26986.0","ward_TOT_M":"13789.0","ward_TOT_F":"13197.0","ward_SC_P":"6655.0","ward_SC_M":"3307.0","ward_SC_F":"3348.0","ward_ST_P":"338.0","ward_ST_M":"177.0","ward_ST_F":"161.0","ward_low_range":"18853","ward_high_range":"28280","ward_RO_Code":"5","ward_RO_Division":"RO - Gandhinagara","ward_ARO_Code":"14","ward_ARO_ Sub Division":"ARO- Binnypete","ward_zone":"Zone2","ward_zone_name":"Gandhinagara","ward_join_status":"matched","ward_spatial_match_count":1},"geometry":{"type":"Point","coordinates":[77.56892995500004,12.982687075000058,0]},"id":10},{"type":"Feature","properties":{"fid":11,"OBJECTID":11,"Name":"Mekhri circle","FolderPath":"Document/flood_prone_locations","SymbolID":0,"AltMode":-1,"Base":0,"Snippet":"","PopupInfo":"","HasLabel":-1,"LabelID":0,"ward_source_id":"ward_369_final.363","ward_source_Name":null,"ward_description":null,"ward_timestamp":null,"ward_begin":null,"ward_end":null,"ward_altitudeMode":null,"ward_tessellate":-1,"ward_extrude":0,"ward_visibility":-1,"ward_drawOrder":null,"ward_icon":null,"ward_Corporation":"West","ward_corporation_kn":"ಪಶ್ಚಿಮ","ward_corporation_id":"5","ward_ac":"Malleshwaram","ward_ac_kn":"ಮಲ್ಲೇಶ್ವರಂ","ward_ac_no":"157","ward_Assembly":"157 - Malleshwaram","ward_id":"50","ward_name":"50 - Sadashiva Nagara","ward_name_kn":"ಸದಾಶಿವ ನಗರ","ward_TOT_P":"19596.0","ward_TOT_M":"10143.0","ward_TOT_F":"9453.0","ward_SC_P":"1777.0","ward_SC_M":"925.0","ward_SC_F":"853.0","ward_ST_P":"483.0","ward_ST_M":"249.0","ward_ST_F":"234.0","ward_low_range":"18949","ward_high_range":"28424","ward_RO_Code":"6","ward_RO_Division":"RO- Malleshwaram","ward_ARO_Code":"20","ward_ARO_ Sub Division":"ARO- Mathikere","ward_zone":"Zone2","ward_zone_name":"Malleshwaram","ward_join_status":"matched","ward_spatial_match_count":1},"geometry":{"type":"Point","coordinates":[77.58379344800005,13.01699074000004,0]},"id":11},{"type":"Feature","properties":{"fid":12,"OBJECTID":12,"Name":"Railway underbridge near Kino theatre","FolderPath":"Document/flood_prone_locations","SymbolID":0,"AltMode":-1,"Base":0,"Snippet":"","PopupInfo":"","HasLabel":-1,"LabelID":0,"ward_source_id":"ward_369_final.307","ward_source_Name":null,"ward_description":null,"ward_timestamp":null,"ward_begin":null,"ward_end":null,"ward_altitudeMode":null,"ward_tessellate":-1,"ward_extrude":0,"ward_visibility":-1,"ward_drawOrder":null,"ward_icon":null,"ward_Corporation":"Central","ward_corporation_kn":"ಕೇಂದ್ರ","ward_corporation_id":"1","ward_ac":"Gandhinagara","ward_ac_kn":"ಗಾಂಧಿನಗರ","ward_ac_no":"164","ward_Assembly":"164 - Gandhinagara","ward_id":"59","ward_name":"59 - Nehru Nagar","ward_name_kn":"ನೆಹರು ನಗರ","ward_TOT_P":"25780.0","ward_TOT_M":"14248.0","ward_TOT_F":"11532.0","ward_SC_P":"6345.0","ward_SC_M":"3194.0","ward_SC_F":"3150.0","ward_ST_P":"255.0","ward_ST_M":"149.0","ward_ST_F":"106.0","ward_low_range":"18853","ward_high_range":"28280","ward_RO_Code":"5","ward_RO_Division":"RO - Gandhinagara","ward_ARO_Code":"15","ward_ARO_ Sub Division":"ARO- Chickpete","ward_zone":"Zone2","ward_zone_name":"Gandhinagara","ward_join_status":"matched","ward_spatial_match_count":1},"geometry":{"type":"Point","coordinates":[77.57486768300004,12.984507097000062,0]},"id":12},{"type":"Feature","properties":{"fid":13,"OBJECTID":13,"Name":"Jagajeevan ram nagar","FolderPath":"Document/flood_prone_locations","SymbolID":0,"AltMode":-1,"Base":0,"Snippet":"","PopupInfo":"","HasLabel":-1,"LabelID":0,"ward_source_id":"ward_369_final.55","ward_source_Name":null,"ward_description":null,"ward_timestamp":null,"ward_begin":null,"ward_end":null,"ward_altitudeMode":null,"ward_tessellate":-1,"ward_extrude":0,"ward_visibility":-1,"ward_drawOrder":null,"ward_icon":null,"ward_Corporation":"Central","ward_corporation_kn":"ಕೇಂದ್ರ","ward_corporation_id":"1","ward_ac":"Chamrajapet","ward_ac_kn":"ಚಾಮರಾಜಪೇಟೆ","ward_ac_no":"168","ward_Assembly":"168 - Chamrajapet","ward_id":"52","ward_name":"52 - Padarayanapura","ward_name_kn":"ಪಾದರಾಯನಪುರ","ward_TOT_P":"25833.0","ward_TOT_M":"13312.0","ward_TOT_F":"12521.0","ward_SC_P":"364.0","ward_SC_M":"182.0","ward_SC_F":"182.0","ward_ST_P":"128.0","ward_ST_M":"71.0","ward_ST_F":"57.0","ward_low_range":"18853","ward_high_range":"28280","ward_RO_Code":"3","ward_RO_Division":"RO - Chamrajapet","ward_ARO_Code":"9","ward_ARO_ Sub Division":"ARO- Padarayanapura","ward_zone":"Zone2","ward_zone_name":"Gandhinagara","ward_join_status":"matched","ward_spatial_match_count":1},"geometry":{"type":"Point","coordinates":[77.55067918400005,12.965588058000037,0]},"id":13},{"type":"Feature","properties":{"fid":14,"OBJECTID":14,"Name":"Padarayan pura","FolderPath":"Document/flood_prone_locations","SymbolID":0,"AltMode":-1,"Base":0,"Snippet":"","PopupInfo":"","HasLabel":-1,"LabelID":0,"ward_source_id":"ward_369_final.55","ward_source_Name":null,"ward_description":null,"ward_timestamp":null,"ward_begin":null,"ward_end":null,"ward_altitudeMode":null,"ward_tessellate":-1,"ward_extrude":0,"ward_visibility":-1,"ward_drawOrder":null,"ward_icon":null,"ward_Corporation":"Central","ward_corporation_kn":"ಕೇಂದ್ರ","ward_corporation_id":"1","ward_ac":"Chamrajapet","ward_ac_kn":"ಚಾಮರಾಜಪೇಟೆ","ward_ac_no":"168","ward_Assembly":"168 - Chamrajapet","ward_id":"52","ward_name":"52 - Padarayanapura","ward_name_kn":"ಪಾದರಾಯನಪುರ","ward_TOT_P":"25833.0","ward_TOT_M":"13312.0","ward_TOT_F":"12521.0","ward_SC_P":"364.0","ward_SC_M":"182.0","ward_SC_F":"182.0","ward_ST_P":"128.0","ward_ST_M":"71.0","ward_ST_F":"57.0","ward_low_range":"18853","ward_high_range":"28280","ward_RO_Code":"3","ward_RO_Division":"RO - Chamrajapet","ward_ARO_Code":"9","ward_ARO_ Sub Division":"ARO- Padarayanapura","ward_zone":"Zone2","ward_zone_name":"Gandhinagara","ward_join_status":"matched","ward_spatial_match_count":1},"geometry":{"type":"Point","coordinates":[77.54960647100006,12.964562621000027,0]},"id":14},{"type":"Feature","properties":{"fid":15,"OBJECTID":15,"Name":"Cotton pete","FolderPath":"Document/flood_prone_locations","SymbolID":0,"AltMode":-1,"Base":0,"Snippet":"","PopupInfo":"","HasLabel":-1,"LabelID":0,"ward_source_id":"ward_369_final.368","ward_source_Name":null,"ward_description":null,"ward_timestamp":null,"ward_begin":null,"ward_end":null,"ward_altitudeMode":null,"ward_tessellate":-1,"ward_extrude":0,"ward_visibility":-1,"ward_drawOrder":null,"ward_icon":null,"ward_Corporation":"Central","ward_corporation_kn":"ಕೇಂದ್ರ","ward_corporation_id":"1","ward_ac":"Chamrajapet","ward_ac_kn":"ಚಾಮರಾಜಪೇಟೆ","ward_ac_no":"168","ward_Assembly":"168 - Chamrajapet","ward_id":"47","ward_name":"47 - IPD Salappa Ward","ward_name_kn":"ಐಪಿಡಿ ಸಾಲಪ್ಪ ವಾರ್ಡ್","ward_TOT_P":"20622.0","ward_TOT_M":"10479.0","ward_TOT_F":"10143.0","ward_SC_P":"10739.0","ward_SC_M":"5314.0","ward_SC_F":"5425.0","ward_ST_P":"219.0","ward_ST_M":"116.0","ward_ST_F":"103.0","ward_low_range":"18853","ward_high_range":"28280","ward_RO_Code":"3","ward_RO_Division":"RO - Chamrajapet","ward_ARO_Code":"6","ward_ARO_ Sub Division":"ARO- Azad Nagar","ward_zone":"Zone2","ward_zone_name":"Gandhinagara","ward_join_status":"matched","ward_spatial_match_count":1},"geometry":{"type":"Point","coordinates":[77.56544679500007,12.966685089000066,0]},"id":15},{"type":"Feature","properties":{"fid":16,"OBJECTID":16,"Name":"City Market Area","FolderPath":"Document/flood_prone_locations","SymbolID":0,"AltMode":-1,"Base":0,"Snippet":"","PopupInfo":"","HasLabel":-1,"LabelID":0,"ward_source_id":"ward_369_final.89","ward_source_Name":null,"ward_description":null,"ward_timestamp":null,"ward_begin":null,"ward_end":null,"ward_altitudeMode":null,"ward_tessellate":-1,"ward_extrude":0,"ward_visibility":-1,"ward_drawOrder":null,"ward_icon":null,"ward_Corporation":"Central","ward_corporation_kn":"ಕೇಂದ್ರ","ward_corporation_id":"1","ward_ac":"Chickpet","ward_ac_kn":"ಚಿಕ್ಕಪೇಟೆ","ward_ac_no":"169","ward_Assembly":"169 - Chickpet","ward_id":"33","ward_name":"33 - Dharmaraya Swamy Temple Ward","ward_name_kn":"ಧರ್ಮರಾಯ ಸ್ವಾಮಿ ದೇವಸ್ಥಾನ ವಾರ್ಡ್","ward_TOT_P":"18905.0","ward_TOT_M":"9868.0","ward_TOT_F":"9092.0","ward_SC_P":"677.0","ward_SC_M":"334.0","ward_SC_F":"343.0","ward_ST_P":"131.0","ward_ST_M":"70.0","ward_ST_F":"62.0","ward_low_range":"18853","ward_high_range":"28280","ward_RO_Code":"4","ward_RO_Division":"RO - Chickpet","ward_ARO_Code":"11","ward_ARO_ Sub Division":"ARO- Dharmaraya Swamy Temple","ward_zone":"Zone2","ward_zone_name":"Gandhinagara","ward_join_status":"matched","ward_spatial_match_count":1},"geometry":{"type":"Point","coordinates":[77.58413814300008,12.965264679000029,0]},"id":16},{"type":"Feature","properties":{"fid":17,"OBJECTID":17,"Name":"Jayanagar 3rd Block LIC Colony","FolderPath":"Document/flood_prone_locations","SymbolID":0,"AltMode":-1,"Base":0,"Snippet":"","PopupInfo":"","HasLabel":-1,"LabelID":0,"ward_source_id":"ward_369_final.18","ward_source_Name":null,"ward_description":null,"ward_timestamp":null,"ward_begin":null,"ward_end":null,"ward_altitudeMode":null,"ward_tessellate":-1,"ward_extrude":0,"ward_visibility":-1,"ward_drawOrder":null,"ward_icon":null,"ward_Corporation":"South","ward_corporation_kn":"ದಕ್ಷಿಣ","ward_corporation_id":"4","ward_ac":"Jayanagar","ward_ac_kn":"ಜಯನಗರ","ward_ac_no":"173","ward_Assembly":"173 - Jayanagar","ward_id":"7","ward_name":"7 - Byrasandra","ward_name_kn":"ಬೈರಸಂದ್ರ","ward_TOT_P":"21108.0","ward_TOT_M":"10510.0","ward_TOT_F":"10598.0","ward_SC_P":"2813.0","ward_SC_M":"1399.0","ward_SC_F":"1414.0","ward_ST_P":"225.0","ward_ST_M":"109.0","ward_ST_F":"116.0","ward_low_range":"18594","ward_high_range":"27891","ward_RO_Code":"9","ward_RO_Division":"RO- Jayanagar","ward_ARO_Code":"23","ward_ARO_ Sub Division":"ARO- Byrasandra","ward_zone":"Zone1","ward_zone_name":"Jayanagar","ward_join_status":"matched","ward_spatial_match_count":1},"geometry":{"type":"Point","coordinates":[77.58953084100006,12.929768066000065,0]},"id":17},{"type":"Feature","properties":{"fid":18,"OBJECTID":18,"Name":"Krishnappa Garden behind Byrasandra Tank D/s","FolderPath":"Document/flood_prone_locations/Krishnappa Garden behind Byrasandra Tank D","SymbolID":0,"AltMode":-1,"Base":0,"Snippet":"","PopupInfo":"","HasLabel":-1,"LabelID":0,"ward_source_id":"ward_369_final.269","ward_source_Name":null,"ward_description":null,"ward_timestamp":null,"ward_begin":null,"ward_end":null,"ward_altitudeMode":null,"ward_tessellate":-1,"ward_extrude":0,"ward_visibility":-1,"ward_drawOrder":null,"ward_icon":null,"ward_Corporation":"Central","ward_corporation_kn":"ಕೇಂದ್ರ","ward_corporation_id":"1","ward_ac":"Chickpet","ward_ac_kn":"ಚಿಕ್ಕಪೇಟೆ","ward_ac_no":"169","ward_Assembly":"169 - Chickpet","ward_id":"37","ward_name":"37 - BHEL Ward","ward_name_kn":"ಬಿಎಚ್‌ಇಎಲ್ ವಾರ್ಡ್","ward_TOT_P":"19336.0","ward_TOT_M":"9975.0","ward_TOT_F":"9361.0","ward_SC_P":"3201.0","ward_SC_M":"1685.0","ward_SC_F":"1516.0","ward_ST_P":"355.0","ward_ST_M":"185.0","ward_ST_F":"170.0","ward_low_range":"18853","ward_high_range":"28280","ward_RO_Code":"4","ward_RO_Division":"RO - Chickpet","ward_ARO_Code":"12","ward_ARO_ Sub Division":"ARO- Hombegowda Nagar","ward_zone":"Zone2","ward_zone_name":"Gandhinagara","ward_join_status":"matched","ward_spatial_match_count":1},"geometry":{"type":"Point","coordinates":[77.59847561600003,12.929943222000077,0]},"id":18},{"type":"Feature","properties":{"fid":19,"OBJECTID":19,"Name":"Wilson Garden Area up to Bannerghatta Road","FolderPath":"Document/flood_prone_locations","SymbolID":0,"AltMode":-1,"Base":0,"Snippet":"","PopupInfo":"","HasLabel":-1,"LabelID":0,"ward_source_id":"ward_369_final.266","ward_source_Name":null,"ward_description":null,"ward_timestamp":null,"ward_begin":null,"ward_end":null,"ward_altitudeMode":null,"ward_tessellate":-1,"ward_extrude":0,"ward_visibility":-1,"ward_drawOrder":null,"ward_icon":null,"ward_Corporation":"Central","ward_corporation_kn":"ಕೇಂದ್ರ","ward_corporation_id":"1","ward_ac":"Chickpet","ward_ac_kn":"ಚಿಕ್ಕಪೇಟೆ","ward_ac_no":"169","ward_Assembly":"169 - Chickpet","ward_id":"35","ward_name":"35 - Hombegowda Nagara","ward_name_kn":"ಹೊಂಬೇಗೌಡ ನಗರ","ward_TOT_P":"18866.0","ward_TOT_M":"9795.0","ward_TOT_F":"9011.0","ward_SC_P":"1898.0","ward_SC_M":"948.0","ward_SC_F":"950.0","ward_ST_P":"238.0","ward_ST_M":"126.0","ward_ST_F":"112.0","ward_low_range":"18853","ward_high_range":"28280","ward_RO_Code":"4","ward_RO_Division":"RO - Chickpet","ward_ARO_Code":"12","ward_ARO_ Sub Division":"ARO- Hombegowda Nagar","ward_zone":"Zone2","ward_zone_name":"Gandhinagara","ward_join_status":"matched","ward_spatial_match_count":1},"geometry":{"type":"Point","coordinates":[77.59717672100004,12.948033614000053,0]},"id":19},{"type":"Feature","properties":{"fid":20,"OBJECTID":20,"Name":"Arekempannahalli Area","FolderPath":"Document/flood_prone_locations","SymbolID":0,"AltMode":-1,"Base":0,"Snippet":"","PopupInfo":"","HasLabel":-1,"LabelID":0,"ward_source_id":"ward_369_final.274","ward_source_Name":null,"ward_description":null,"ward_timestamp":null,"ward_begin":null,"ward_end":null,"ward_altitudeMode":null,"ward_tessellate":-1,"ward_extrude":0,"ward_visibility":-1,"ward_drawOrder":null,"ward_icon":null,"ward_Corporation":"Central","ward_corporation_kn":"ಕೇಂದ್ರ","ward_corporation_id":"1","ward_ac":"Chickpet","ward_ac_kn":"ಚಿಕ್ಕಪೇಟೆ","ward_ac_no":"169","ward_Assembly":"169 - Chickpet","ward_id":"39","ward_name":"39 - Venkat Reddy Nagara","ward_name_kn":"ವೆಂಕಟ ರೆಡ್ಡಿ ನಗರ","ward_TOT_P":"18888.0","ward_TOT_M":"9496.0","ward_TOT_F":"9392.0","ward_SC_P":"5627.0","ward_SC_M":"2799.0","ward_SC_F":"2829.0","ward_ST_P":"419.0","ward_ST_M":"211.0","ward_ST_F":"208.0","ward_low_range":"18853","ward_high_range":"28280","ward_RO_Code":"4","ward_RO_Division":"RO - Chickpet","ward_ARO_Code":"10","ward_ARO_ Sub Division":"ARO- Ashoka Pillar","ward_zone":"Zone2","ward_zone_name":"Gandhinagara","ward_join_status":"matched","ward_spatial_match_count":1},"geometry":{"type":"Point","coordinates":[77.59310660600005,12.946265431000029,0]},"id":20},{"type":"Feature","properties":{"fid":21,"OBJECTID":21,"Name":"Marehahalli Tank","FolderPath":"Document/flood_prone_locations","SymbolID":0,"AltMode":-1,"Base":0,"Snippet":"","PopupInfo":"","HasLabel":-1,"LabelID":0,"ward_source_id":"ward_369_final.30","ward_source_Name":null,"ward_description":null,"ward_timestamp":null,"ward_begin":null,"ward_end":null,"ward_altitudeMode":null,"ward_tessellate":-1,"ward_extrude":0,"ward_visibility":-1,"ward_drawOrder":null,"ward_icon":null,"ward_Corporation":"South","ward_corporation_kn":"ದಕ್ಷಿಣ","ward_corporation_id":"4","ward_ac":"Jayanagar","ward_ac_kn":"ಜಯನಗರ","ward_ac_no":"173","ward_Assembly":"173 - Jayanagar","ward_id":"13","ward_name":"13 - Marenahalli South","ward_name_kn":"ಮಾರೇನಹಳ್ಳಿ ದಕ್ಷಿಣ","ward_TOT_P":"23458.0","ward_TOT_M":"12151.0","ward_TOT_F":"11307.0","ward_SC_P":"4326.0","ward_SC_M":"2147.0","ward_SC_F":"2178.0","ward_ST_P":"407.0","ward_ST_M":"202.0","ward_ST_F":"204.0","ward_low_range":"18594","ward_high_range":"27891","ward_RO_Code":"10","ward_RO_Division":"RO- JP Nagar","ward_ARO_Code":"26","ward_ARO_ Sub Division":"ARO- JP Nagar","ward_zone":"Zone1","ward_zone_name":"Jayanagar","ward_join_status":"matched","ward_spatial_match_count":1},"geometry":{"type":"Point","coordinates":[77.58843625400004,12.915301427000031,0]},"id":21},{"type":"Feature","properties":{"fid":22,"OBJECTID":22,"Name":"Bismillanagar – Agencies","FolderPath":"Document/flood_prone_locations","SymbolID":0,"AltMode":-1,"Base":0,"Snippet":"","PopupInfo":"","HasLabel":-1,"LabelID":0,"ward_source_id":"ward_369_final.172","ward_source_Name":null,"ward_description":null,"ward_timestamp":null,"ward_begin":null,"ward_end":null,"ward_altitudeMode":null,"ward_tessellate":-1,"ward_extrude":0,"ward_visibility":-1,"ward_drawOrder":null,"ward_icon":null,"ward_Corporation":"South","ward_corporation_kn":"ದಕ್ಷಿಣ","ward_corporation_id":"4","ward_ac":"Jayanagar","ward_ac_kn":"ಜಯನಗರ","ward_ac_no":"173","ward_Assembly":"173 - Jayanagar","ward_id":"9","ward_name":"9 - N.A.L Layout","ward_name_kn":"ಎನ್‌.ಎ.ಎಲ್ ಲೇಔಟ್","ward_TOT_P":"20532.0","ward_TOT_M":"10467.0","ward_TOT_F":"10066.0","ward_SC_P":"992.0","ward_SC_M":"509.0","ward_SC_F":"484.0","ward_ST_P":"716.0","ward_ST_M":"352.0","ward_ST_F":"364.0","ward_low_range":"18594","ward_high_range":"27891","ward_RO_Code":"9","ward_RO_Division":"RO- Jayanagar","ward_ARO_Code":"25","ward_ARO_ Sub Division":"ARO- NAL Layout","ward_zone":"Zone1","ward_zone_name":"Jayanagar","ward_join_status":"matched","ward_spatial_match_count":1},"geometry":{"type":"Point","coordinates":[77.60219903800004,12.925853395000047,0]},"id":22},{"type":"Feature","properties":{"fid":23,"OBJECTID":23,"Name":"Ejipura","FolderPath":"Document/flood_prone_locations","SymbolID":0,"AltMode":-1,"Base":0,"Snippet":"","PopupInfo":"","HasLabel":-1,"LabelID":0,"ward_source_id":"ward_369_final.96","ward_source_Name":null,"ward_description":null,"ward_timestamp":null,"ward_begin":null,"ward_end":null,"ward_altitudeMode":null,"ward_tessellate":-1,"ward_extrude":0,"ward_visibility":-1,"ward_drawOrder":null,"ward_icon":null,"ward_Corporation":"South","ward_corporation_kn":"ದಕ್ಷಿಣ","ward_corporation_id":"4","ward_ac":"B.T.M Layout","ward_ac_kn":"ಬಿ.ಟಿ.ಎಂ. ಲೇಔಟ್","ward_ac_no":"172","ward_Assembly":"172 - B.T.M Layout","ward_id":"27","ward_name":"27 - Sri Lakshmi Devi Ward","ward_name_kn":"ಶ್ರೀ ಲಕ್ಷ್ಮೀದೇವಿ ವಾರ್ಡ್","ward_TOT_P":"19844.0","ward_TOT_M":"10463.0","ward_TOT_F":"9381.0","ward_SC_P":"2001.0","ward_SC_M":"1035.0","ward_SC_F":"966.0","ward_ST_P":"315.0","ward_ST_M":"155.0","ward_ST_F":"162.0","ward_low_range":"18594","ward_high_range":"27891","ward_RO_Code":"3","ward_RO_Division":"RO- Kormangala","ward_ARO_Code":"4","ward_ARO_ Sub Division":"ARO- Ejipura","ward_zone":"Zone2","ward_zone_name":"Bommanahalli","ward_join_status":"matched","ward_spatial_match_count":1},"geometry":{"type":"Point","coordinates":[77.63082013000007,12.938392303000057,0]},"id":23},{"type":"Feature","properties":{"fid":24,"OBJECTID":24,"Name":"Koramangala Slum","FolderPath":"Document/flood_prone_locations","SymbolID":0,"AltMode":-1,"Base":0,"Snippet":"","PopupInfo":"","HasLabel":-1,"LabelID":0,"ward_source_id":"ward_369_final.135","ward_source_Name":null,"ward_description":null,"ward_timestamp":null,"ward_begin":null,"ward_end":null,"ward_altitudeMode":null,"ward_tessellate":-1,"ward_extrude":0,"ward_visibility":-1,"ward_drawOrder":null,"ward_icon":null,"ward_Corporation":"South","ward_corporation_kn":"ದಕ್ಷಿಣ","ward_corporation_id":"4","ward_ac":"B.T.M Layout","ward_ac_kn":"ಬಿ.ಟಿ.ಎಂ. ಲೇಔಟ್","ward_ac_no":"172","ward_Assembly":"172 - B.T.M Layout","ward_id":"28","ward_name":"28 - Kormangala East","ward_name_kn":"ಕೋರಮಂಗಲ ಪೂರ್ವ","ward_TOT_P":"22885.0","ward_TOT_M":"11897.0","ward_TOT_F":"10989.0","ward_SC_P":"2252.0","ward_SC_M":"1138.0","ward_SC_F":"1114.0","ward_ST_P":"558.0","ward_ST_M":"288.0","ward_ST_F":"270.0","ward_low_range":"18594","ward_high_range":"27891","ward_RO_Code":"3","ward_RO_Division":"RO- Kormangala","ward_ARO_Code":"5","ward_ARO_ Sub Division":"ARO- Kormangala","ward_zone":"Zone2","ward_zone_name":"Bommanahalli","ward_join_status":"matched","ward_spatial_match_count":1},"geometry":{"type":"Point","coordinates":[77.62797420600003,12.924817269000073,0]},"id":24},{"type":"Feature","properties":{"fid":25,"OBJECTID":25,"Name":"Cholurpalya","FolderPath":"Document/flood_prone_locations","SymbolID":0,"AltMode":-1,"Base":0,"Snippet":"","PopupInfo":"","HasLabel":-1,"LabelID":0,"ward_source_id":"ward_369_final.228","ward_source_Name":null,"ward_description":null,"ward_timestamp":null,"ward_begin":null,"ward_end":null,"ward_altitudeMode":null,"ward_tessellate":-1,"ward_extrude":0,"ward_visibility":-1,"ward_drawOrder":null,"ward_icon":null,"ward_Corporation":"West","ward_corporation_kn":"ಪಶ್ಚಿಮ","ward_corporation_id":"5","ward_ac":"Vijayanagar","ward_ac_kn":"ವಿಜಯನಗರ","ward_ac_no":"167","ward_Assembly":"167 - Vijayanagar","ward_id":"86","ward_name":"86 - Vidyaranyanagara","ward_name_kn":"ವಿದ್ಯಾರಣ್ಯನಗರ","ward_TOT_P":"28411.0","ward_TOT_M":"14786.0","ward_TOT_F":"13705.0","ward_SC_P":"1977.0","ward_SC_M":"1018.0","ward_SC_F":"958.0","ward_ST_P":"722.0","ward_ST_M":"380.0","ward_ST_F":"342.0","ward_low_range":"18949","ward_high_range":"28424","ward_RO_Code":"13","ward_RO_Division":"RO- Vijayanagar","ward_ARO_Code":"40","ward_ARO_ Sub Division":"ARO- KP Agrahara","ward_zone":"Zone2","ward_zone_name":"Malleshwaram","ward_join_status":"matched","ward_spatial_match_count":1},"geometry":{"type":"Point","coordinates":[77.54905065900005,12.97200980100007,0]},"id":25},{"type":"Feature","properties":{"fid":26,"OBJECTID":26,"Name":"Bapujinagar","FolderPath":"Document/flood_prone_locations","SymbolID":0,"AltMode":-1,"Base":0,"Snippet":"","PopupInfo":"","HasLabel":-1,"LabelID":0,"ward_source_id":"ward_369_final.311","ward_source_Name":null,"ward_description":null,"ward_timestamp":null,"ward_begin":null,"ward_end":null,"ward_altitudeMode":null,"ward_tessellate":-1,"ward_extrude":0,"ward_visibility":-1,"ward_drawOrder":null,"ward_icon":null,"ward_Corporation":"West","ward_corporation_kn":"ಪಶ್ಚಿಮ","ward_corporation_id":"5","ward_ac":"Vijayanagar","ward_ac_kn":"ವಿಜಯನಗರ","ward_ac_no":"167","ward_Assembly":"167 - Vijayanagar","ward_id":"90","ward_name":"90 - Krishnadevaraya ward","ward_name_kn":"ಕೃಷ್ಣದೇವರಾಯ ವಾರ್ಡ್","ward_TOT_P":"28148.0","ward_TOT_M":"14478.0","ward_TOT_F":"13669.0","ward_SC_P":"3804.0","ward_SC_M":"1945.0","ward_SC_F":"1859.0","ward_ST_P":"448.0","ward_ST_M":"232.0","ward_ST_F":"216.0","ward_low_range":"18949","ward_high_range":"28424","ward_RO_Code":"13","ward_RO_Division":"RO- Vijayanagar","ward_ARO_Code":"38","ward_ARO_ Sub Division":"ARO- Gali Anjaneya Temple","ward_zone":"Zone2","ward_zone_name":"Malleshwaram","ward_join_status":"matched","ward_spatial_match_count":1},"geometry":{"type":"Point","coordinates":[77.53972929800005,12.956770660000075,0]},"id":26},{"type":"Feature","properties":{"fid":27,"OBJECTID":27,"Name":"Sanjaya Gandhi Slum Area","FolderPath":"Document/flood_prone_locations","SymbolID":0,"AltMode":-1,"Base":0,"Snippet":"","PopupInfo":"","HasLabel":-1,"LabelID":0,"ward_source_id":"ward_369_final.19","ward_source_Name":null,"ward_description":null,"ward_timestamp":null,"ward_begin":null,"ward_end":null,"ward_altitudeMode":null,"ward_tessellate":-1,"ward_extrude":0,"ward_visibility":-1,"ward_drawOrder":null,"ward_icon":null,"ward_Corporation":"South","ward_corporation_kn":"ದಕ್ಷಿಣ","ward_corporation_id":"4","ward_ac":"Jayanagar","ward_ac_kn":"ಜಯನಗರ","ward_ac_no":"173","ward_Assembly":"173 - Jayanagar","ward_id":"8","ward_name":"8 - Tilak Nagara","ward_name_kn":"ತಿಲಕ ನಗರ","ward_TOT_P":"25625.0","ward_TOT_M":"13008.0","ward_TOT_F":"12617.0","ward_SC_P":"2769.0","ward_SC_M":"1375.0","ward_SC_F":"1395.0","ward_ST_P":"262.0","ward_ST_M":"128.0","ward_ST_F":"134.0","ward_low_range":"18594","ward_high_range":"27891","ward_RO_Code":"9","ward_RO_Division":"RO- Jayanagar","ward_ARO_Code":"23","ward_ARO_ Sub Division":"ARO- Byrasandra","ward_zone":"Zone1","ward_zone_name":"Jayanagar","ward_join_status":"matched","ward_spatial_match_count":1},"geometry":{"type":"Point","coordinates":[77.59245903000004,12.927233344000058,0]},"id":27},{"type":"Feature","properties":{"fid":28,"OBJECTID":28,"Name":"NGV to HSR Layout","FolderPath":"Document/flood_prone_locations","SymbolID":0,"AltMode":-1,"Base":0,"Snippet":"","PopupInfo":"","HasLabel":-1,"LabelID":0,"ward_source_id":"ward_369_final.110","ward_source_Name":null,"ward_description":null,"ward_timestamp":null,"ward_begin":null,"ward_end":null,"ward_altitudeMode":null,"ward_tessellate":-1,"ward_extrude":0,"ward_visibility":-1,"ward_drawOrder":null,"ward_icon":null,"ward_Corporation":"South","ward_corporation_kn":"ದಕ್ಷಿಣ","ward_corporation_id":"4","ward_ac":"B.T.M Layout","ward_ac_kn":"ಬಿ.ಟಿ.ಎಂ. ಲೇಔಟ್","ward_ac_no":"172","ward_Assembly":"172 - B.T.M Layout","ward_id":"25","ward_name":"25 - National Games Village","ward_name_kn":"ನ್ಯಾಷನಲ್ ಗೇಮ್ಸ್ ವಿಲೇಜ್","ward_TOT_P":"19407.0","ward_TOT_M":"9949.0","ward_TOT_F":"9459.0","ward_SC_P":"6281.0","ward_SC_M":"3167.0","ward_SC_F":"3115.0","ward_ST_P":"630.0","ward_ST_M":"326.0","ward_ST_F":"304.0","ward_low_range":"18594","ward_high_range":"27891","ward_RO_Code":"3","ward_RO_Division":"RO- Kormangala","ward_ARO_Code":"4","ward_ARO_ Sub Division":"ARO- Ejipura","ward_zone":"Zone2","ward_zone_name":"Bommanahalli","ward_join_status":"matched","ward_spatial_match_count":1},"geometry":{"type":"Point","coordinates":[77.62014728900004,12.948554000000058,0]},"id":28},{"type":"Feature","properties":{"fid":29,"OBJECTID":29,"Name":"Shanthi Nagar","FolderPath":"Document/flood_prone_locations","SymbolID":0,"AltMode":-1,"Base":0,"Snippet":"","PopupInfo":"","HasLabel":-1,"LabelID":0,"ward_source_id":"ward_369_final.266","ward_source_Name":null,"ward_description":null,"ward_timestamp":null,"ward_begin":null,"ward_end":null,"ward_altitudeMode":null,"ward_tessellate":-1,"ward_extrude":0,"ward_visibility":-1,"ward_drawOrder":null,"ward_icon":null,"ward_Corporation":"Central","ward_corporation_kn":"ಕೇಂದ್ರ","ward_corporation_id":"1","ward_ac":"Chickpet","ward_ac_kn":"ಚಿಕ್ಕಪೇಟೆ","ward_ac_no":"169","ward_Assembly":"169 - Chickpet","ward_id":"35","ward_name":"35 - Hombegowda Nagara","ward_name_kn":"ಹೊಂಬೇಗೌಡ ನಗರ","ward_TOT_P":"18866.0","ward_TOT_M":"9795.0","ward_TOT_F":"9011.0","ward_SC_P":"1898.0","ward_SC_M":"948.0","ward_SC_F":"950.0","ward_ST_P":"238.0","ward_ST_M":"126.0","ward_ST_F":"112.0","ward_low_range":"18853","ward_high_range":"28280","ward_RO_Code":"4","ward_RO_Division":"RO - Chickpet","ward_ARO_Code":"12","ward_ARO_ Sub Division":"ARO- Hombegowda Nagar","ward_zone":"Zone2","ward_zone_name":"Gandhinagara","ward_join_status":"matched","ward_spatial_match_count":1},"geometry":{"type":"Point","coordinates":[77.59323948600007,12.954258817000039,0]},"id":29},{"type":"Feature","properties":{"fid":30,"OBJECTID":30,"Name":"Vidyapeeta circle","FolderPath":"Document/flood_prone_locations","SymbolID":0,"AltMode":-1,"Base":0,"Snippet":"","PopupInfo":"","HasLabel":-1,"LabelID":0,"ward_source_id":"ward_369_final.361","ward_source_Name":null,"ward_description":null,"ward_timestamp":null,"ward_begin":null,"ward_end":null,"ward_altitudeMode":null,"ward_tessellate":-1,"ward_extrude":0,"ward_visibility":-1,"ward_drawOrder":null,"ward_icon":null,"ward_Corporation":"West","ward_corporation_kn":"ಪಶ್ಚಿಮ","ward_corporation_id":"5","ward_ac":"Basavanagudi","ward_ac_kn":"ಬಸವನಗುಡಿ","ward_ac_no":"170","ward_Assembly":"170 - Basavanagudi","ward_id":"98","ward_name":"98 - Ashoka Nagara","ward_name_kn":"ಅಶೋಕ ನಗರ","ward_TOT_P":"28420.0","ward_TOT_M":"14813.0","ward_TOT_F":"13607.0","ward_SC_P":"367.0","ward_SC_M":"188.0","ward_SC_F":"179.0","ward_ST_P":"224.0","ward_ST_M":"120.0","ward_ST_F":"104.0","ward_low_range":"18949","ward_high_range":"28424","ward_RO_Code":"1","ward_RO_Division":"RO- Basavanagudi","ward_ARO_Code":"1","ward_ARO_ Sub Division":"ARO- Hanumanthanagar","ward_zone":"Zone2","ward_zone_name":"Malleshwaram","ward_join_status":"matched","ward_spatial_match_count":1},"geometry":{"type":"Point","coordinates":[77.56086642100007,12.93339596800007,0]},"id":30},{"type":"Feature","properties":{"fid":31,"OBJECTID":31,"Name":"Srinvas nagar","FolderPath":"Document/flood_prone_locations","SymbolID":0,"AltMode":-1,"Base":0,"Snippet":"","PopupInfo":"","HasLabel":-1,"LabelID":0,"ward_source_id":"ward_369_final.287","ward_source_Name":null,"ward_description":null,"ward_timestamp":null,"ward_begin":null,"ward_end":null,"ward_altitudeMode":null,"ward_tessellate":-1,"ward_extrude":0,"ward_visibility":-1,"ward_drawOrder":null,"ward_icon":null,"ward_Corporation":"West","ward_corporation_kn":"ಪಶ್ಚಿಮ","ward_corporation_id":"5","ward_ac":"Basavanagudi","ward_ac_kn":"ಬಸವನಗುಡಿ","ward_ac_no":"170","ward_Assembly":"170 - Basavanagudi","ward_id":"97","ward_name":"97 - Srinivasa Nagara","ward_name_kn":"ಶ್ರೀನಿವಾಸ ನಗರ","ward_TOT_P":"25716.0","ward_TOT_M":"13278.0","ward_TOT_F":"12438.0","ward_SC_P":"385.0","ward_SC_M":"195.0","ward_SC_F":"190.0","ward_ST_P":"366.0","ward_ST_M":"202.0","ward_ST_F":"164.0","ward_low_range":"18949","ward_high_range":"28424","ward_RO_Code":"1","ward_RO_Division":"RO- Basavanagudi","ward_ARO_Code":"4","ward_ARO_ Sub Division":"ARO- Srinivasa Nagara","ward_zone":"Zone2","ward_zone_name":"Malleshwaram","ward_join_status":"matched","ward_spatial_match_count":1},"geometry":{"type":"Point","coordinates":[77.55477819500004,12.935582226000065,0]},"id":31},{"type":"Feature","properties":{"fid":32,"OBJECTID":32,"Name":"KH Road","FolderPath":"Document/flood_prone_locations","SymbolID":0,"AltMode":-1,"Base":0,"Snippet":"","PopupInfo":"","HasLabel":-1,"LabelID":0,"ward_source_id":"ward_369_final.286","ward_source_Name":null,"ward_description":null,"ward_timestamp":null,"ward_begin":null,"ward_end":null,"ward_altitudeMode":null,"ward_tessellate":-1,"ward_extrude":0,"ward_visibility":-1,"ward_drawOrder":null,"ward_icon":null,"ward_Corporation":"Central","ward_corporation_kn":"ಕೇಂದ್ರ","ward_corporation_id":"1","ward_ac":"Chickpet","ward_ac_kn":"ಚಿಕ್ಕಪೇಟೆ","ward_ac_no":"169","ward_Assembly":"169 - Chickpet","ward_id":"32","ward_name":"32 - SilverJubilee Park Ward","ward_name_kn":"ಸಿಲ್ವರ್ ಜುಬಿಲಿ ಪಾರ್ಕ್ ವಾರ್ಡ್","ward_TOT_P":"18858.0","ward_TOT_M":"9562.0","ward_TOT_F":"9176.0","ward_SC_P":"6825.0","ward_SC_M":"3344.0","ward_SC_F":"3481.0","ward_ST_P":"233.0","ward_ST_M":"104.0","ward_ST_F":"129.0","ward_low_range":"18853","ward_high_range":"28280","ward_RO_Code":"4","ward_RO_Division":"RO - Chickpet","ward_ARO_Code":"11","ward_ARO_ Sub Division":"ARO- Dharmaraya Swamy Temple","ward_zone":"Zone2","ward_zone_name":"Gandhinagara","ward_join_status":"matched","ward_spatial_match_count":1},"geometry":{"type":"Point","coordinates":[77.59203196800007,12.955463705000057,0]},"id":32},{"type":"Feature","properties":{"fid":33,"OBJECTID":33,"Name":"Magadi Police station","FolderPath":"Document/flood_prone_locations","SymbolID":0,"AltMode":-1,"Base":0,"Snippet":"","PopupInfo":"","HasLabel":-1,"LabelID":0,"ward_source_id":"ward_369_final.276","ward_source_Name":null,"ward_description":null,"ward_timestamp":null,"ward_begin":null,"ward_end":null,"ward_altitudeMode":null,"ward_tessellate":-1,"ward_extrude":0,"ward_visibility":-1,"ward_drawOrder":null,"ward_icon":null,"ward_Corporation":"West","ward_corporation_kn":"ಪಶ್ಚಿಮ","ward_corporation_id":"5","ward_ac":"Govindraj Nagar","ward_ac_kn":"ಗೋವಿಂದರಾಜ ನಗರ","ward_ac_no":"166","ward_Assembly":"166 - Govindraj Nagar","ward_id":"70","ward_name":"70 - Dr Rajkumar Ward","ward_name_kn":"ಡಾ. ರಾಜ್‌ಕುಮಾರ್ ವಾರ್ಡ್","ward_TOT_P":"24106.0","ward_TOT_M":"12476.0","ward_TOT_F":"11630.0","ward_SC_P":"2155.0","ward_SC_M":"1117.0","ward_SC_F":"1038.0","ward_ST_P":"676.0","ward_ST_M":"352.0","ward_ST_F":"324.0","ward_low_range":"18949","ward_high_range":"28424","ward_RO_Code":"4","ward_RO_Division":"RO- Govindraj Nagar","ward_ARO_Code":"12","ward_ARO_ Sub Division":"ARO- Agrahara Dasarahalli","ward_zone":"Zone2","ward_zone_name":"Malleshwaram","ward_join_status":"matched","ward_spatial_match_count":1},"geometry":{"type":"Point","coordinates":[77.55151009300005,12.97449083600003,0]},"id":33},{"type":"Feature","properties":{"fid":34,"OBJECTID":34,"Name":"RPC layout","FolderPath":"Document/flood_prone_locations","SymbolID":0,"AltMode":-1,"Base":0,"Snippet":"","PopupInfo":"","HasLabel":-1,"LabelID":0,"ward_source_id":"ward_369_final.311","ward_source_Name":null,"ward_description":null,"ward_timestamp":null,"ward_begin":null,"ward_end":null,"ward_altitudeMode":null,"ward_tessellate":-1,"ward_extrude":0,"ward_visibility":-1,"ward_drawOrder":null,"ward_icon":null,"ward_Corporation":"West","ward_corporation_kn":"ಪಶ್ಚಿಮ","ward_corporation_id":"5","ward_ac":"Vijayanagar","ward_ac_kn":"ವಿಜಯನಗರ","ward_ac_no":"167","ward_Assembly":"167 - Vijayanagar","ward_id":"90","ward_name":"90 - Krishnadevaraya ward","ward_name_kn":"ಕೃಷ್ಣದೇವರಾಯ ವಾರ್ಡ್","ward_TOT_P":"28148.0","ward_TOT_M":"14478.0","ward_TOT_F":"13669.0","ward_SC_P":"3804.0","ward_SC_M":"1945.0","ward_SC_F":"1859.0","ward_ST_P":"448.0","ward_ST_M":"232.0","ward_ST_F":"216.0","ward_low_range":"18949","ward_high_range":"28424","ward_RO_Code":"13","ward_RO_Division":"RO- Vijayanagar","ward_ARO_Code":"38","ward_ARO_ Sub Division":"ARO- Gali Anjaneya Temple","ward_zone":"Zone2","ward_zone_name":"Malleshwaram","ward_join_status":"matched","ward_spatial_match_count":1},"geometry":{"type":"Point","coordinates":[77.53789808000005,12.962781778000021,0]},"id":34},{"type":"Feature","properties":{"fid":35,"OBJECTID":35,"Name":"Ghali Anjaneya temple road","FolderPath":"Document/flood_prone_locations","SymbolID":0,"AltMode":-1,"Base":0,"Snippet":"","PopupInfo":"","HasLabel":-1,"LabelID":0,"ward_source_id":"ward_369_final.339","ward_source_Name":null,"ward_description":null,"ward_timestamp":null,"ward_begin":null,"ward_end":null,"ward_altitudeMode":null,"ward_tessellate":-1,"ward_extrude":0,"ward_visibility":-1,"ward_drawOrder":null,"ward_icon":null,"ward_Corporation":"West","ward_corporation_kn":"ಪಶ್ಚಿಮ","ward_corporation_id":"5","ward_ac":"Vijayanagar","ward_ac_kn":"ವಿಜಯನಗರ","ward_ac_no":"167","ward_Assembly":"167 - Vijayanagar","ward_id":"91","ward_name":"91 - Gali Anjaneya Temple Ward","ward_name_kn":"ಗಾಳಿ ಆಂಜನೇಯ ದೇವಸ್ಥಾನ ವಾರ್ಡ್","ward_TOT_P":"22841.0","ward_TOT_M":"11807.0","ward_TOT_F":"11034.0","ward_SC_P":"2269.0","ward_SC_M":"1187.0","ward_SC_F":"1082.0","ward_ST_P":"688.0","ward_ST_M":"367.0","ward_ST_F":"321.0","ward_low_range":"18949","ward_high_range":"28424","ward_RO_Code":"13","ward_RO_Division":"RO- Vijayanagar","ward_ARO_Code":"38","ward_ARO_ Sub Division":"ARO- Gali Anjaneya Temple","ward_zone":"Zone2","ward_zone_name":"Malleshwaram","ward_join_status":"matched","ward_spatial_match_count":1},"geometry":{"type":"Point","coordinates":[77.54128924600008,12.952727077000077,0]},"id":35},{"type":"Feature","properties":{"fid":36,"OBJECTID":36,"Name":"Brindavananagar below Matthikere Tank Market","FolderPath":"Document/flood_prone_locations","SymbolID":0,"AltMode":-1,"Base":0,"Snippet":"","PopupInfo":"","HasLabel":-1,"LabelID":0,"ward_source_id":"ward_369_final.60","ward_source_Name":null,"ward_description":null,"ward_timestamp":null,"ward_begin":null,"ward_end":null,"ward_altitudeMode":null,"ward_tessellate":-1,"ward_extrude":0,"ward_visibility":-1,"ward_drawOrder":null,"ward_icon":null,"ward_Corporation":"North","ward_corporation_kn":"ಉತ್ತರ","ward_corporation_id":"2","ward_ac":"Rajarajeshwarinagar","ward_ac_kn":"ರಾಜರಾಜೇಶ್ವರಿನಗರ","ward_ac_no":"154","ward_Assembly":"154 - Rajarajeshwarinagar","ward_id":"62","ward_name":"62 - Brundavana Nagara","ward_name_kn":"ಬೃಂದಾವನ ನಗರ","ward_TOT_P":"28749.0","ward_TOT_M":"14953.0","ward_TOT_F":"13796.0","ward_SC_P":"1662.0","ward_SC_M":"849.0","ward_SC_F":"813.0","ward_ST_P":"434.0","ward_ST_M":"225.0","ward_ST_F":"209.0","ward_low_range":"19943","ward_high_range":"29914","ward_RO_Code":"8","ward_RO_Division":"RO- Jalahalli","ward_ARO_Code":"21","ward_ARO_ Sub Division":"ARO- Yeshwanthpura","ward_zone":"Zone2","ward_zone_name":"Yelahanka","ward_join_status":"matched","ward_spatial_match_count":1},"geometry":{"type":"Point","coordinates":[77.55514905900003,13.034809049000046,0]},"id":36},{"type":"Feature","properties":{"fid":37,"OBJECTID":37,"Name":"Shankarappa Garden Gopalapura","FolderPath":"Document/flood_prone_locations","SymbolID":0,"AltMode":-1,"Base":0,"Snippet":"","PopupInfo":"","HasLabel":-1,"LabelID":0,"ward_source_id":"ward_369_final.271","ward_source_Name":null,"ward_description":null,"ward_timestamp":null,"ward_begin":null,"ward_end":null,"ward_altitudeMode":null,"ward_tessellate":-1,"ward_extrude":0,"ward_visibility":-1,"ward_drawOrder":null,"ward_icon":null,"ward_Corporation":"West","ward_corporation_kn":"ಪಶ್ಚಿಮ","ward_corporation_id":"5","ward_ac":"Rajarajeshwarinagar","ward_ac_kn":"ರಾಜರಾಜೇಶ್ವರಿನಗರ","ward_ac_no":"154","ward_Assembly":"154 - Rajarajeshwarinagar","ward_id":"23","ward_name":"23 - Rajarajeshwari Nagara","ward_name_kn":"ರಾಜರಾಜೇಶ್ವರಿ ನಗರ","ward_TOT_P":"26050.0","ward_TOT_M":"13348.0","ward_TOT_F":"12601.0","ward_SC_P":"1457.0","ward_SC_M":"758.0","ward_SC_F":"700.0","ward_ST_P":"652.0","ward_ST_M":"342.0","ward_ST_F":"310.0","ward_low_range":"18949","ward_high_range":"28424","ward_RO_Code":"11","ward_RO_Division":"RO- Rajarajeswari Nagara","ward_ARO_Code":"35","ward_ARO_ Sub Division":"ARO- Rajarajeswari Nagara","ward_zone":"Zone1","ward_zone_name":"Rajarajeshwarinagar","ward_join_status":"matched","ward_spatial_match_count":1},"geometry":{"type":"Point","coordinates":[77.52301105000004,12.921671308000043,0]},"id":37},{"type":"Feature","properties":{"fid":38,"OBJECTID":38,"Name":"Kamakshipalya Tank Slum Area","FolderPath":"Document/flood_prone_locations","SymbolID":0,"AltMode":-1,"Base":0,"Snippet":"","PopupInfo":"","HasLabel":-1,"LabelID":0,"ward_source_id":"ward_369_final.59","ward_source_Name":null,"ward_description":null,"ward_timestamp":null,"ward_begin":null,"ward_end":null,"ward_altitudeMode":null,"ward_tessellate":-1,"ward_extrude":0,"ward_visibility":-1,"ward_drawOrder":null,"ward_icon":null,"ward_Corporation":"West","ward_corporation_kn":"ಪಶ್ಚಿಮ","ward_corporation_id":"5","ward_ac":"Rajarajeshwarinagar","ward_ac_kn":"ರಾಜರಾಜೇಶ್ವರಿನಗರ","ward_ac_no":"154","ward_Assembly":"154 - Rajarajeshwarinagar","ward_id":"28","ward_name":"28 - Kottegepalya","ward_name_kn":"ಕೊಟ್ಟಿಗೆಪಾಳ್ಯ","ward_TOT_P":"22872.0","ward_TOT_M":"12165.0","ward_TOT_F":"10707.0","ward_SC_P":"2906.0","ward_SC_M":"1616.0","ward_SC_F":"1291.0","ward_ST_P":"612.0","ward_ST_M":"337.0","ward_ST_F":"275.0","ward_low_range":"18949","ward_high_range":"28424","ward_RO_Code":"10","ward_RO_Division":"RO- Peenya","ward_ARO_Code":"31","ward_ARO_ Sub Division":"ARO- Kotigepalya","ward_zone":"Zone1","ward_zone_name":"Rajarajeshwarinagar","ward_join_status":"matched","ward_spatial_match_count":1},"geometry":{"type":"Point","coordinates":[77.52204236200004,12.992806346000066,0]},"id":38},{"type":"Feature","properties":{"fid":39,"OBJECTID":39,"Name":"Yeshwanthpur Railway station","FolderPath":"Document/flood_prone_locations","SymbolID":0,"AltMode":-1,"Base":0,"Snippet":"","PopupInfo":"","HasLabel":-1,"LabelID":0,"ward_source_id":"ward_369_final.58","ward_source_Name":null,"ward_description":null,"ward_timestamp":null,"ward_begin":null,"ward_end":null,"ward_altitudeMode":null,"ward_tessellate":-1,"ward_extrude":0,"ward_visibility":-1,"ward_drawOrder":null,"ward_icon":null,"ward_Corporation":"West","ward_corporation_kn":"ಪಶ್ಚಿಮ","ward_corporation_id":"5","ward_ac":"Rajarajeshwarinagar","ward_ac_kn":"ರಾಜರಾಜೇಶ್ವರಿನಗರ","ward_ac_no":"154","ward_Assembly":"154 - Rajarajeshwarinagar","ward_id":"35","ward_name":"35 - Goraguntepalya","ward_name_kn":"ಗೋರಗುಂಟೆಪಾಳ್ಯ","ward_TOT_P":"21462.0","ward_TOT_M":"11354.0","ward_TOT_F":"10108.0","ward_SC_P":"4874.0","ward_SC_M":"2455.0","ward_SC_F":"2420.0","ward_ST_P":"823.0","ward_ST_M":"440.0","ward_ST_F":"383.0","ward_low_range":"18949","ward_high_range":"28424","ward_RO_Code":"10","ward_RO_Division":"RO- Peenya","ward_ARO_Code":"33","ward_ARO_ Sub Division":"ARO- Peenya","ward_zone":"Zone1","ward_zone_name":"Rajarajeshwarinagar","ward_join_status":"matched","ward_spatial_match_count":1},"geometry":{"type":"Point","coordinates":[77.55037722800006,13.02377675100007,0]},"id":39},{"type":"Feature","properties":{"fid":40,"OBJECTID":40,"Name":"BEML Layout in RR Nagar","FolderPath":"Document/flood_prone_locations","SymbolID":0,"AltMode":-1,"Base":0,"Snippet":"","PopupInfo":"","HasLabel":-1,"LabelID":0,"ward_source_id":"ward_369_final.271","ward_source_Name":null,"ward_description":null,"ward_timestamp":null,"ward_begin":null,"ward_end":null,"ward_altitudeMode":null,"ward_tessellate":-1,"ward_extrude":0,"ward_visibility":-1,"ward_drawOrder":null,"ward_icon":null,"ward_Corporation":"West","ward_corporation_kn":"ಪಶ್ಚಿಮ","ward_corporation_id":"5","ward_ac":"Rajarajeshwarinagar","ward_ac_kn":"ರಾಜರಾಜೇಶ್ವರಿನಗರ","ward_ac_no":"154","ward_Assembly":"154 - Rajarajeshwarinagar","ward_id":"23","ward_name":"23 - Rajarajeshwari Nagara","ward_name_kn":"ರಾಜರಾಜೇಶ್ವರಿ ನಗರ","ward_TOT_P":"26050.0","ward_TOT_M":"13348.0","ward_TOT_F":"12601.0","ward_SC_P":"1457.0","ward_SC_M":"758.0","ward_SC_F":"700.0","ward_ST_P":"652.0","ward_ST_M":"342.0","ward_ST_F":"310.0","ward_low_range":"18949","ward_high_range":"28424","ward_RO_Code":"11","ward_RO_Division":"RO- Rajarajeswari Nagara","ward_ARO_Code":"35","ward_ARO_ Sub Division":"ARO- Rajarajeswari Nagara","ward_zone":"Zone1","ward_zone_name":"Rajarajeshwarinagar","ward_join_status":"matched","ward_spatial_match_count":1},"geometry":{"type":"Point","coordinates":[77.51966060200004,12.907735906000028,0]},"id":40},{"type":"Feature","properties":{"fid":41,"OBJECTID":41,"Name":"Nayandahalli","FolderPath":"Document/flood_prone_locations","SymbolID":0,"AltMode":-1,"Base":0,"Snippet":"","PopupInfo":"","HasLabel":-1,"LabelID":0,"ward_source_id":"ward_369_final.62","ward_source_Name":null,"ward_description":null,"ward_timestamp":null,"ward_begin":null,"ward_end":null,"ward_altitudeMode":null,"ward_tessellate":-1,"ward_extrude":0,"ward_visibility":-1,"ward_drawOrder":null,"ward_icon":null,"ward_Corporation":"West","ward_corporation_kn":"ಪಶ್ಚಿಮ","ward_corporation_id":"5","ward_ac":"Rajarajeshwarinagar","ward_ac_kn":"ರಾಜರಾಜೇಶ್ವರಿನಗರ","ward_ac_no":"154","ward_Assembly":"154 - Rajarajeshwarinagar","ward_id":"22","ward_name":"22 - Bangarappa Nagara","ward_name_kn":"ಬಂಗಾರಪ್ಪ ನಗರ","ward_TOT_P":"28414.0","ward_TOT_M":"14846.0","ward_TOT_F":"13669.0","ward_SC_P":"2140.0","ward_SC_M":"1088.0","ward_SC_F":"1052.0","ward_ST_P":"836.0","ward_ST_M":"430.0","ward_ST_F":"406.0","ward_low_range":"18949","ward_high_range":"28424","ward_RO_Code":"11","ward_RO_Division":"RO- Rajarajeswari Nagara","ward_ARO_Code":"35","ward_ARO_ Sub Division":"ARO- Rajarajeswari Nagara","ward_zone":"Zone1","ward_zone_name":"Rajarajeshwarinagar","ward_join_status":"matched","ward_spatial_match_count":1},"geometry":{"type":"Point","coordinates":[77.52476238900005,12.941092662000074,0]},"id":41},{"type":"Feature","properties":{"fid":42,"OBJECTID":42,"Name":"Kengeri Yellamma temple","FolderPath":"Document/flood_prone_locations","SymbolID":0,"AltMode":-1,"Base":0,"Snippet":"","PopupInfo":"","HasLabel":-1,"LabelID":0,"ward_source_id":"ward_369_final.22","ward_source_Name":null,"ward_description":null,"ward_timestamp":null,"ward_begin":null,"ward_end":null,"ward_altitudeMode":null,"ward_tessellate":-1,"ward_extrude":0,"ward_visibility":-1,"ward_drawOrder":null,"ward_icon":null,"ward_Corporation":"West","ward_corporation_kn":"ಪಶ್ಚಿಮ","ward_corporation_id":"5","ward_ac":"Yeshwanthapura","ward_ac_kn":"ಯಶವಂತಪುರ","ward_ac_no":"153","ward_Assembly":"153 - Yeshwanthapura","ward_id":"20","ward_name":"20 - Kengeri Kote ward","ward_name_kn":"ಕೆಂಗೇರಿ ಕೋಟೆ ವಾರ್ಡ್","ward_TOT_P":"19339.0","ward_TOT_M":"9841.0","ward_TOT_F":"9499.0","ward_SC_P":"2048.0","ward_SC_M":"968.0","ward_SC_F":"1081.0","ward_ST_P":"336.0","ward_ST_M":"170.0","ward_ST_F":"166.0","ward_low_range":"18949","ward_high_range":"28424","ward_RO_Code":"15","ward_RO_Division":"RO- Kengeri","ward_ARO_Code":"43","ward_ARO_ Sub Division":"ARO- Hemmigepura","ward_zone":"Zone1","ward_zone_name":"Rajarajeshwarinagar","ward_join_status":"matched","ward_spatial_match_count":1},"geometry":{"type":"Point","coordinates":[77.48273571500005,12.898911781000038,0]},"id":42},{"type":"Feature","properties":{"fid":43,"OBJECTID":43,"Name":"Bhovi Colony, near Sane Guruvanahalli Tank","FolderPath":"Document/flood_prone_locations","SymbolID":0,"AltMode":-1,"Base":0,"Snippet":"","PopupInfo":"","HasLabel":-1,"LabelID":0,"ward_source_id":"ward_369_final.17","ward_source_Name":null,"ward_description":null,"ward_timestamp":null,"ward_begin":null,"ward_end":null,"ward_altitudeMode":null,"ward_tessellate":-1,"ward_extrude":0,"ward_visibility":-1,"ward_drawOrder":null,"ward_icon":null,"ward_Corporation":"East","ward_corporation_kn":"ಪೂರ್ವ","ward_corporation_id":"3","ward_ac":"K.R. Pura","ward_ac_kn":"ಕೆ.ಆರ್. ಪುರ","ward_ac_no":"151","ward_Assembly":"151 - K.R. Pura","ward_id":"15","ward_name":"15 - Ramamurthy Nagara","ward_name_kn":"ರಾಮಮೂರ್ತಿ ನಗರ","ward_TOT_P":"17257.0","ward_TOT_M":"8738.0","ward_TOT_F":"8519.0","ward_SC_P":"4017.0","ward_SC_M":"1988.0","ward_SC_F":"2029.0","ward_ST_P":"354.0","ward_ST_M":"193.0","ward_ST_F":"161.0","ward_low_range":"14567","ward_high_range":"21851","ward_RO_Code":"3","ward_RO_Division":"RO- Ramamurthy Nagara","ward_ARO_Code":"8","ward_ARO_ Sub Division":"ARO- Ramamurthy Nagara","ward_zone":"Zone2","ward_zone_name":"K.R. Pura","ward_join_status":"matched","ward_spatial_match_count":1},"geometry":{"type":"Point","coordinates":[77.67620737600004,13.012097054000037,0]},"id":43},{"type":"Feature","properties":{"fid":44,"OBJECTID":44,"Name":"HAL Airport Road","FolderPath":"Document/flood_prone_locations","SymbolID":0,"AltMode":-1,"Base":0,"Snippet":"","PopupInfo":"","HasLabel":-1,"LabelID":0,"ward_source_id":"ward_369_final.202","ward_source_Name":null,"ward_description":null,"ward_timestamp":null,"ward_begin":null,"ward_end":null,"ward_altitudeMode":null,"ward_tessellate":-1,"ward_extrude":0,"ward_visibility":-1,"ward_drawOrder":null,"ward_icon":null,"ward_Corporation":"East","ward_corporation_kn":"ಪೂರ್ವ","ward_corporation_id":"3","ward_ac":"K.R. Pura","ward_ac_kn":"ಕೆ.ಆರ್. ಪುರ","ward_ac_no":"151","ward_Assembly":"151 - K.R. Pura","ward_id":"27","ward_name":"27 - Vibhootipura","ward_name_kn":"ವಿಭೂತಿಪುರ","ward_TOT_P":"16475.0","ward_TOT_M":"8709.0","ward_TOT_F":"7767.0","ward_SC_P":"2671.0","ward_SC_M":"1337.0","ward_SC_F":"1333.0","ward_ST_P":"357.0","ward_ST_M":"182.0","ward_ST_F":"175.0","ward_low_range":"14567","ward_high_range":"21851","ward_RO_Code":"4","ward_RO_Division":"RO- Vignananagara","ward_ARO_Code":"11","ward_ARO_ Sub Division":"ARO- Vibhoothipura","ward_zone":"Zone2","ward_zone_name":"K.R. Pura","ward_join_status":"matched","ward_spatial_match_count":1},"geometry":{"type":"Point","coordinates":[77.68226401300007,12.954504377000035,0]},"id":44},{"type":"Feature","properties":{"fid":45,"OBJECTID":45,"Name":"Sulthan Palya Main Road","FolderPath":"Document/flood_prone_locations","SymbolID":0,"AltMode":-1,"Base":0,"Snippet":"","PopupInfo":"","HasLabel":-1,"LabelID":0,"ward_source_id":"ward_369_final.108","ward_source_Name":null,"ward_description":null,"ward_timestamp":null,"ward_begin":null,"ward_end":null,"ward_altitudeMode":null,"ward_tessellate":-1,"ward_extrude":0,"ward_visibility":-1,"ward_drawOrder":null,"ward_icon":null,"ward_Corporation":"North","ward_corporation_kn":"ಉತ್ತರ","ward_corporation_id":"2","ward_ac":"Hebbal","ward_ac_kn":"ಹೆಬ್ಬಾಳ","ward_ac_no":"158","ward_Assembly":"158 - Hebbal","ward_id":"51","ward_name":"51 - Manorayanapalya","ward_name_kn":"ಮನೋರಾಯನಪಾಳ್ಯ","ward_TOT_P":"23684.0","ward_TOT_M":"12157.0","ward_TOT_F":"11528.0","ward_SC_P":"1993.0","ward_SC_M":"1035.0","ward_SC_F":"959.0","ward_ST_P":"243.0","ward_ST_M":"130.0","ward_ST_F":"113.0","ward_low_range":"19943","ward_high_range":"29914","ward_RO_Code":"5","ward_RO_Division":"RO- R.T Nagar","ward_ARO_Code":"14","ward_ARO_ Sub Division":"ARO- Vishwanatha Nagenahalli","ward_zone":"Zone2","ward_zone_name":"Yelahanka","ward_join_status":"matched","ward_spatial_match_count":1},"geometry":{"type":"Point","coordinates":[77.60478321600004,13.029909094000061,0]},"id":45},{"type":"Feature","properties":{"fid":46,"OBJECTID":46,"Name":"Pillappa Garden – Agencies","FolderPath":"Document/flood_prone_locations","SymbolID":0,"AltMode":-1,"Base":0,"Snippet":"","PopupInfo":"","HasLabel":-1,"LabelID":0,"ward_source_id":"ward_369_final.86","ward_source_Name":null,"ward_description":null,"ward_timestamp":null,"ward_begin":null,"ward_end":null,"ward_altitudeMode":null,"ward_tessellate":-1,"ward_extrude":0,"ward_visibility":-1,"ward_drawOrder":null,"ward_icon":null,"ward_Corporation":"North","ward_corporation_kn":"ಉತ್ತರ","ward_corporation_id":"2","ward_ac":"Hebbal","ward_ac_kn":"ಹೆಬ್ಬಾಳ","ward_ac_no":"158","ward_Assembly":"158 - Hebbal","ward_id":"55","ward_name":"55 - Ganganagar","ward_name_kn":"ಗಂಗಾನಗರ","ward_TOT_P":"25186.0","ward_TOT_M":"12939.0","ward_TOT_F":"12247.0","ward_SC_P":"2088.0","ward_SC_M":"1033.0","ward_SC_F":"1055.0","ward_ST_P":"306.0","ward_ST_M":"172.0","ward_ST_F":"134.0","ward_low_range":"19943","ward_high_range":"29914","ward_RO_Code":"5","ward_RO_Division":"RO- R.T Nagar","ward_ARO_Code":"12","ward_ARO_ Sub Division":"ARO- Ganganagar","ward_zone":"Zone2","ward_zone_name":"Yelahanka","ward_join_status":"matched","ward_spatial_match_count":1},"geometry":{"type":"Point","coordinates":[77.59117783400006,13.025907311000026,0]},"id":46},{"type":"Feature","properties":{"fid":47,"OBJECTID":47,"Name":"Anandanagara","FolderPath":"Document/flood_prone_locations","SymbolID":0,"AltMode":-1,"Base":0,"Snippet":"","PopupInfo":"","HasLabel":-1,"LabelID":0,"ward_source_id":"ward_369_final.75","ward_source_Name":null,"ward_description":null,"ward_timestamp":null,"ward_begin":null,"ward_end":null,"ward_altitudeMode":null,"ward_tessellate":-1,"ward_extrude":0,"ward_visibility":-1,"ward_drawOrder":null,"ward_icon":null,"ward_Corporation":"North","ward_corporation_kn":"ಉತ್ತರ","ward_corporation_id":"2","ward_ac":"Hebbal","ward_ac_kn":"ಹೆಬ್ಬಾಳ","ward_ac_no":"158","ward_Assembly":"158 - Hebbal","ward_id":"56","ward_name":"56 - Hebbal","ward_name_kn":"ಹೆಬ್ಬಾಳ","ward_TOT_P":"27422.0","ward_TOT_M":"14044.0","ward_TOT_F":"13378.0","ward_SC_P":"5278.0","ward_SC_M":"2689.0","ward_SC_F":"2588.0","ward_ST_P":"800.0","ward_ST_M":"405.0","ward_ST_F":"395.0","ward_low_range":"19943","ward_high_range":"29914","ward_RO_Code":"4","ward_RO_Division":"RO- Hebbal","ward_ARO_Code":"10","ward_ARO_ Sub Division":"ARO- Hebbal","ward_zone":"Zone2","ward_zone_name":"Yelahanka","ward_join_status":"matched","ward_spatial_match_count":1},"geometry":{"type":"Point","coordinates":[77.59131211700003,13.031328290000033,0]},"id":47},{"type":"Feature","properties":{"fid":48,"OBJECTID":48,"Name":"Miller Tank,","FolderPath":"Document/flood_prone_locations","SymbolID":0,"AltMode":-1,"Base":0,"Snippet":"","PopupInfo":"","HasLabel":-1,"LabelID":0,"ward_source_id":"ward_369_final.306","ward_source_Name":null,"ward_description":null,"ward_timestamp":null,"ward_begin":null,"ward_end":null,"ward_altitudeMode":null,"ward_tessellate":-1,"ward_extrude":0,"ward_visibility":-1,"ward_drawOrder":null,"ward_icon":null,"ward_Corporation":"Central","ward_corporation_kn":"ಕೇಂದ್ರ","ward_corporation_id":"1","ward_ac":"Shivajinagar","ward_ac_kn":"ಶಿವಾಜಿನಗರ","ward_ac_no":"162","ward_Assembly":"162 - Shivajinagar","ward_id":"2","ward_name":"2 - Jayamahal","ward_name_kn":"ಜಯಮಹಲ್","ward_TOT_P":"25834.0","ward_TOT_M":"12803.0","ward_TOT_F":"12981.0","ward_SC_P":"7101.0","ward_SC_M":"3525.0","ward_SC_F":"3575.0","ward_ST_P":"243.0","ward_ST_M":"133.0","ward_ST_F":"111.0","ward_low_range":"18853","ward_high_range":"28280","ward_RO_Code":"7","ward_RO_Division":"RO- Shivajinagar","ward_ARO_Code":"23","ward_ARO_ Sub Division":"ARO- Shivajinagar","ward_zone":"Zone2","ward_zone_name":"Gandhinagara","ward_join_status":"matched","ward_spatial_match_count":1},"geometry":{"type":"Point","coordinates":[77.59806414400003,12.991993796000031,0]},"id":48},{"type":"Feature","properties":{"fid":49,"OBJECTID":49,"Name":"Miller Tank,  Chinnappa Garden","FolderPath":"Document/flood_prone_locations","SymbolID":0,"AltMode":-1,"Base":0,"Snippet":"","PopupInfo":"","HasLabel":-1,"LabelID":0,"ward_source_id":"ward_369_final.306","ward_source_Name":null,"ward_description":null,"ward_timestamp":null,"ward_begin":null,"ward_end":null,"ward_altitudeMode":null,"ward_tessellate":-1,"ward_extrude":0,"ward_visibility":-1,"ward_drawOrder":null,"ward_icon":null,"ward_Corporation":"Central","ward_corporation_kn":"ಕೇಂದ್ರ","ward_corporation_id":"1","ward_ac":"Shivajinagar","ward_ac_kn":"ಶಿವಾಜಿನಗರ","ward_ac_no":"162","ward_Assembly":"162 - Shivajinagar","ward_id":"2","ward_name":"2 - Jayamahal","ward_name_kn":"ಜಯಮಹಲ್","ward_TOT_P":"25834.0","ward_TOT_M":"12803.0","ward_TOT_F":"12981.0","ward_SC_P":"7101.0","ward_SC_M":"3525.0","ward_SC_F":"3575.0","ward_ST_P":"243.0","ward_ST_M":"133.0","ward_ST_F":"111.0","ward_low_range":"18853","ward_high_range":"28280","ward_RO_Code":"7","ward_RO_Division":"RO- Shivajinagar","ward_ARO_Code":"23","ward_ARO_ Sub Division":"ARO- Shivajinagar","ward_zone":"Zone2","ward_zone_name":"Gandhinagara","ward_join_status":"matched","ward_spatial_match_count":1},"geometry":{"type":"Point","coordinates":[77.60297224000004,13.002205536000076,0]},"id":49},{"type":"Feature","properties":{"fid":50,"OBJECTID":50,"Name":"Saraswathipuram – Jogu Palya","FolderPath":"Document/flood_prone_locations","SymbolID":0,"AltMode":-1,"Base":0,"Snippet":"","PopupInfo":"","HasLabel":-1,"LabelID":0,"ward_source_id":"ward_369_final.257","ward_source_Name":null,"ward_description":null,"ward_timestamp":null,"ward_begin":null,"ward_end":null,"ward_altitudeMode":null,"ward_tessellate":-1,"ward_extrude":0,"ward_visibility":-1,"ward_drawOrder":null,"ward_icon":null,"ward_Corporation":"Central","ward_corporation_kn":"ಕೇಂದ್ರ","ward_corporation_id":"1","ward_ac":"Shanthinagar","ward_ac_kn":"ಶಾಂತಿನಗರ","ward_ac_no":"163","ward_Assembly":"163 - Shanthinagar","ward_id":"23","ward_name":"23 - Jogpalya","ward_name_kn":"ಜೋಗಪಾಳ್ಯ","ward_TOT_P":"25803.0","ward_TOT_M":"12923.0","ward_TOT_F":"12879.0","ward_SC_P":"2746.0","ward_SC_M":"1376.0","ward_SC_F":"1370.0","ward_ST_P":"389.0","ward_ST_M":"189.0","ward_ST_F":"199.0","ward_low_range":"18853","ward_high_range":"28280","ward_RO_Code":"6","ward_RO_Division":"RO - Shanthinagar","ward_ARO_Code":"18","ward_ARO_ Sub Division":"ARO- Domluru","ward_zone":"Zone1","ward_zone_name":"C.V. Raman Nagar","ward_join_status":"matched","ward_spatial_match_count":1},"geometry":{"type":"Point","coordinates":[77.63288950500004,12.972383224000055,0]},"id":50},{"type":"Feature","properties":{"fid":51,"OBJECTID":51,"Name":"K R Garden","FolderPath":"Document/flood_prone_locations","SymbolID":0,"AltMode":-1,"Base":0,"Snippet":"","PopupInfo":"","HasLabel":-1,"LabelID":0,"ward_source_id":"ward_369_final.302","ward_source_Name":null,"ward_description":null,"ward_timestamp":null,"ward_begin":null,"ward_end":null,"ward_altitudeMode":null,"ward_tessellate":-1,"ward_extrude":0,"ward_visibility":-1,"ward_drawOrder":null,"ward_icon":null,"ward_Corporation":"Central","ward_corporation_kn":"ಕೇಂದ್ರ","ward_corporation_id":"1","ward_ac":"C.V. Raman Nagar","ward_ac_kn":"ಸಿ.ವಿ. ರಾಮನ್ ನಗರ","ward_ac_no":"161","ward_Assembly":"161 - C.V. Raman Nagar","ward_id":"21","ward_name":"21 - Konena Agrahara","ward_name_kn":"ಕೋನೇನ ಅಗ್ರಹಾರ","ward_TOT_P":"26714.0","ward_TOT_M":"14128.0","ward_TOT_F":"12587.0","ward_SC_P":"3873.0","ward_SC_M":"1959.0","ward_SC_F":"1914.0","ward_ST_P":"251.0","ward_ST_M":"126.0","ward_ST_F":"125.0","ward_low_range":"18853","ward_high_range":"28280","ward_RO_Code":"2","ward_RO_Division":"RO- Jeevan Bhimanagar","ward_ARO_Code":"5","ward_ARO_ Sub Division":"ARO- Konena Agrahara","ward_zone":"Zone1","ward_zone_name":"C.V. Raman Nagar","ward_join_status":"matched","ward_spatial_match_count":1},"geometry":{"type":"Point","coordinates":[77.65615601900004,12.954015239000057,0]},"id":51},{"type":"Feature","properties":{"fid":52,"OBJECTID":52,"Name":"Rudrappa Garden","FolderPath":"Document/flood_prone_locations","SymbolID":0,"AltMode":-1,"Base":0,"Snippet":"","PopupInfo":"","HasLabel":-1,"LabelID":0,"ward_source_id":"ward_369_final.260","ward_source_Name":null,"ward_description":null,"ward_timestamp":null,"ward_begin":null,"ward_end":null,"ward_altitudeMode":null,"ward_tessellate":-1,"ward_extrude":0,"ward_visibility":-1,"ward_drawOrder":null,"ward_icon":null,"ward_Corporation":"Central","ward_corporation_kn":"ಕೇಂದ್ರ","ward_corporation_id":"1","ward_ac":"Shanthinagar","ward_ac_kn":"ಶಾಂತಿನಗರ","ward_ac_no":"163","ward_Assembly":"163 - Shanthinagar","ward_id":"26","ward_name":"26 - Vannarpet","ward_name_kn":"ವನ್ನಾರ್‌ಪೇಟೆ","ward_TOT_P":"22858.0","ward_TOT_M":"11322.0","ward_TOT_F":"11536.0","ward_SC_P":"10884.0","ward_SC_M":"5390.0","ward_SC_F":"5493.0","ward_ST_P":"1139.0","ward_ST_M":"575.0","ward_ST_F":"564.0","ward_low_range":"18853","ward_high_range":"28280","ward_RO_Code":"6","ward_RO_Division":"RO - Shanthinagar","ward_ARO_Code":"20","ward_ARO_ Sub Division":"ARO- Neelasandra","ward_zone":"Zone1","ward_zone_name":"C.V. Raman Nagar","ward_join_status":"matched","ward_spatial_match_count":1},"geometry":{"type":"Point","coordinates":[77.61799566900004,12.95996374300006,0]},"id":52},{"type":"Feature","properties":{"fid":53,"OBJECTID":53,"Name":"TV tower-Jaymahal extension","FolderPath":"Document/flood_prone_locations","SymbolID":0,"AltMode":-1,"Base":0,"Snippet":"","PopupInfo":"","HasLabel":-1,"LabelID":0,"ward_source_id":"ward_369_final.315","ward_source_Name":null,"ward_description":null,"ward_timestamp":null,"ward_begin":null,"ward_end":null,"ward_altitudeMode":null,"ward_tessellate":-1,"ward_extrude":0,"ward_visibility":-1,"ward_drawOrder":null,"ward_icon":null,"ward_Corporation":"West","ward_corporation_kn":"ಪಶ್ಚಿಮ","ward_corporation_id":"5","ward_ac":"Malleshwaram","ward_ac_kn":"ಮಲ್ಲೇಶ್ವರಂ","ward_ac_no":"157","ward_Assembly":"157 - Malleshwaram","ward_id":"51","ward_name":"51 - Rajamahal","ward_name_kn":"ರಾಜಮಹಲ್","ward_TOT_P":"24705.0","ward_TOT_M":"12375.0","ward_TOT_F":"12400.0","ward_SC_P":"3479.0","ward_SC_M":"1692.0","ward_SC_F":"1787.0","ward_ST_P":"329.0","ward_ST_M":"173.0","ward_ST_F":"156.0","ward_low_range":"18949","ward_high_range":"28424","ward_RO_Code":"6","ward_RO_Division":"RO- Malleshwaram","ward_ARO_Code":"21","ward_ARO_ Sub Division":"ARO- Rajamahal","ward_zone":"Zone2","ward_zone_name":"Malleshwaram","ward_join_status":"matched","ward_spatial_match_count":1},"geometry":{"type":"Point","coordinates":[77.59190396800005,13.008076919000075,0]},"id":53},{"type":"Feature","properties":{"fid":54,"OBJECTID":54,"Name":"hotel Chalukya Junction","FolderPath":"Document/flood_prone_locations","SymbolID":0,"AltMode":-1,"Base":0,"Snippet":"","PopupInfo":"","HasLabel":-1,"LabelID":0,"ward_source_id":"ward_369_final.77","ward_source_Name":null,"ward_description":null,"ward_timestamp":null,"ward_begin":null,"ward_end":null,"ward_altitudeMode":null,"ward_tessellate":-1,"ward_extrude":0,"ward_visibility":-1,"ward_drawOrder":null,"ward_icon":null,"ward_Corporation":"Central","ward_corporation_kn":"ಕೇಂದ್ರ","ward_corporation_id":"1","ward_ac":"Shivajinagar","ward_ac_kn":"ಶಿವಾಜಿನಗರ","ward_ac_no":"162","ward_Assembly":"162 - Shivajinagar","ward_id":"4","ward_name":"4 - Sampangirama Nagar","ward_name_kn":"ಸಂಪಂಗಿರಾಮ ನಗರ","ward_TOT_P":"27874.0","ward_TOT_M":"13872.0","ward_TOT_F":"14002.0","ward_SC_P":"1810.0","ward_SC_M":"884.0","ward_SC_F":"926.0","ward_ST_P":"224.0","ward_ST_M":"92.0","ward_ST_F":"132.0","ward_low_range":"18853","ward_high_range":"28280","ward_RO_Code":"7","ward_RO_Division":"RO- Shivajinagar","ward_ARO_Code":"24","ward_ARO_ Sub Division":"ARO- Vasanthanagar","ward_zone":"Zone2","ward_zone_name":"Gandhinagara","ward_join_status":"matched","ward_spatial_match_count":1},"geometry":{"type":"Point","coordinates":[77.58816134900007,12.984498850000023,0]},"id":54},{"type":"Feature","properties":{"fid":55,"OBJECTID":55,"Name":"Dommlur","FolderPath":"Document/flood_prone_locations","SymbolID":0,"AltMode":-1,"Base":0,"Snippet":"","PopupInfo":"","HasLabel":-1,"LabelID":0,"ward_source_id":"ward_369_final.272","ward_source_Name":null,"ward_description":null,"ward_timestamp":null,"ward_begin":null,"ward_end":null,"ward_altitudeMode":null,"ward_tessellate":-1,"ward_extrude":0,"ward_visibility":-1,"ward_drawOrder":null,"ward_icon":null,"ward_Corporation":"Central","ward_corporation_kn":"ಕೇಂದ್ರ","ward_corporation_id":"1","ward_ac":"Shanthinagar","ward_ac_kn":"ಶಾಂತಿನಗರ","ward_ac_no":"163","ward_Assembly":"163 - Shanthinagar","ward_id":"22","ward_name":"22 - Domluru","ward_name_kn":"ದೊಮ್ಮಲೂರು","ward_TOT_P":"19982.0","ward_TOT_M":"10120.0","ward_TOT_F":"9862.0","ward_SC_P":"2790.0","ward_SC_M":"1392.0","ward_SC_F":"1398.0","ward_ST_P":"542.0","ward_ST_M":"272.0","ward_ST_F":"270.0","ward_low_range":"18853","ward_high_range":"28280","ward_RO_Code":"6","ward_RO_Division":"RO - Shanthinagar","ward_ARO_Code":"18","ward_ARO_ Sub Division":"ARO- Domluru","ward_zone":"Zone1","ward_zone_name":"C.V. Raman Nagar","ward_join_status":"matched","ward_spatial_match_count":1},"geometry":{"type":"Point","coordinates":[77.63873905200006,12.960933236000074,0]},"id":55},{"type":"Feature","properties":{"fid":56,"OBJECTID":56,"Name":"Ulsoor","FolderPath":"Document/flood_prone_locations","SymbolID":0,"AltMode":-1,"Base":0,"Snippet":"","PopupInfo":"","HasLabel":-1,"LabelID":0,"ward_source_id":"ward_369_final.46","ward_source_Name":null,"ward_description":null,"ward_timestamp":null,"ward_begin":null,"ward_end":null,"ward_altitudeMode":null,"ward_tessellate":-1,"ward_extrude":0,"ward_visibility":-1,"ward_drawOrder":null,"ward_icon":null,"ward_Corporation":"Central","ward_corporation_kn":"ಕೇಂದ್ರ","ward_corporation_id":"1","ward_ac":"C.V. Raman Nagar","ward_ac_kn":"ಸಿ.ವಿ. ರಾಮನ್ ನಗರ","ward_ac_no":"161","ward_Assembly":"161 - C.V. Raman Nagar","ward_id":"9","ward_name":"9 - Hoysala Nagara Central","ward_name_kn":"ಹೊಯ್ಸಳ ನಗರ ಕೇಂದ್ರ","ward_TOT_P":"27798.0","ward_TOT_M":"13720.0","ward_TOT_F":"14078.0","ward_SC_P":"11211.0","ward_SC_M":"5530.0","ward_SC_F":"5681.0","ward_ST_P":"384.0","ward_ST_M":"193.0","ward_ST_F":"190.0","ward_low_range":"18853","ward_high_range":"28280","ward_RO_Code":"1","ward_RO_Division":"RO- Indiranagar","ward_ARO_Code":"1","ward_ARO_ Sub Division":"ARO- Indiranagar","ward_zone":"Zone1","ward_zone_name":"C.V. Raman Nagar","ward_join_status":"matched","ward_spatial_match_count":1},"geometry":{"type":"Point","coordinates":[77.62396766600006,12.981958364000036,0]},"id":56},{"type":"Feature","properties":{"fid":57,"OBJECTID":57,"Name":"DJ Halli","FolderPath":"Document/flood_prone_locations","SymbolID":0,"AltMode":-1,"Base":0,"Snippet":"","PopupInfo":"","HasLabel":-1,"LabelID":0,"ward_source_id":"ward_369_final.149","ward_source_Name":null,"ward_description":null,"ward_timestamp":null,"ward_begin":null,"ward_end":null,"ward_altitudeMode":null,"ward_tessellate":-1,"ward_extrude":0,"ward_visibility":-1,"ward_drawOrder":null,"ward_icon":null,"ward_Corporation":"North","ward_corporation_kn":"ಉತ್ತರ","ward_corporation_id":"2","ward_ac":"Pulakeshinagar","ward_ac_kn":"ಪುಲಕೇಶಿನಗರ","ward_ac_no":"159","ward_Assembly":"159 - Pulakeshinagar","ward_id":"44","ward_name":"44 - Doddanna Nagar","ward_name_kn":"ದೊಡ್ಡಣ್ಣ ನಗರ","ward_TOT_P":"29566.0","ward_TOT_M":"15106.0","ward_TOT_F":"14609.0","ward_SC_P":"6938.0","ward_SC_M":"3526.0","ward_SC_F":"3413.0","ward_ST_P":"429.0","ward_ST_M":"219.0","ward_ST_F":"210.0","ward_low_range":"19943","ward_high_range":"29914","ward_RO_Code":"7","ward_RO_Division":"RO- Pulikeshinagar","ward_ARO_Code":"19","ward_ARO_ Sub Division":"ARO- Sagayapuram","ward_zone":"Zone1","ward_zone_name":"Byatarayanapura","ward_join_status":"matched","ward_spatial_match_count":1},"geometry":{"type":"Point","coordinates":[77.61028815000003,13.009267539000064,0]},"id":57},{"type":"Feature","properties":{"fid":58,"OBJECTID":58,"Name":"KR circle Underpass","FolderPath":"Document/flood_prone_locations","SymbolID":0,"AltMode":-1,"Base":0,"Snippet":"","PopupInfo":"","HasLabel":-1,"LabelID":0,"ward_source_id":"ward_369_final.77","ward_source_Name":null,"ward_description":null,"ward_timestamp":null,"ward_begin":null,"ward_end":null,"ward_altitudeMode":null,"ward_tessellate":-1,"ward_extrude":0,"ward_visibility":-1,"ward_drawOrder":null,"ward_icon":null,"ward_Corporation":"Central","ward_corporation_kn":"ಕೇಂದ್ರ","ward_corporation_id":"1","ward_ac":"Shivajinagar","ward_ac_kn":"ಶಿವಾಜಿನಗರ","ward_ac_no":"162","ward_Assembly":"162 - Shivajinagar","ward_id":"4","ward_name":"4 - Sampangirama Nagar","ward_name_kn":"ಸಂಪಂಗಿರಾಮ ನಗರ","ward_TOT_P":"27874.0","ward_TOT_M":"13872.0","ward_TOT_F":"14002.0","ward_SC_P":"1810.0","ward_SC_M":"884.0","ward_SC_F":"926.0","ward_ST_P":"224.0","ward_ST_M":"92.0","ward_ST_F":"132.0","ward_low_range":"18853","ward_high_range":"28280","ward_RO_Code":"7","ward_RO_Division":"RO- Shivajinagar","ward_ARO_Code":"24","ward_ARO_ Sub Division":"ARO- Vasanthanagar","ward_zone":"Zone2","ward_zone_name":"Gandhinagara","ward_join_status":"matched","ward_spatial_match_count":1},"geometry":{"type":"Point","coordinates":[77.58732304400007,12.975429143000042,0]},"id":58},{"type":"Feature","properties":{"fid":59,"OBJECTID":59,"Name":"Ashok Nagar,museum road","FolderPath":"Document/flood_prone_locations","SymbolID":0,"AltMode":-1,"Base":0,"Snippet":"","PopupInfo":"","HasLabel":-1,"LabelID":0,"ward_source_id":"ward_369_final.275","ward_source_Name":null,"ward_description":null,"ward_timestamp":null,"ward_begin":null,"ward_end":null,"ward_altitudeMode":null,"ward_tessellate":-1,"ward_extrude":0,"ward_visibility":-1,"ward_drawOrder":null,"ward_icon":null,"ward_Corporation":"Central","ward_corporation_kn":"ಕೇಂದ್ರ","ward_corporation_id":"1","ward_ac":"Shanthinagar","ward_ac_kn":"ಶಾಂತಿನಗರ","ward_ac_no":"163","ward_Assembly":"163 - Shanthinagar","ward_id":"25","ward_name":"25 - Ashokanagar","ward_name_kn":"ಅಶೋಕನಗರ","ward_TOT_P":"21804.0","ward_TOT_M":"10895.0","ward_TOT_F":"10909.0","ward_SC_P":"1987.0","ward_SC_M":"931.0","ward_SC_F":"1056.0","ward_ST_P":"311.0","ward_ST_M":"137.0","ward_ST_F":"174.0","ward_low_range":"18853","ward_high_range":"28280","ward_RO_Code":"6","ward_RO_Division":"RO - Shanthinagar","ward_ARO_Code":"21","ward_ARO_ Sub Division":"ARO- Shanthinagar","ward_zone":"Zone1","ward_zone_name":"C.V. Raman Nagar","ward_join_status":"matched","ward_spatial_match_count":1},"geometry":{"type":"Point","coordinates":[77.60479660200008,12.970775636000042,0]},"id":59},{"type":"Feature","properties":{"fid":60,"OBJECTID":60,"Name":"UB city  road","FolderPath":"Document/flood_prone_locations","SymbolID":0,"AltMode":-1,"Base":0,"Snippet":"","PopupInfo":"","HasLabel":-1,"LabelID":0,"ward_source_id":"ward_369_final.275","ward_source_Name":null,"ward_description":null,"ward_timestamp":null,"ward_begin":null,"ward_end":null,"ward_altitudeMode":null,"ward_tessellate":-1,"ward_extrude":0,"ward_visibility":-1,"ward_drawOrder":null,"ward_icon":null,"ward_Corporation":"Central","ward_corporation_kn":"ಕೇಂದ್ರ","ward_corporation_id":"1","ward_ac":"Shanthinagar","ward_ac_kn":"ಶಾಂತಿನಗರ","ward_ac_no":"163","ward_Assembly":"163 - Shanthinagar","ward_id":"25","ward_name":"25 - Ashokanagar","ward_name_kn":"ಅಶೋಕನಗರ","ward_TOT_P":"21804.0","ward_TOT_M":"10895.0","ward_TOT_F":"10909.0","ward_SC_P":"1987.0","ward_SC_M":"931.0","ward_SC_F":"1056.0","ward_ST_P":"311.0","ward_ST_M":"137.0","ward_ST_F":"174.0","ward_low_range":"18853","ward_high_range":"28280","ward_RO_Code":"6","ward_RO_Division":"RO - Shanthinagar","ward_ARO_Code":"21","ward_ARO_ Sub Division":"ARO- Shanthinagar","ward_zone":"Zone1","ward_zone_name":"C.V. Raman Nagar","ward_join_status":"matched","ward_spatial_match_count":1},"geometry":{"type":"Point","coordinates":[77.59661807400005,12.97132879000003,0]},"id":60},{"type":"Feature","properties":{"fid":61,"OBJECTID":61,"Name":"New Thippasandra","FolderPath":"Document/flood_prone_locations","SymbolID":0,"AltMode":-1,"Base":0,"Snippet":"","PopupInfo":"","HasLabel":-1,"LabelID":0,"ward_source_id":"ward_369_final.303","ward_source_Name":null,"ward_description":null,"ward_timestamp":null,"ward_begin":null,"ward_end":null,"ward_altitudeMode":null,"ward_tessellate":-1,"ward_extrude":0,"ward_visibility":-1,"ward_drawOrder":null,"ward_icon":null,"ward_Corporation":"Central","ward_corporation_kn":"ಕೇಂದ್ರ","ward_corporation_id":"1","ward_ac":"C.V. Raman Nagar","ward_ac_kn":"ಸಿ.ವಿ. ರಾಮನ್ ನಗರ","ward_ac_no":"161","ward_Assembly":"161 - C.V. Raman Nagar","ward_id":"16","ward_name":"16 - New Thippasandra","ward_name_kn":"ನ್ಯೂ ತಿಪ್ಪಸಂದ್ರ","ward_TOT_P":"27969.0","ward_TOT_M":"14607.0","ward_TOT_F":"13361.0","ward_SC_P":"3183.0","ward_SC_M":"1633.0","ward_SC_F":"1550.0","ward_ST_P":"560.0","ward_ST_M":"293.0","ward_ST_F":"267.0","ward_low_range":"18853","ward_high_range":"28280","ward_RO_Code":"2","ward_RO_Division":"RO- Jeevan Bhimanagar","ward_ARO_Code":"3","ward_ARO_ Sub Division":"ARO- Jeevan Bhimanagar","ward_zone":"Zone1","ward_zone_name":"C.V. Raman Nagar","ward_join_status":"matched","ward_spatial_match_count":1},"geometry":{"type":"Point","coordinates":[77.65414289200004,12.972032315000035,0]},"id":61},{"type":"Feature","properties":{"fid":62,"OBJECTID":62,"Name":"Cox town","FolderPath":"Document/flood_prone_locations","SymbolID":0,"AltMode":-1,"Base":0,"Snippet":"","PopupInfo":"","HasLabel":-1,"LabelID":0,"ward_source_id":"ward_369_final.161","ward_source_Name":null,"ward_description":null,"ward_timestamp":null,"ward_begin":null,"ward_end":null,"ward_altitudeMode":null,"ward_tessellate":-1,"ward_extrude":0,"ward_visibility":-1,"ward_drawOrder":null,"ward_icon":null,"ward_Corporation":"Central","ward_corporation_kn":"ಕೇಂದ್ರ","ward_corporation_id":"1","ward_ac":"C.V. Raman Nagar","ward_ac_kn":"ಸಿ.ವಿ. ರಾಮನ್ ನಗರ","ward_ac_no":"161","ward_Assembly":"161 - C.V. Raman Nagar","ward_id":"10","ward_name":"10 - Cox Town","ward_name_kn":"ಕಾಕ್ಸ್ ಟೌನ್","ward_TOT_P":"21026.0","ward_TOT_M":"10550.0","ward_TOT_F":"10477.0","ward_SC_P":"6341.0","ward_SC_M":"3203.0","ward_SC_F":"3137.0","ward_ST_P":"177.0","ward_ST_M":"90.0","ward_ST_F":"87.0","ward_low_range":"18853","ward_high_range":"28280","ward_RO_Code":"1","ward_RO_Division":"RO- Indiranagar","ward_ARO_Code":"1","ward_ARO_ Sub Division":"ARO- Indiranagar","ward_zone":"Zone1","ward_zone_name":"C.V. Raman Nagar","ward_join_status":"matched","ward_spatial_match_count":1},"geometry":{"type":"Point","coordinates":[77.62340844100004,12.995441611000047,0]},"id":62},{"type":"Feature","properties":{"fid":63,"OBJECTID":63,"Name":"Thippasandra","FolderPath":"Document/flood_prone_locations","SymbolID":0,"AltMode":-1,"Base":0,"Snippet":"","PopupInfo":"","HasLabel":-1,"LabelID":0,"ward_source_id":"ward_369_final.293","ward_source_Name":null,"ward_description":null,"ward_timestamp":null,"ward_begin":null,"ward_end":null,"ward_altitudeMode":null,"ward_tessellate":-1,"ward_extrude":0,"ward_visibility":-1,"ward_drawOrder":null,"ward_icon":null,"ward_Corporation":"Central","ward_corporation_kn":"ಕೇಂದ್ರ","ward_corporation_id":"1","ward_ac":"C.V. Raman Nagar","ward_ac_kn":"ಸಿ.ವಿ. ರಾಮನ್ ನಗರ","ward_ac_no":"161","ward_Assembly":"161 - C.V. Raman Nagar","ward_id":"15","ward_name":"15 - Indiranagar","ward_name_kn":"ಇಂದಿರಾನಗರ","ward_TOT_P":"19324.0","ward_TOT_M":"9711.0","ward_TOT_F":"9613.0","ward_SC_P":"3803.0","ward_SC_M":"1930.0","ward_SC_F":"1873.0","ward_ST_P":"224.0","ward_ST_M":"115.0","ward_ST_F":"109.0","ward_low_range":"18853","ward_high_range":"28280","ward_RO_Code":"1","ward_RO_Division":"RO- Indiranagar","ward_ARO_Code":"1","ward_ARO_ Sub Division":"ARO- Indiranagar","ward_zone":"Zone1","ward_zone_name":"C.V. Raman Nagar","ward_join_status":"matched","ward_spatial_match_count":1},"geometry":{"type":"Point","coordinates":[77.64681091900007,12.97370735000004,0]},"id":63},{"type":"Feature","properties":{"fid":64,"OBJECTID":64,"Name":"Indiranagar 80ft road","FolderPath":"Document/flood_prone_locations","SymbolID":0,"AltMode":-1,"Base":0,"Snippet":"","PopupInfo":"","HasLabel":-1,"LabelID":0,"ward_source_id":"ward_369_final.258","ward_source_Name":null,"ward_description":null,"ward_timestamp":null,"ward_begin":null,"ward_end":null,"ward_altitudeMode":null,"ward_tessellate":-1,"ward_extrude":0,"ward_visibility":-1,"ward_drawOrder":null,"ward_icon":null,"ward_Corporation":"Central","ward_corporation_kn":"ಕೇಂದ್ರ","ward_corporation_id":"1","ward_ac":"C.V. Raman Nagar","ward_ac_kn":"ಸಿ.ವಿ. ರಾಮನ್ ನಗರ","ward_ac_no":"161","ward_Assembly":"161 - C.V. Raman Nagar","ward_id":"20","ward_name":"20 - Kodihalli","ward_name_kn":"ಕೋಡಿಹಳ್ಳಿ","ward_TOT_P":"24057.0","ward_TOT_M":"12236.0","ward_TOT_F":"11821.0","ward_SC_P":"3836.0","ward_SC_M":"1904.0","ward_SC_F":"1931.0","ward_ST_P":"323.0","ward_ST_M":"163.0","ward_ST_F":"160.0","ward_low_range":"18853","ward_high_range":"28280","ward_RO_Code":"2","ward_RO_Division":"RO- Jeevan Bhimanagar","ward_ARO_Code":"5","ward_ARO_ Sub Division":"ARO- Konena Agrahara","ward_zone":"Zone1","ward_zone_name":"C.V. Raman Nagar","ward_join_status":"matched","ward_spatial_match_count":1},"geometry":{"type":"Point","coordinates":[77.64774382900004,12.968873333000033,0]},"id":64},{"type":"Feature","properties":{"fid":65,"OBJECTID":65,"Name":"Pulakeshinagara","FolderPath":"Document/flood_prone_locations","SymbolID":0,"AltMode":-1,"Base":0,"Snippet":"","PopupInfo":"","HasLabel":-1,"LabelID":0,"ward_source_id":"ward_369_final.134","ward_source_Name":null,"ward_description":null,"ward_timestamp":null,"ward_begin":null,"ward_end":null,"ward_altitudeMode":null,"ward_tessellate":-1,"ward_extrude":0,"ward_visibility":-1,"ward_drawOrder":null,"ward_icon":null,"ward_Corporation":"North","ward_corporation_kn":"ಉತ್ತರ","ward_corporation_id":"2","ward_ac":"Pulakeshinagar","ward_ac_kn":"ಪುಲಕೇಶಿನಗರ","ward_ac_no":"159","ward_Assembly":"159 - Pulakeshinagar","ward_id":"47","ward_name":"47 - Pulakeshi Nagar","ward_name_kn":"ಪುಲಕೇಶಿ ನಗರ","ward_TOT_P":"21148.0","ward_TOT_M":"10628.0","ward_TOT_F":"10520.0","ward_SC_P":"1328.0","ward_SC_M":"673.0","ward_SC_F":"655.0","ward_ST_P":"325.0","ward_ST_M":"164.0","ward_ST_F":"161.0","ward_low_range":"19943","ward_high_range":"29914","ward_RO_Code":"7","ward_RO_Division":"RO- Pulikeshinagar","ward_ARO_Code":"18","ward_ARO_ Sub Division":"ARO- Pulikeshinagar","ward_zone":"Zone1","ward_zone_name":"Byatarayanapura","ward_join_status":"matched","ward_spatial_match_count":1},"geometry":{"type":"Point","coordinates":[77.60990363400003,12.996840553000027,0]},"id":65},{"type":"Feature","properties":{"fid":66,"OBJECTID":66,"Name":"Banaswadi","FolderPath":"Document/flood_prone_locations","SymbolID":0,"AltMode":-1,"Base":0,"Snippet":"","PopupInfo":"","HasLabel":-1,"LabelID":0,"ward_source_id":"ward_369_final.319","ward_source_Name":null,"ward_description":null,"ward_timestamp":null,"ward_begin":null,"ward_end":null,"ward_altitudeMode":null,"ward_tessellate":-1,"ward_extrude":0,"ward_visibility":-1,"ward_drawOrder":null,"ward_icon":null,"ward_Corporation":"North","ward_corporation_kn":"ಉತ್ತರ","ward_corporation_id":"2","ward_ac":"Sarvagnanagar","ward_ac_kn":"ಸರ್ವಜ್ಞನಗರ","ward_ac_no":"160","ward_Assembly":"160 - Sarvagnanagar","ward_id":"31","ward_name":"31 - Kalyan Nagar","ward_name_kn":"ಕಲ್ಯಾಣ ನಗರ","ward_TOT_P":"23746.0","ward_TOT_M":"11942.0","ward_TOT_F":"11804.0","ward_SC_P":"2783.0","ward_SC_M":"1441.0","ward_SC_F":"1342.0","ward_ST_P":"352.0","ward_ST_M":"173.0","ward_ST_F":"179.0","ward_low_range":"19943","ward_high_range":"29914","ward_RO_Code":"10","ward_RO_Division":"RO- Maruthi Sevanagar","ward_ARO_Code":"25","ward_ARO_ Sub Division":"ARO- Banaswadi","ward_zone":"Zone1","ward_zone_name":"Byatarayanapura","ward_join_status":"matched","ward_spatial_match_count":1},"geometry":{"type":"Point","coordinates":[77.64712862900006,13.011903787000051,0]},"id":66},{"type":"Feature","properties":{"fid":67,"OBJECTID":67,"Name":"Sarjapur road","FolderPath":"Document/flood_prone_locations","SymbolID":0,"AltMode":-1,"Base":0,"Snippet":"","PopupInfo":"","HasLabel":-1,"LabelID":0,"ward_source_id":"ward_369_final.348","ward_source_Name":null,"ward_description":null,"ward_timestamp":null,"ward_begin":null,"ward_end":null,"ward_altitudeMode":null,"ward_tessellate":-1,"ward_extrude":0,"ward_visibility":-1,"ward_drawOrder":null,"ward_icon":null,"ward_Corporation":"West","ward_corporation_kn":"ಪಶ್ಚಿಮ","ward_corporation_id":"5","ward_ac":"Dasarahalli","ward_ac_kn":"ದಾಸರಹಳ್ಳಿ","ward_ac_no":"155","ward_Assembly":"155 - Dasarahalli","ward_id":"6","ward_name":"6 - Shivapura","ward_name_kn":"ಶಿವಪುರ","ward_TOT_P":"26408.0","ward_TOT_M":"14281.0","ward_TOT_F":"12117.0","ward_SC_P":"3647.0","ward_SC_M":"1945.0","ward_SC_F":"1702.0","ward_ST_P":"958.0","ward_ST_M":"517.0","ward_ST_F":"441.0","ward_low_range":"18949","ward_high_range":"28424","ward_RO_Code":"2","ward_RO_Division":"RO- Hegganahalli","ward_ARO_Code":"7","ward_ARO_ Sub Division":"ARO- Shivapura","ward_zone":"Zone1","ward_zone_name":"Rajarajeshwarinagar","ward_join_status":"matched","ward_spatial_match_count":1},"geometry":{"type":"Point","coordinates":[77.49937926300004,13.006586088000063,0]},"id":67},{"type":"Feature","properties":{"fid":68,"OBJECTID":68,"Name":"NGV to HSR Layout","FolderPath":"Document/flood_prone_locations","SymbolID":0,"AltMode":-1,"Base":0,"Snippet":"","PopupInfo":"","HasLabel":-1,"LabelID":0,"ward_source_id":"ward_369_final.120","ward_source_Name":null,"ward_description":null,"ward_timestamp":null,"ward_begin":null,"ward_end":null,"ward_altitudeMode":null,"ward_tessellate":-1,"ward_extrude":0,"ward_visibility":-1,"ward_drawOrder":null,"ward_icon":null,"ward_Corporation":"South","ward_corporation_kn":"ದಕ್ಷಿಣ","ward_corporation_id":"4","ward_ac":"Bommanahalli","ward_ac_kn":"ಬೊಮ್ಮನಹಳ್ಳಿ","ward_ac_no":"175","ward_Assembly":"175 - Bommanahalli","ward_id":"71","ward_name":"71 - Agara","ward_name_kn":"ಅಗರ","ward_TOT_P":"18836.0","ward_TOT_M":"9742.0","ward_TOT_F":"9095.0","ward_SC_P":"1264.0","ward_SC_M":"639.0","ward_SC_F":"625.0","ward_ST_P":"288.0","ward_ST_M":"142.0","ward_ST_F":"147.0","ward_low_range":"18594","ward_high_range":"27891","ward_RO_Code":"1","ward_RO_Division":"RO- HSR Layout","ward_ARO_Code":"21","ward_ARO_ Sub Division":"ARO- HSR Layout","ward_zone":"Zone2","ward_zone_name":"Bommanahalli","ward_join_status":"matched","ward_spatial_match_count":1},"geometry":{"type":"Point","coordinates":[77.64766775500004,12.906769695000037,0]},"id":68},{"type":"Feature","properties":{"fid":69,"OBJECTID":69,"Name":"Kallena Agrahara in Arekere","FolderPath":"Document/flood_prone_locations","SymbolID":0,"AltMode":-1,"Base":0,"Snippet":"","PopupInfo":"","HasLabel":-1,"LabelID":0,"ward_source_id":"ward_369_final.65","ward_source_Name":null,"ward_description":null,"ward_timestamp":null,"ward_begin":null,"ward_end":null,"ward_altitudeMode":null,"ward_tessellate":-1,"ward_extrude":0,"ward_visibility":-1,"ward_drawOrder":null,"ward_icon":null,"ward_Corporation":"South","ward_corporation_kn":"ದಕ್ಷಿಣ","ward_corporation_id":"4","ward_ac":"Bangalore South","ward_ac_kn":"ಬೆಂಗಳೂರು ದಕ್ಷಿಣ","ward_ac_no":"176","ward_Assembly":"176 - Bangalore South","ward_id":"37","ward_name":"37 - Yelenahalli","ward_name_kn":"ಯೆಲೇನಹಳ್ಳಿ","ward_TOT_P":"18609.0","ward_TOT_M":"9923.0","ward_TOT_F":"8636.0","ward_SC_P":"1636.0","ward_SC_M":"833.0","ward_SC_F":"803.0","ward_ST_P":"156.0","ward_ST_M":"87.0","ward_ST_F":"69.0","ward_low_range":"18594","ward_high_range":"27891","ward_RO_Code":"5","ward_RO_Division":"RO- Beguru","ward_ARO_Code":"11","ward_ARO_ Sub Division":"ARO- Beguru","ward_zone":"Zone1","ward_zone_name":"Jayanagar","ward_join_status":"matched","ward_spatial_match_count":1},"geometry":{"type":"Point","coordinates":[77.59350208600006,12.87097017800005,0]},"id":69},{"type":"Feature","properties":{"fid":70,"OBJECTID":70,"Name":"RR Layout in Arekere & Hulimavu junction","FolderPath":"Document/flood_prone_locations","SymbolID":0,"AltMode":-1,"Base":0,"Snippet":"","PopupInfo":"","HasLabel":-1,"LabelID":0,"ward_source_id":"ward_369_final.199","ward_source_Name":null,"ward_description":null,"ward_timestamp":null,"ward_begin":null,"ward_end":null,"ward_altitudeMode":null,"ward_tessellate":-1,"ward_extrude":0,"ward_visibility":-1,"ward_drawOrder":null,"ward_icon":null,"ward_Corporation":"South","ward_corporation_kn":"ದಕ್ಷಿಣ","ward_corporation_id":"4","ward_ac":"Bommanahalli","ward_ac_kn":"ಬೊಮ್ಮನಹಳ್ಳಿ","ward_ac_no":"175","ward_Assembly":"175 - Bommanahalli","ward_id":"58","ward_name":"58 - Arakere","ward_name_kn":"ಅರಕೆರೆ","ward_TOT_P":"18995.0","ward_TOT_M":"9900.0","ward_TOT_F":"9095.0","ward_SC_P":"1407.0","ward_SC_M":"729.0","ward_SC_F":"678.0","ward_ST_P":"356.0","ward_ST_M":"185.0","ward_ST_F":"171.0","ward_low_range":"18594","ward_high_range":"27891","ward_RO_Code":"6","ward_RO_Division":"RO- Arakere","ward_ARO_Code":"15","ward_ARO_ Sub Division":"ARO- Arakere","ward_zone":"Zone2","ward_zone_name":"Bommanahalli","ward_join_status":"matched","ward_spatial_match_count":1},"geometry":{"type":"Point","coordinates":[77.59658071100006,12.884240378000072,0]},"id":70}]}
